{"type":"FeatureCollection","source":{"archive":"CAMO, Bestand 500, Findbuch 12457, Akte 527","map_date":"1942-12-01","url":"https://wwii.germandocsinrussia.org/de/nodes/20933-akte-527-unterlagen-der-operationsabteilung-iiib-des-generalstabs-des-heeres-im-okh-karte-lage-ost-karte-zur-lage-der-truppen-der-wehrmacht-an-der-deutsch-sowjetischen-front-einschlie-lich-der-lage-der-verb-nde-der-roten-armee-stand-1-12-1942","residuals_km":{"1258858":{"Sewastopol":4.5,"Simferopol":5.6,"Jalta":2.5,"Kertsch":4.6,"Rostow":19.1,"Nowotscherkassk":18.6,"Schachty":10.9,"Stalingrad":3.6,"Astrachan":3.8,"Kanewskaja":18.9,"Primorsko-Achtarsk":2.6,"Brjuchowezkaja":1.9,"Slawjanskaja":18.6,"Naltschik":10.6,"Signachi":11.3,"Nucha":9.9}}},"features":[{"type":"Feature","properties":{"side":"front"},"geometry":{"type":"LineString","coordinates":[[30.2095,59.811],[30.3727,59.7551],[30.7423,59.7173],[31.1075,59.7887],[31.4752,59.7208],[31.6381,59.6284],[31.25,59.9],[31.75,59.6],[32.0,59.45],[31.85,59.2],[31.75,59.05],[31.65,58.85],[31.55,58.7],[31.55,58.55],[31.4,58.45],[31.45,58.25],[31.5,58.05],[31.45,57.8],[31.3,57.5],[31.6,57.25],[31.8,57.0],[31.4,56.9],[30.75,56.6],[30.35,56.55],[30.25,56.35],[30.4,56.15],[30.85,56.05],[31.0,56.0],[31.3,55.6],[31.75,55.5],[32.0,55.7],[32.1,55.95],[32.45,56.05],[32.85,56.15],[32.9853,56.2541],[33.2018,56.3081],[33.5621,56.3446],[33.743,56.3684],[33.836,56.2688],[34.0471,56.2554],[34.1209,56.3175],[34.2617,56.31],[34.3919,56.2859],[34.5056,56.0454],[34.481,55.9383],[34.5532,55.8116],[34.7466,55.744],[34.8852,55.7251],[35.063,55.7351],[35.2057,55.6911],[35.2687,55.5892],[35.2022,55.4551],[35.4054,55.2592],[35.3055,55.0724],[35.0,55.0],[34.5,54.85],[34.2,54.75],[34.2166,54.4657],[33.9804,54.3084],[34.0668,54.1209],[34.5783,54.0082],[35.0197,53.9186],[35.1563,53.7679],[35.2965,53.5802],[35.7192,53.5573],[36.0696,53.6258],[36.2051,53.536],[36.4036,53.3794],[36.8646,53.3303],[36.8681,53.0293],[37.0071,52.8632],[37.1676,52.7366],[37.3348,52.508],[37.4452,52.3791],[37.5427,52.2815],[37.6454,52.2225],[37.789,52.2101],[38.0207,52.2206],[38.1643,52.2077],[38.2808,52.1999],[38.4683,52.2202],[38.7104,52.1914],[38.8978,52.1348],[39.1287,52.0363],[39.2299,51.7828],[39.2562,51.6465],[39.3034,51.5534],[39.2809,51.4873],[39.3322,51.3718],[39.3311,51.2822],[39.3339,51.1695],[39.3708,51.0548],[39.4319,50.984],[39.5358,50.9676],[39.6629,50.9357],[39.7758,50.9176],[39.8348,50.8762],[39.8911,50.7168],[39.9911,50.5773],[40.0613,50.4627],[40.1265,50.3701],[40.1186,50.2581],[40.157,50.1673],[40.1723,50.0545],[40.2727,50.0732],[40.4222,50.1248],[40.5127,50.0436],[40.6076,49.9289],[40.7778,49.8796],[40.8989,49.7878],[41.0193,49.7183],[41.1138,49.627],[41.2371,49.536],[41.3837,49.5338],[41.5346,49.5092],[41.6577,49.4858],[41.8409,49.5312],[42.0038,49.5189],[42.0592,49.3613],[42.1391,49.2026],[42.1743,49.0767],[42.2085,48.9507],[42.2983,48.8539],[42.4339,48.7236],[42.6191,48.5925],[42.8131,48.5389],[43.0,48.45],[43.08,48.33],[43.15,48.15],[43.4,47.9],[43.55,47.7],[43.8,47.4],[44.3,47.0],[45.0,46.7],[45.4,46.3],[45.5,45.6],[45.9,45.0],[46.1,44.4],[46.1,44.09],[45.74,43.71],[45.57,43.74],[45.3225,43.8892],[45.1903,43.8735],[44.9698,43.8572],[44.7944,43.7909],[44.6858,43.6728],[44.5777,43.5878],[44.4706,43.4854],[44.3872,43.3826],[44.37,43.2628],[44.5036,43.1778],[44.2849,43.2103],[44.109,43.2609],[43.8875,43.3271],[43.6707,43.2906],[43.3642,43.3038],[42.83,43.6],[41.94,43.86],[41.21,43.93],[40.74,43.88],[40.29,44.26],[39.8327,44.2252],[39.692,44.2747],[39.546,44.3761],[39.4018,44.4428],[39.2069,44.561],[39.1435,44.7522],[38.951,44.835],[38.7187,44.8467],[38.4903,44.8054],[38.2631,44.7644],[38.0759,44.7764],[37.8946,44.736],[37.85,44.66],[37.6,44.3]]}},{"type":"Feature","properties":{"side":"soviet"},"geometry":{"type":"Polygon","coordinates":[[[30.2095,59.811],[30.2095,60.0],[32.6,60.0],[33.0,60.6],[60.0,60.6],[60.0,40.0],[37.6,40.0],[37.6,44.3],[37.85,44.66],[37.8946,44.736],[38.0759,44.7764],[38.2631,44.7644],[38.4903,44.8054],[38.7187,44.8467],[38.951,44.835],[39.1435,44.7522],[39.2069,44.561],[39.4018,44.4428],[39.546,44.3761],[39.692,44.2747],[39.8327,44.2252],[40.29,44.26],[40.74,43.88],[41.21,43.93],[41.94,43.86],[42.83,43.6],[43.3642,43.3038],[43.6707,43.2906],[43.8875,43.3271],[44.109,43.2609],[44.2849,43.2103],[44.5036,43.1778],[44.37,43.2628],[44.3872,43.3826],[44.4706,43.4854],[44.5777,43.5878],[44.6858,43.6728],[44.7944,43.7909],[44.9698,43.8572],[45.1903,43.8735],[45.3225,43.8892],[45.57,43.74],[45.74,43.71],[46.1,44.09],[46.1,44.4],[45.9,45.0],[45.5,45.6],[45.4,46.3],[45.0,46.7],[44.3,47.0],[43.8,47.4],[43.55,47.7],[43.4,47.9],[43.15,48.15],[43.08,48.33],[43.0,48.45],[42.8131,48.5389],[42.6191,48.5925],[42.4339,48.7236],[42.2983,48.8539],[42.2085,48.9507],[42.1743,49.0767],[42.1391,49.2026],[42.0592,49.3613],[42.0038,49.5189],[41.8409,49.5312],[41.6577,49.4858],[41.5346,49.5092],[41.3837,49.5338],[41.2371,49.536],[41.1138,49.627],[41.0193,49.7183],[40.8989,49.7878],[40.7778,49.8796],[40.6076,49.9289],[40.5127,50.0436],[40.4222,50.1248],[40.2727,50.0732],[40.1723,50.0545],[40.157,50.1673],[40.1186,50.2581],[40.1265,50.3701],[40.0613,50.4627],[39.9911,50.5773],[39.8911,50.7168],[39.8348,50.8762],[39.7758,50.9176],[39.6629,50.9357],[39.5358,50.9676],[39.4319,50.984],[39.3708,51.0548],[39.3339,51.1695],[39.3311,51.2822],[39.3322,51.3718],[39.2809,51.4873],[39.3034,51.5534],[39.2562,51.6465],[39.2299,51.7828],[39.1287,52.0363],[38.8978,52.1348],[38.7104,52.1914],[38.4683,52.2202],[38.2808,52.1999],[38.1643,52.2077],[38.0207,52.2206],[37.789,52.2101],[37.6454,52.2225],[37.5427,52.2815],[37.4452,52.3791],[37.3348,52.508],[37.1676,52.7366],[37.0071,52.8632],[36.8681,53.0293],[36.8646,53.3303],[36.4036,53.3794],[36.2051,53.536],[36.0696,53.6258],[35.7192,53.5573],[35.2965,53.5802],[35.1563,53.7679],[35.0197,53.9186],[34.5783,54.0082],[34.0668,54.1209],[33.9804,54.3084],[34.2166,54.4657],[34.2,54.75],[34.5,54.85],[35.0,55.0],[35.3055,55.0724],[35.4054,55.2592],[35.2022,55.4551],[35.2687,55.5892],[35.2057,55.6911],[35.063,55.7351],[34.8852,55.7251],[34.7466,55.744],[34.5532,55.8116],[34.481,55.9383],[34.5056,56.0454],[34.3919,56.2859],[34.2617,56.31],[34.1209,56.3175],[34.0471,56.2554],[33.836,56.2688],[33.743,56.3684],[33.5621,56.3446],[33.2018,56.3081],[32.9853,56.2541],[32.85,56.15],[32.45,56.05],[32.1,55.95],[32.0,55.7],[31.75,55.5],[31.3,55.6],[31.0,56.0],[30.85,56.05],[30.4,56.15],[30.25,56.35],[30.35,56.55],[30.75,56.6],[31.4,56.9],[31.8,57.0],[31.6,57.25],[31.3,57.5],[31.45,57.8],[31.5,58.05],[31.45,58.25],[31.4,58.45],[31.55,58.55],[31.55,58.7],[31.65,58.85],[31.75,59.05],[31.85,59.2],[32.0,59.45],[31.75,59.6],[31.25,59.9],[31.6381,59.6284],[31.4752,59.7208],[31.1075,59.7887],[30.7423,59.7173],[30.3727,59.7551],[30.2095,59.811]]]}},{"type":"Feature","properties":{"side":"axis"},"geometry":{"type":"Polygon","coordinates":[[[28.22193824443625,58.2945573641511],[28.082871526905446,58.49667456943741],[27.964285404103922,58.711449447103405],[27.867321925220022,58.93681359766926],[27.79291490156103,59.17059664116846],[27.741780913439797,59.410547119093295],[27.714412409114612,59.65435417717107],[27.71107296224327,59.89966982015401],[27.71957743964876,60.0],[30.2095,60.0],[30.2095,59.811],[30.3727,59.7551],[30.7423,59.7173],[31.1075,59.7887],[31.4752,59.7208],[31.6381,59.6284],[31.25,59.9],[31.75,59.6],[32.0,59.45],[31.85,59.2],[31.75,59.05],[31.65,58.85],[31.55,58.7],[31.55,58.55],[31.4,58.45],[31.45,58.25],[31.5,58.05],[31.45,57.8],[31.3,57.5],[31.6,57.25],[31.8,57.0],[31.4,56.9],[30.75,56.6],[30.35,56.55],[30.25,56.35],[30.4,56.15],[30.85,56.05],[31.0,56.0],[31.3,55.6],[31.75,55.5],[32.0,55.7],[32.1,55.95],[32.45,56.05],[32.85,56.15],[32.9853,56.2541],[33.2018,56.3081],[33.5621,56.3446],[33.743,56.3684],[33.836,56.2688],[34.0471,56.2554],[34.1209,56.3175],[34.2617,56.31],[34.3919,56.2859],[34.5056,56.0454],[34.481,55.9383],[34.5532,55.8116],[34.7466,55.744],[34.8852,55.7251],[35.063,55.7351],[35.2057,55.6911],[35.2687,55.5892],[35.2022,55.4551],[35.4054,55.2592],[35.3055,55.0724],[35.0,55.0],[34.5,54.85],[34.2,54.75],[34.2166,54.4657],[33.9804,54.3084],[34.0668,54.1209],[34.5783,54.0082],[35.0197,53.9186],[35.1563,53.7679],[35.2965,53.5802],[35.7192,53.5573],[36.0696,53.6258],[36.2051,53.536],[36.4036,53.3794],[36.8646,53.3303],[36.8681,53.0293],[37.0071,52.8632],[37.1676,52.7366],[37.3348,52.508],[37.4452,52.3791],[37.5427,52.2815],[37.6454,52.2225],[37.789,52.2101],[38.0207,52.2206],[38.1643,52.2077],[38.2808,52.1999],[38.4683,52.2202],[38.7104,52.1914],[38.8978,52.1348],[39.1287,52.0363],[39.2299,51.7828],[39.2562,51.6465],[39.3034,51.5534],[39.2809,51.4873],[39.3322,51.3718],[39.3311,51.2822],[39.3339,51.1695],[39.3708,51.0548],[39.4319,50.984],[39.5358,50.9676],[39.6629,50.9357],[39.7758,50.9176],[39.8348,50.8762],[39.8911,50.7168],[39.9911,50.5773],[40.0613,50.4627],[40.1265,50.3701],[40.1186,50.2581],[40.157,50.1673],[40.1723,50.0545],[40.2727,50.0732],[40.4222,50.1248],[40.5127,50.0436],[40.6076,49.9289],[40.7778,49.8796],[40.8989,49.7878],[41.0193,49.7183],[41.1138,49.627],[41.2371,49.536],[41.3837,49.5338],[41.5346,49.5092],[41.6577,49.4858],[41.8409,49.5312],[42.0038,49.5189],[42.0592,49.3613],[42.1391,49.2026],[42.1743,49.0767],[42.2085,48.9507],[42.2983,48.8539],[42.4339,48.7236],[42.6191,48.5925],[42.8131,48.5389],[43.0,48.45],[43.08,48.33],[43.15,48.15],[43.4,47.9],[43.55,47.7],[43.8,47.4],[44.3,47.0],[45.0,46.7],[45.4,46.3],[45.5,45.6],[45.9,45.0],[46.1,44.4],[46.1,44.09],[45.74,43.71],[45.57,43.74],[45.3225,43.8892],[45.1903,43.8735],[44.9698,43.8572],[44.7944,43.7909],[44.6858,43.6728],[44.5777,43.5878],[44.4706,43.4854],[44.3872,43.3826],[44.37,43.2628],[44.5036,43.1778],[44.2849,43.2103],[44.109,43.2609],[43.8875,43.3271],[43.6707,43.2906],[43.3642,43.3038],[42.83,43.6],[41.94,43.86],[41.21,43.93],[40.74,43.88],[40.29,44.26],[39.8327,44.2252],[39.692,44.2747],[39.546,44.3761],[39.4018,44.4428],[39.2069,44.561],[39.1435,44.7522],[38.951,44.835],[38.7187,44.8467],[38.4903,44.8054],[38.2631,44.7644],[38.0759,44.7764],[37.8946,44.736],[37.85,44.66],[37.6,44.3],[37.6,41.80179955630504],[37.55515480161081,41.80040225072484],[37.31036732014034,41.81683409520078],[37.06836915970624,41.8571801847765],[36.83149089488315,41.921051964553975],[36.602013792852155,42.007834314378066],[36.38214784355074,42.11669147277993],[36.17401047626164,42.24657508581676],[35.97960616761131,42.39623430329342],[35.80080713736425,42.56422782513355],[35.63933531792325,42.74893778188724],[35.49674577117898,42.94858531569821],[35.37441171241397,43.161247711677426],[35.27351128548874,43.38487691469851],[35.19501621667234,43.6173192532882],[35.139682456387256,43.856336180659994],[35.108042898993546,44.09962583314334],[35.10040225072484,44.34484519838919],[35.11683409520079,44.58963267985966],[35.15718018477651,44.831630840293755],[35.22105196455398,45.068509105116846],[35.30783431437807,45.297986207147844],[35.41669147277993,45.51785215644926],[35.54657508581676,45.725989523738356],[35.750691418320535,46.01991704254379],[35.87939567329274,46.21551056826924],[36.04153630601757,46.41414032370484],[36.22316920144979,46.595117824576434],[36.42238377436474,46.756539379714305],[36.6370844989567,46.89670700573581],[36.86501295154557,47.01414628802781],[37.10377156679629,47.10762189002306],[37.35084885756073,47.17615054762938],[37.53214885756073,47.21655054762939],[37.76463419605485,47.256947036299536],[37.99989260453027,47.275244308042005],[38.09086533149649,47.27371548873882],[38.27385623981264,47.30680447522506],[38.55810225325534,47.341536340071336],[38.84445536306005,47.34353511443219],[39.07675536306005,47.331835114432195],[39.29811108614848,47.31078551047396],[39.516720941617194,47.27015088161201],[39.730855587628845,47.21025267338952],[39.93882108407548,47.13156471841225],[40.13132108407548,47.04876471841226],[40.342131344084784,46.946119529284864],[40.54239805911898,46.82417592172138],[40.67138169043681,46.727988411481924],[40.824595068866486,46.70217282605954],[41.047785906105126,46.64182361794893],[40.98946810459993,46.683105819770375],[40.84114441265764,46.79665172903118],[40.7017127798247,46.92095543318674],[40.5661127798247,47.051255433186746],[40.465507252388804,47.153643918021814],[40.45823967150311,47.161478014121315],[40.43787261185906,47.16719532632059],[40.19749335271262,47.26240856376615],[39.96823335180967,47.38193931628882],[39.75254469154273,47.52450912601341],[39.62924469154273,47.615509126013414],[39.62797555487338,47.61658242748074],[39.45176151706441,47.66058598846807],[39.227232706425426,47.7400134887808],[39.01128085999917,47.84044612609545],[38.8058658501366,47.96097242337554],[38.612851922061665,48.100498543446186],[38.433990774901936,48.257758216120365],[38.270905664132094,48.43132423024201],[38.12507666970858,48.61962138634988],[37.997827263594544,48.82094079241028],[37.90483644263584,49.004746882111235],[37.902739398147276,49.006206316689884],[37.71234447643197,49.16930200822101],[37.53924152359022,49.35064642784417],[37.478141523590224,49.42144642784417],[37.3242688938168,49.618934257172846],[37.235950526947235,49.759269451611985],[37.16106832039891,49.76986410689748],[36.89754426530445,49.83697871523162],[36.64286875529548,49.932318543566645],[36.4000550824121,50.054755541758205],[36.2973550824121,50.11375554175821],[36.11134376507259,50.23181238264598],[35.93644838953536,50.3657871395014],[35.77402719686473,50.514639361621974],[35.676527196864726,50.612239361621974],[35.54643475239185,50.75284954743263],[35.436034752391855,50.881749547432634],[35.33631399218101,51.00765297517103],[35.26509884474401,51.0700374376296],[35.25708415834913,51.078669326242185],[35.16125947379778,51.08386068010125],[34.919543271539055,51.108782668817746],[34.68138842544817,51.15705374959488],[34.44904493974575,51.22821787403699],[34.224707914939046,51.3216027082278],[34.010496809275274,51.43632598470763],[33.80843541483657,51.57130383782974],[33.730653583800205,51.635000129522325],[33.52887160326382,51.67945922865517],[33.2819827467974,51.74728211182264],[33.04332556236073,51.84000103785832],[32.8154032411895,51.9566435105703],[32.60060638031566,52.095986108103126],[32.40118790843635,52.25656731497917],[32.21923945573742,52.43670285142024],[32.05666941552041,52.63450333916557],[31.91518292773665,52.84789411849556],[31.833078141609647,53.004443424582476],[31.69966986245396,53.00050667589317],[31.452205818200973,53.017799640382215],[31.20767385545335,53.05953234954012],[30.75767385545335,53.15953234954012],[30.51381789622401,53.22683382383316],[30.27801184012483,53.31843470374505],[30.0526701607237,53.4333970663615],[29.840100184378787,53.57054378506233],[29.642478464982304,53.72847058239723],[29.579572657972808,53.79013667961428],[29.37801184012482,53.868434703745045],[29.152670160723687,53.983397066361505],[28.94010018437877,54.12054378506234],[28.742478464982284,54.27847058239724],[28.56182849771419,54.4555604088123],[28.39999999999998,54.65000000000002],[28.249999999999982,54.85000000000002],[28.109401801473936,55.058551451870045],[27.990470416483152,55.28017475202154],[27.894409650647884,55.51262666268911],[27.822191816615522,55.75355434053775],[27.774547892457978,56.000519151789746],[27.75196012282141,56.251021355709604],[27.754657137718315,56.50252540660444],[27.782611638368895,56.75248561823669],[27.835540673515183,56.998371930878015],[27.912908503411202,57.23769552019391],[28.013932022500228,57.46803398874993],[28.11393202250023,57.668033988749926],[28.234425118186017,57.882044638680604],[28.375335760554623,58.083199641747804],[28.388677452432187,58.09874229440007],[28.380146268184905,58.107044330419896],[28.22193824443625,58.2945573641511]]]}},{"type":"Feature","properties":{"side":"soviet_pocket","name":"Oranienbaum bridgehead","note":"Coastal bridgehead west of Leningrad"},"geometry":{"type":"Polygon","coordinates":[[[29.2,59.95],[29.95,59.92],[29.95,59.8],[29.5,59.7],[29.15,59.78],[29.2,59.95]]]}},{"type":"Feature","properties":{"side":"axis_pocket","name":"Demyansk salient","note":"II Army Corps, linked to the main front on 21 April 1942 by the Ramushevo corridor along the Lovat (Lage Ost: 'Gr. Seydlitz' corridor)"},"geometry":{"type":"Polygon","coordinates":[[[31.45,57.95],[31.75,57.93],[32.35,57.95],[32.85,57.85],[33.05,57.6],[32.9,57.35],[32.3,57.3],[31.8,57.5],[31.7,57.8],[31.48,57.84],[31.45,57.95]]]}},{"type":"Feature","properties":{"side":"axis_pocket","name":"Kholm","note":"Kampfgruppe Scherer, relieved from the west on 5 May 1942; the town is a German salient tip (the strip on the map covers this sector)"},"geometry":{"type":"Polygon","coordinates":[[[31.5,57.22],[31.75,57.21],[31.78,57.1],[31.6,57.06],[31.5,57.12],[31.5,57.22]]]}},{"type":"Feature","properties":{"side":"axis_pocket","name":"Stalingrad pocket","note":"The 6th Army and part of the 4th Panzer Army encircled since 23 November 1942 (Lage Ost: ring round \"6.\" between the Don and the Volga)"},"geometry":{"type":"Polygon","coordinates":[[[43.643,48.7],[43.864,48.815],[44.17,48.833],[44.477,48.85],[44.673,48.811],[44.7,48.687],[44.623,48.536],[44.512,48.478],[44.213,48.491],[43.917,48.518],[43.72,48.541],[43.607,48.623],[43.643,48.7]]]}},{"type":"Feature","properties":{"side":"axis_pocket","name":"Velikiye Luki","note":"German garrison encircled since 28 November 1942"},"geometry":{"type":"Polygon","coordinates":[[[30.43,56.4],[30.62,56.4],[30.66,56.32],[30.56,56.27],[30.43,56.3],[30.43,56.4]]]}},{"type":"Feature","properties":{"side":"soviet_pocket","name":"62nd Army in Stalingrad","note":"The 62nd Army still holds the factory district and the Volga bank inside the pocket"},"geometry":{"type":"Polygon","coordinates":[[[44.565,48.87],[44.615,48.86],[44.625,48.8],[44.59,48.75],[44.56,48.715],[44.535,48.7],[44.52,48.71],[44.54,48.74],[44.565,48.78],[44.585,48.82],[44.565,48.87]]]}}]}