{"type":"FeatureCollection","source":{"archive":"CAMO, Bestand 500, Findbuch 12457, Akte 1","map_date":"1942-06-30","url":"https://wwii.germandocsinrussia.org/de/nodes/15898-akte-1-unterlagen-der-operationsabteilung-iiib-des-generalstabs-des-heeres-im-okh-karte-lage-ost-lagekarte-der-truppen-der-wehrmacht-im-rahmen-des-angriffes-auf-die-sowjetunion-einschlie-lich-der-lage-der-verb-nde-der-roten-armee-stand-30-6-1942","residuals_km":{"1436166":{"Leningrad":2.8,"Kronstadt":3.8,"Novgorod":7.1,"Moskau":4.8,"Kalinin":8.2,"Wologda":5.1,"Jaroslawl":8.5,"Gorki":3.9,"Kasan":1.7,"Kursk":11.8,"Charkow":4.4,"Woronesch":5.6}}},"features":[{"type":"Feature","properties":{"side":"front"},"geometry":{"type":"LineString","coordinates":[[30.2095,59.811],[30.3727,59.7551],[30.7423,59.7173],[31.1075,59.7887],[31.4752,59.7208],[31.6381,59.6284],[31.25,59.9],[31.75,59.6],[32.0,59.45],[31.85,59.2],[31.75,59.05],[31.65,58.85],[31.55,58.7],[31.55,58.55],[31.4,58.45],[31.45,58.25],[31.5,58.05],[31.45,57.8],[31.3,57.5],[31.6,57.25],[31.8,57.0],[31.4,56.9],[30.9,56.5],[31.0,56.0],[31.3,55.6],[31.9,55.4],[32.6,55.65],[32.7,55.95],[33.0,56.05],[33.3,55.95],[33.6,55.75],[34.1,55.8],[34.2,56.0],[33.8,56.05],[33.4,56.1],[33.2,56.2],[33.25,56.38],[32.9762,56.378],[33.4335,56.4089],[33.8816,56.3729],[34.3349,56.3557],[34.6016,56.3025],[34.7997,56.18],[34.9348,56.0616],[35.0154,55.874],[35.0946,55.815],[35.1741,55.6333],[35.326,55.4474],[35.4054,55.2592],[35.3055,55.0724],[35.0,55.0],[34.5,54.85],[34.2,54.75],[34.2166,54.4657],[33.9804,54.3084],[34.0668,54.1209],[34.5783,54.0082],[35.0197,53.9186],[35.1563,53.7679],[35.2965,53.5802],[35.7192,53.5573],[36.0696,53.6258],[36.2051,53.536],[36.4036,53.3794],[36.5854,53.2593],[36.7695,53.102],[36.8996,52.9125],[36.9702,52.7589],[37.1071,52.7117],[37.1799,52.5269],[37.253,52.3358],[37.3305,52.2743],[37.534,52.1443],[37.6903,52.0263],[37.7834,51.8526],[38.0477,51.6077],[38.1227,51.494],[37.8836,51.4423],[37.6071,51.4435],[37.383,51.4722],[37.1616,51.4667],[36.9455,51.4071],[36.6676,51.305],[36.6669,51.1029],[36.743,50.9031],[36.9571,50.8482],[37.179,50.8199],[37.2943,50.7552],[37.2521,50.6195],[37.3155,50.5198],[37.4327,50.4211],[37.5277,50.3219],[37.4472,50.2529],[37.4314,50.1853],[37.4644,50.0511],[37.5821,49.9253],[37.5755,49.7433],[37.6394,49.6096],[37.5966,49.4809],[37.5017,49.3447],[37.4389,49.209],[37.5024,49.0755],[37.5837,48.9758],[37.672,48.9165],[37.7758,48.9213],[37.9585,48.8435],[38.1808,48.7928],[38.3163,48.7646],[38.4003,48.6164],[38.3956,48.4918],[38.493,48.377],[38.3335,48.4143],[38.3094,48.3227],[38.3586,48.2335],[38.4977,48.1664],[38.6988,48.1264],[38.8378,48.0648],[38.8927,47.9235],[38.8718,47.7809],[38.8218,47.6378],[38.8637,47.5033],[38.9159,47.3497],[38.9262,47.234],[39.0,47.2],[39.0,47.05],[38.5,46.8],[37.5,46.2],[36.65,45.45],[36.6,45.0],[36.6,44.3]]}},{"type":"Feature","properties":{"side":"soviet"},"geometry":{"type":"Polygon","coordinates":[[[30.2095,59.811],[27.0,59.95],[27.0,90.0],[180.0,90.0],[180.0,0.0],[36.6,0.0],[36.6,44.3],[36.6,45.0],[36.65,45.45],[37.5,46.2],[38.5,46.8],[39.0,47.05],[39.0,47.2],[38.9262,47.234],[38.9159,47.3497],[38.8637,47.5033],[38.8218,47.6378],[38.8718,47.7809],[38.8927,47.9235],[38.8378,48.0648],[38.6988,48.1264],[38.4977,48.1664],[38.3586,48.2335],[38.3094,48.3227],[38.3335,48.4143],[38.493,48.377],[38.3956,48.4918],[38.4003,48.6164],[38.3163,48.7646],[38.1808,48.7928],[37.9585,48.8435],[37.7758,48.9213],[37.672,48.9165],[37.5837,48.9758],[37.5024,49.0755],[37.4389,49.209],[37.5017,49.3447],[37.5966,49.4809],[37.6394,49.6096],[37.5755,49.7433],[37.5821,49.9253],[37.4644,50.0511],[37.4314,50.1853],[37.4472,50.2529],[37.5277,50.3219],[37.4327,50.4211],[37.3155,50.5198],[37.2521,50.6195],[37.2943,50.7552],[37.179,50.8199],[36.9571,50.8482],[36.743,50.9031],[36.6669,51.1029],[36.6676,51.305],[36.9455,51.4071],[37.1616,51.4667],[37.383,51.4722],[37.6071,51.4435],[37.8836,51.4423],[38.1227,51.494],[38.0477,51.6077],[37.7834,51.8526],[37.6903,52.0263],[37.534,52.1443],[37.3305,52.2743],[37.253,52.3358],[37.1799,52.5269],[37.1071,52.7117],[36.9702,52.7589],[36.8996,52.9125],[36.7695,53.102],[36.5854,53.2593],[36.4036,53.3794],[36.2051,53.536],[36.0696,53.6258],[35.7192,53.5573],[35.2965,53.5802],[35.1563,53.7679],[35.0197,53.9186],[34.5783,54.0082],[34.0668,54.1209],[33.9804,54.3084],[34.2166,54.4657],[34.2,54.75],[34.5,54.85],[35.0,55.0],[35.3055,55.0724],[35.4054,55.2592],[35.326,55.4474],[35.1741,55.6333],[35.0946,55.815],[35.0154,55.874],[34.9348,56.0616],[34.7997,56.18],[34.6016,56.3025],[34.3349,56.3557],[33.8816,56.3729],[33.4335,56.4089],[32.9762,56.378],[33.25,56.38],[33.2,56.2],[33.4,56.1],[33.8,56.05],[34.2,56.0],[34.1,55.8],[33.6,55.75],[33.3,55.95],[33.0,56.05],[32.7,55.95],[32.6,55.65],[31.9,55.4],[31.3,55.6],[31.0,56.0],[30.9,56.5],[31.4,56.9],[31.8,57.0],[31.6,57.25],[31.3,57.5],[31.45,57.8],[31.5,58.05],[31.45,58.25],[31.4,58.45],[31.55,58.55],[31.55,58.7],[31.65,58.85],[31.75,59.05],[31.85,59.2],[32.0,59.45],[31.75,59.6],[31.25,59.9],[31.6381,59.6284],[31.4752,59.7208],[31.1075,59.7887],[30.7423,59.7173],[30.3727,59.7551],[30.2095,59.811]]]}},{"type":"Feature","properties":{"side":"axis"},"geometry":{"type":"Polygon","coordinates":[[[-30.0,0.0],[-30.0,90.0],[27.0,90.0],[27.0,59.95],[30.2095,59.811],[30.3727,59.7551],[30.7423,59.7173],[31.1075,59.7887],[31.4752,59.7208],[31.6381,59.6284],[31.25,59.9],[31.75,59.6],[32.0,59.45],[31.85,59.2],[31.75,59.05],[31.65,58.85],[31.55,58.7],[31.55,58.55],[31.4,58.45],[31.45,58.25],[31.5,58.05],[31.45,57.8],[31.3,57.5],[31.6,57.25],[31.8,57.0],[31.4,56.9],[30.9,56.5],[31.0,56.0],[31.3,55.6],[31.9,55.4],[32.6,55.65],[32.7,55.95],[33.0,56.05],[33.3,55.95],[33.6,55.75],[34.1,55.8],[34.2,56.0],[33.8,56.05],[33.4,56.1],[33.2,56.2],[33.25,56.38],[32.9762,56.378],[33.4335,56.4089],[33.8816,56.3729],[34.3349,56.3557],[34.6016,56.3025],[34.7997,56.18],[34.9348,56.0616],[35.0154,55.874],[35.0946,55.815],[35.1741,55.6333],[35.326,55.4474],[35.4054,55.2592],[35.3055,55.0724],[35.0,55.0],[34.5,54.85],[34.2,54.75],[34.2166,54.4657],[33.9804,54.3084],[34.0668,54.1209],[34.5783,54.0082],[35.0197,53.9186],[35.1563,53.7679],[35.2965,53.5802],[35.7192,53.5573],[36.0696,53.6258],[36.2051,53.536],[36.4036,53.3794],[36.5854,53.2593],[36.7695,53.102],[36.8996,52.9125],[36.9702,52.7589],[37.1071,52.7117],[37.1799,52.5269],[37.253,52.3358],[37.3305,52.2743],[37.534,52.1443],[37.6903,52.0263],[37.7834,51.8526],[38.0477,51.6077],[38.1227,51.494],[37.8836,51.4423],[37.6071,51.4435],[37.383,51.4722],[37.1616,51.4667],[36.9455,51.4071],[36.6676,51.305],[36.6669,51.1029],[36.743,50.9031],[36.9571,50.8482],[37.179,50.8199],[37.2943,50.7552],[37.2521,50.6195],[37.3155,50.5198],[37.4327,50.4211],[37.5277,50.3219],[37.4472,50.2529],[37.4314,50.1853],[37.4644,50.0511],[37.5821,49.9253],[37.5755,49.7433],[37.6394,49.6096],[37.5966,49.4809],[37.5017,49.3447],[37.4389,49.209],[37.5024,49.0755],[37.5837,48.9758],[37.672,48.9165],[37.7758,48.9213],[37.9585,48.8435],[38.1808,48.7928],[38.3163,48.7646],[38.4003,48.6164],[38.3956,48.4918],[38.493,48.377],[38.3335,48.4143],[38.3094,48.3227],[38.3586,48.2335],[38.4977,48.1664],[38.6988,48.1264],[38.8378,48.0648],[38.8927,47.9235],[38.8718,47.7809],[38.8218,47.6378],[38.8637,47.5033],[38.9159,47.3497],[38.9262,47.234],[39.0,47.2],[39.0,47.05],[38.5,46.8],[37.5,46.2],[36.65,45.45],[36.6,45.0],[36.6,44.3],[36.6,0.0],[-30.0,0.0]]]}},{"type":"Feature","properties":{"side":"soviet_pocket","name":"Sevastopol","note":"Last Soviet positions of the Coastal Army around the city and the Chersonese peninsula (the city fell on 1 July, the last defenders on 4 July 1942)"},"geometry":{"type":"Polygon","coordinates":[[[33.498,44.648],[33.532,44.64],[33.559,44.606],[33.553,44.563],[33.531,44.525],[33.508,44.498],[33.466,44.518],[33.397,44.56],[33.38,44.576],[33.443,44.613],[33.498,44.648]]]}},{"type":"Feature","properties":{"side":"soviet_pocket","name":"Oranienbaum bridgehead","note":"Coastal bridgehead west of Leningrad"},"geometry":{"type":"Polygon","coordinates":[[[29.2,59.95],[29.95,59.92],[29.95,59.8],[29.5,59.7],[29.15,59.78],[29.2,59.95]]]}},{"type":"Feature","properties":{"side":"axis_pocket","name":"Demyansk salient","note":"II Army Corps, linked to the main front on 21 April 1942 by the Ramushevo corridor along the Lovat (Lage Ost: 'Gr. Seydlitz' corridor)"},"geometry":{"type":"Polygon","coordinates":[[[31.45,57.95],[31.75,57.93],[32.35,57.95],[32.85,57.85],[33.05,57.6],[32.9,57.35],[32.3,57.3],[31.8,57.5],[31.7,57.8],[31.48,57.84],[31.45,57.95]]]}},{"type":"Feature","properties":{"side":"axis_pocket","name":"Kholm","note":"Kampfgruppe Scherer, relieved from the west on 5 May 1942; the town is a German salient tip (the strip on the map covers this sector)"},"geometry":{"type":"Polygon","coordinates":[[[31.5,57.22],[31.75,57.21],[31.78,57.1],[31.6,57.06],[31.5,57.12],[31.5,57.22]]]}},{"type":"Feature","properties":{"side":"axis_pocket","name":"Bely","note":"German-held town at the tip of a salient between the Toropets salient and the 39th Army (held throughout 1942)"},"geometry":{"type":"Polygon","coordinates":[[[31.95,55.92],[32.3,55.92],[32.4,55.7],[32.3,55.55],[32.0,55.48],[31.95,55.92]]]}}]}