{"type":"FeatureCollection","source":{"archive":"CAMO, Bestand 500, Findbuch 12457, Akte 195","map_date":"1942-01-01 (Stand 1.1.42 abends)","url":"https://wwii.germandocsinrussia.org/de/nodes/20601-akte-195-unterlagen-der-operationsabteilung-iiib-des-generalstabs-des-heeres-im-okh-karte-lage-ost-karte-zur-lage-der-truppen-der-wehrmacht-an-der-deutsch-sowjetischen-front-einschlie-lich-der-lage-der-verb-nde-der-roten-armee-stand-1-1-1942","residuals_km":{"1258579":{"Leningrad":2.8,"Kronstadt":3.8,"Novgorod":7.1,"Moskau":4.8,"Kalinin":8.2,"Wologda":5.0,"Jaroslawl":8.5,"Gorki":3.9,"Kasan":1.7,"Kursk":11.8,"Charkow":4.4,"Woronesch":5.6},"1258580":{"Frolowo":4.5,"Kletskaja":1.5,"Woroschilowgrad":4.8,"Kamensk":4.5,"Millerowo":8.6,"Wladimirowka":1.8,"N.Baskuntschak":1.4,"Jeisk":4.7,"Krasnograd":3.0,"Melitopol":3.2,"Berdjansk":10.3,"Makejewka":12.4,"Rostow":8.6,"Taganrog":4.0,"Asow":0.5,"Nowotscherkassk":4.9,"Schachty":6.7,"Simferopol":6.1,"Kertsch":7.6,"Feodosia":11.5}}},"features":[{"type":"Feature","properties":{"side":"front"},"geometry":{"type":"LineString","coordinates":[[30.2792,59.747],[30.6321,59.7062],[30.9177,59.8311],[31.1056,59.907],[31.3138,59.8951],[31.8348,59.446],[31.9867,59.3676],[31.8357,59.2543],[31.7396,59.0763],[31.6838,58.9013],[31.643,58.7205],[31.6536,58.5504],[31.6206,58.3978],[31.5608,58.1272],[31.8558,58.0457],[32.1435,57.929],[32.4011,57.8235],[32.5436,57.7646],[32.6511,57.683],[32.8162,57.5708],[32.9127,57.4065],[33.066,57.2797],[33.0433,57.0603],[32.8365,56.8025],[33.3541,56.834],[33.8621,56.6931],[34.0139,56.5449],[34.3352,56.5077],[34.7292,56.4801],[35.1204,56.3765],[35.3161,56.3174],[35.497,56.271],[35.7576,56.1801],[35.8747,56.042],[35.8598,55.8711],[36.0036,55.7067],[36.2111,55.6127],[36.4631,55.5472],[36.5883,55.5176],[36.704,55.3514],[36.7393,55.2505],[36.6939,55.1128],[36.5513,54.9856],[36.4039,54.9057],[36.3636,54.7344],[36.156,54.564],[36.1089,54.3588],[36.1686,54.1576],[36.1532,53.9876],[36.1691,53.8527],[36.2473,53.6862],[36.3994,53.4814],[36.4993,53.3154],[36.6642,53.1851],[36.7631,53.0121],[36.8719,52.846],[36.9995,52.7142],[37.1073,52.5411],[37.22,52.4289],[37.3458,52.2898],[37.3407,52.087],[37.1847,51.9417],[37.0288,51.8032],[36.9184,51.6657],[36.768,51.4869],[36.6701,51.3498],[36.5727,51.2128],[36.5311,51.0772],[36.5468,50.923],[36.6874,50.7249],[36.7197,50.6181],[36.5943,50.4474],[36.6682,50.2478],[36.8004,50.1097],[36.9233,49.9445],[37.0451,49.7791],[37.0836,49.5786],[37.1734,49.3924],[37.2925,49.2266],[37.458,49.1282],[37.6531,49.0431],[37.7645,48.9435],[37.9245,48.8911],[38.116,48.825],[38.2281,48.8177],[38.3843,48.7523],[38.4409,48.6827],[38.4385,48.5623],[38.356,48.4582],[38.3076,48.3603],[38.2816,48.2633],[38.4012,48.1725],[38.5453,48.1255],[38.6919,48.0355],[38.7904,47.7038],[38.8352,47.4861],[38.8768,47.3212],[38.9146,47.2367],[39.05,47.2],[39.0,47.05],[38.5,46.8],[37.5,46.2],[36.65,45.45],[36.6,45.0],[36.6,44.3]]}},{"type":"Feature","properties":{"side":"soviet"},"geometry":{"type":"Polygon","coordinates":[[[30.2792,59.747],[27.0,59.95],[27.0,90.0],[180.0,90.0],[180.0,0.0],[36.6,0.0],[36.6,44.3],[36.6,45.0],[36.65,45.45],[37.5,46.2],[38.5,46.8],[39.0,47.05],[39.05,47.2],[38.9146,47.2367],[38.8768,47.3212],[38.8352,47.4861],[38.7904,47.7038],[38.6919,48.0355],[38.5453,48.1255],[38.4012,48.1725],[38.2816,48.2633],[38.3076,48.3603],[38.356,48.4582],[38.4385,48.5623],[38.4409,48.6827],[38.3843,48.7523],[38.2281,48.8177],[38.116,48.825],[37.9245,48.8911],[37.7645,48.9435],[37.6531,49.0431],[37.458,49.1282],[37.2925,49.2266],[37.1734,49.3924],[37.0836,49.5786],[37.0451,49.7791],[36.9233,49.9445],[36.8004,50.1097],[36.6682,50.2478],[36.5943,50.4474],[36.7197,50.6181],[36.6874,50.7249],[36.5468,50.923],[36.5311,51.0772],[36.5727,51.2128],[36.6701,51.3498],[36.768,51.4869],[36.9184,51.6657],[37.0288,51.8032],[37.1847,51.9417],[37.3407,52.087],[37.3458,52.2898],[37.22,52.4289],[37.1073,52.5411],[36.9995,52.7142],[36.8719,52.846],[36.7631,53.0121],[36.6642,53.1851],[36.4993,53.3154],[36.3994,53.4814],[36.2473,53.6862],[36.1691,53.8527],[36.1532,53.9876],[36.1686,54.1576],[36.1089,54.3588],[36.156,54.564],[36.3636,54.7344],[36.4039,54.9057],[36.5513,54.9856],[36.6939,55.1128],[36.7393,55.2505],[36.704,55.3514],[36.5883,55.5176],[36.4631,55.5472],[36.2111,55.6127],[36.0036,55.7067],[35.8598,55.8711],[35.8747,56.042],[35.7576,56.1801],[35.497,56.271],[35.3161,56.3174],[35.1204,56.3765],[34.7292,56.4801],[34.3352,56.5077],[34.0139,56.5449],[33.8621,56.6931],[33.3541,56.834],[32.8365,56.8025],[33.0433,57.0603],[33.066,57.2797],[32.9127,57.4065],[32.8162,57.5708],[32.6511,57.683],[32.5436,57.7646],[32.4011,57.8235],[32.1435,57.929],[31.8558,58.0457],[31.5608,58.1272],[31.6206,58.3978],[31.6536,58.5504],[31.643,58.7205],[31.6838,58.9013],[31.7396,59.0763],[31.8357,59.2543],[31.9867,59.3676],[31.8348,59.446],[31.3138,59.8951],[31.1056,59.907],[30.9177,59.8311],[30.6321,59.7062],[30.2792,59.747]]]}},{"type":"Feature","properties":{"side":"axis"},"geometry":{"type":"Polygon","coordinates":[[[-30.0,0.0],[-30.0,90.0],[27.0,90.0],[27.0,59.95],[30.2792,59.747],[30.6321,59.7062],[30.9177,59.8311],[31.1056,59.907],[31.3138,59.8951],[31.8348,59.446],[31.9867,59.3676],[31.8357,59.2543],[31.7396,59.0763],[31.6838,58.9013],[31.643,58.7205],[31.6536,58.5504],[31.6206,58.3978],[31.5608,58.1272],[31.8558,58.0457],[32.1435,57.929],[32.4011,57.8235],[32.5436,57.7646],[32.6511,57.683],[32.8162,57.5708],[32.9127,57.4065],[33.066,57.2797],[33.0433,57.0603],[32.8365,56.8025],[33.3541,56.834],[33.8621,56.6931],[34.0139,56.5449],[34.3352,56.5077],[34.7292,56.4801],[35.1204,56.3765],[35.3161,56.3174],[35.497,56.271],[35.7576,56.1801],[35.8747,56.042],[35.8598,55.8711],[36.0036,55.7067],[36.2111,55.6127],[36.4631,55.5472],[36.5883,55.5176],[36.704,55.3514],[36.7393,55.2505],[36.6939,55.1128],[36.5513,54.9856],[36.4039,54.9057],[36.3636,54.7344],[36.156,54.564],[36.1089,54.3588],[36.1686,54.1576],[36.1532,53.9876],[36.1691,53.8527],[36.2473,53.6862],[36.3994,53.4814],[36.4993,53.3154],[36.6642,53.1851],[36.7631,53.0121],[36.8719,52.846],[36.9995,52.7142],[37.1073,52.5411],[37.22,52.4289],[37.3458,52.2898],[37.3407,52.087],[37.1847,51.9417],[37.0288,51.8032],[36.9184,51.6657],[36.768,51.4869],[36.6701,51.3498],[36.5727,51.2128],[36.5311,51.0772],[36.5468,50.923],[36.6874,50.7249],[36.7197,50.6181],[36.5943,50.4474],[36.6682,50.2478],[36.8004,50.1097],[36.9233,49.9445],[37.0451,49.7791],[37.0836,49.5786],[37.1734,49.3924],[37.2925,49.2266],[37.458,49.1282],[37.6531,49.0431],[37.7645,48.9435],[37.9245,48.8911],[38.116,48.825],[38.2281,48.8177],[38.3843,48.7523],[38.4409,48.6827],[38.4385,48.5623],[38.356,48.4582],[38.3076,48.3603],[38.2816,48.2633],[38.4012,48.1725],[38.5453,48.1255],[38.6919,48.0355],[38.7904,47.7038],[38.8352,47.4861],[38.8768,47.3212],[38.9146,47.2367],[39.05,47.2],[39.0,47.05],[38.5,46.8],[37.5,46.2],[36.65,45.45],[36.6,45.0],[36.6,44.3],[36.6,0.0],[-30.0,0.0]]]}},{"type":"Feature","properties":{"side":"soviet_pocket","name":"Sevastopol","note":"Fortress area besieged since November 1941 (Lage Ost: Festung Sewastopol)"},"geometry":{"type":"Polygon","coordinates":[[[33.4,44.56],[33.45,44.66],[33.62,44.71],[33.78,44.63],[33.76,44.52],[33.62,44.46],[33.48,44.48],[33.4,44.56]]]}},{"type":"Feature","properties":{"side":"soviet_pocket","name":"Kerch peninsula and Feodosia","note":"Soviet landings of 26-30 December 1941; front Kiet - Koktebel west of Feodosia"},"geometry":{"type":"Polygon","coordinates":[[[35.1,45.45],[36.8,45.55],[36.8,44.95],[35.25,44.88],[35.1,45.0],[35.1,45.45]]]}},{"type":"Feature","properties":{"side":"soviet_pocket","name":"Oranienbaum bridgehead","note":"Coastal bridgehead west of Leningrad, held throughout the siege"},"geometry":{"type":"Polygon","coordinates":[[[29.2,59.95],[29.95,59.92],[29.95,59.8],[29.5,59.7],[29.15,59.78],[29.2,59.95]]]}}]}