{"type":"FeatureCollection","source":{"archive":"CAMO, Bestand 500, Findbuch 12457, Akte 226","map_date":"1942-02-01","url":"https://wwii.germandocsinrussia.org/de/nodes/20632-akte-226-unterlagen-der-operationsabteilung-iiib-des-generalstabs-des-heeres-im-okh-karte-lage-ost-karte-zur-lage-der-truppen-der-wehrmacht-an-der-deutsch-sowjetischen-front-einschlie-lich-der-lage-der-verb-nde-der-roten-armee-stand-1-2-1942","residuals_km":{"1436332":{"Leningrad":4.6,"Kronstadt":3.0,"Novgorod":10.2,"Moskau":5.4,"Kalinin":4.6,"Wologda":3.9,"Jaroslawl":6.2,"Kursk":10.3,"Charkow":4.2,"Woronesch":4.6},"1436334":{"Woroschilowgrad":2.7,"Jeisk":3.4,"Berdjansk":2.8,"Makejewka":13.7,"Rostow":5.6,"Taganrog":5.3,"Asow":2.4,"Kertsch":1.4,"Barwenkowo":5.5,"Kramatorsk":7.6,"Lisitschansk":4.7,"Debalzewo":13.7}}},"features":[{"type":"Feature","properties":{"side":"front"},"geometry":{"type":"LineString","coordinates":[[30.2119,59.7248],[30.5975,59.5741],[30.9574,59.6399],[31.1789,59.865],[31.4037,59.7962],[31.5527,59.5437],[31.5865,59.3877],[31.5161,59.2196],[31.4233,58.9441],[31.5346,58.6693],[31.6299,58.48],[31.6333,58.1703],[31.7255,57.9655],[31.9926,57.9702],[32.3078,57.8953],[32.6396,57.9129],[32.9562,57.8688],[33.2639,57.7937],[32.8261,57.7106],[33.0063,57.6407],[32.9058,57.4659],[32.7402,57.2864],[32.452,57.1439],[32.2502,57.0289],[31.8,57.0],[31.4,56.9],[30.9,56.5],[31.0,56.0],[31.3,55.6],[31.9,55.4],[32.6,55.65],[32.7,55.95],[33.0,56.05],[33.3,55.95],[33.6,55.75],[34.1,55.8],[34.2,56.0],[33.8,56.05],[33.4,56.1],[33.2,56.2],[33.25,56.38],[33.4483,56.4121],[33.6577,56.3549],[33.9617,56.3083],[34.2816,56.3549],[34.5324,56.3737],[34.7666,56.3934],[34.9893,56.2877],[35.0906,56.1881],[35.1129,55.9979],[35.1415,55.8389],[35.1703,55.6799],[35.2007,55.5286],[35.2149,55.3704],[35.1081,55.1247],[35.05,54.85],[34.9,54.6],[34.4,54.5],[33.9,54.35],[33.9,54.0],[34.5,53.85],[34.9242,54.0366],[35.2525,53.8895],[35.6774,53.7353],[36.3281,53.4459],[36.5289,53.3052],[36.8243,53.1572],[36.9019,52.9691],[36.9723,52.7416],[37.0535,52.5767],[37.1883,52.4075],[37.2686,52.2423],[36.7101,51.8432],[36.7339,51.6514],[36.6021,51.5123],[36.6267,51.3207],[36.5486,51.1695],[36.574,50.978],[36.6043,50.8175],[36.6033,50.6284],[36.6294,50.4368],[36.732,50.2145],[36.8376,50.0153],[36.9382,49.7847],[36.9427,49.6265],[36.8209,49.5124],[36.5715,49.4426],[36.3,49.3],[35.95,49.05],[35.95,48.75],[36.3,48.6],[36.8,48.65],[37.2,48.75],[37.3605,48.8176],[37.419,48.8477],[37.4875,48.8928],[37.5467,48.9147],[37.6326,48.9209],[37.7186,48.8948],[37.7746,48.8651],[38.1,48.8],[38.3,48.65],[38.3649,48.4671],[38.3729,48.4091],[38.3542,48.3519],[38.2781,48.3144],[38.7434,48.1207],[38.7765,48.052],[38.8089,47.9831],[38.7995,47.9245],[38.8123,47.8242],[38.8117,47.7469],[38.7666,47.66],[38.7956,47.6246],[38.8091,47.5441],[38.8407,47.4924],[38.854,47.4323],[38.8725,47.3832],[38.8948,47.3523],[39.0,47.2],[39.0,47.05],[38.5,46.8],[37.5,46.2],[36.65,45.45],[36.6,45.0],[36.6,44.3]]}},{"type":"Feature","properties":{"side":"soviet"},"geometry":{"type":"Polygon","coordinates":[[[30.2119,59.7248],[30.2119,60.0],[32.6,60.0],[33.0,60.6],[60.0,60.6],[60.0,40.0],[36.6,40.0],[36.6,44.3],[36.6,45.0],[36.65,45.45],[37.5,46.2],[38.5,46.8],[39.0,47.05],[39.0,47.2],[38.8948,47.3523],[38.8725,47.3832],[38.854,47.4323],[38.8407,47.4924],[38.8091,47.5441],[38.7956,47.6246],[38.7666,47.66],[38.8117,47.7469],[38.8123,47.8242],[38.7995,47.9245],[38.8089,47.9831],[38.7765,48.052],[38.7434,48.1207],[38.2781,48.3144],[38.3542,48.3519],[38.3729,48.4091],[38.3649,48.4671],[38.3,48.65],[38.1,48.8],[37.7746,48.8651],[37.7186,48.8948],[37.6326,48.9209],[37.5467,48.9147],[37.4875,48.8928],[37.419,48.8477],[37.3605,48.8176],[37.2,48.75],[36.8,48.65],[36.3,48.6],[35.95,48.75],[35.95,49.05],[36.3,49.3],[36.5715,49.4426],[36.8209,49.5124],[36.9427,49.6265],[36.9382,49.7847],[36.8376,50.0153],[36.732,50.2145],[36.6294,50.4368],[36.6033,50.6284],[36.6043,50.8175],[36.574,50.978],[36.5486,51.1695],[36.6267,51.3207],[36.6021,51.5123],[36.7339,51.6514],[36.7101,51.8432],[37.2686,52.2423],[37.1883,52.4075],[37.0535,52.5767],[36.9723,52.7416],[36.9019,52.9691],[36.8243,53.1572],[36.5289,53.3052],[36.3281,53.4459],[35.6774,53.7353],[35.2525,53.8895],[34.9242,54.0366],[34.5,53.85],[33.9,54.0],[33.9,54.35],[34.4,54.5],[34.9,54.6],[35.05,54.85],[35.1081,55.1247],[35.2149,55.3704],[35.2007,55.5286],[35.1703,55.6799],[35.1415,55.8389],[35.1129,55.9979],[35.0906,56.1881],[34.9893,56.2877],[34.7666,56.3934],[34.5324,56.3737],[34.2816,56.3549],[33.9617,56.3083],[33.6577,56.3549],[33.4483,56.4121],[33.25,56.38],[33.2,56.2],[33.4,56.1],[33.8,56.05],[34.2,56.0],[34.1,55.8],[33.6,55.75],[33.3,55.95],[33.0,56.05],[32.7,55.95],[32.6,55.65],[31.9,55.4],[31.3,55.6],[31.0,56.0],[30.9,56.5],[31.4,56.9],[31.8,57.0],[32.2502,57.0289],[32.452,57.1439],[32.7402,57.2864],[32.9058,57.4659],[33.0063,57.6407],[32.8261,57.7106],[33.2639,57.7937],[32.9562,57.8688],[32.6396,57.9129],[32.3078,57.8953],[31.9926,57.9702],[31.7255,57.9655],[31.6333,58.1703],[31.6299,58.48],[31.5346,58.6693],[31.4233,58.9441],[31.5161,59.2196],[31.5865,59.3877],[31.5527,59.5437],[31.4037,59.7962],[31.1789,59.865],[30.9574,59.6399],[30.5975,59.5741],[30.2119,59.7248]]]}},{"type":"Feature","properties":{"side":"axis"},"geometry":{"type":"Polygon","coordinates":[[[28.48007735924269,57.921805174449915],[28.3116921617838,58.100235390148576],[28.1616070045662,58.294311051117454],[28.03126728969879,58.50216310264888],[27.921928259886673,58.721789815863104],[27.834642909757736,58.95107606545171],[27.770251844948753,59.18781369949054],[27.729375186613563,59.42972280514985],[27.71240659931739,59.67447366550117],[27.719509499831872,59.919709195964884],[27.729772239601935,60.0],[30.2119,60.0],[30.2119,59.7248],[30.5975,59.5741],[30.9574,59.6399],[31.1789,59.865],[31.4037,59.7962],[31.5527,59.5437],[31.5865,59.3877],[31.5161,59.2196],[31.4233,58.9441],[31.5346,58.6693],[31.6299,58.48],[31.6333,58.1703],[31.7255,57.9655],[31.9926,57.9702],[32.3078,57.8953],[32.6396,57.9129],[32.9562,57.8688],[33.2639,57.7937],[32.8261,57.7106],[33.0063,57.6407],[32.9058,57.4659],[32.7402,57.2864],[32.452,57.1439],[32.2502,57.0289],[31.8,57.0],[31.4,56.9],[30.9,56.5],[31.0,56.0],[31.3,55.6],[31.9,55.4],[32.6,55.65],[32.7,55.95],[33.0,56.05],[33.3,55.95],[33.6,55.75],[34.1,55.8],[34.2,56.0],[33.8,56.05],[33.4,56.1],[33.2,56.2],[33.25,56.38],[33.4483,56.4121],[33.6577,56.3549],[33.9617,56.3083],[34.2816,56.3549],[34.5324,56.3737],[34.7666,56.3934],[34.9893,56.2877],[35.0906,56.1881],[35.1129,55.9979],[35.1415,55.8389],[35.1703,55.6799],[35.2007,55.5286],[35.2149,55.3704],[35.1081,55.1247],[35.05,54.85],[34.9,54.6],[34.4,54.5],[33.9,54.35],[33.9,54.0],[34.5,53.85],[34.9242,54.0366],[35.2525,53.8895],[35.6774,53.7353],[36.3281,53.4459],[36.5289,53.3052],[36.8243,53.1572],[36.9019,52.9691],[36.9723,52.7416],[37.0535,52.5767],[37.1883,52.4075],[37.2686,52.2423],[36.7101,51.8432],[36.7339,51.6514],[36.6021,51.5123],[36.6267,51.3207],[36.5486,51.1695],[36.574,50.978],[36.6043,50.8175],[36.6033,50.6284],[36.6294,50.4368],[36.732,50.2145],[36.8376,50.0153],[36.9382,49.7847],[36.9427,49.6265],[36.8209,49.5124],[36.5715,49.4426],[36.3,49.3],[35.95,49.05],[35.95,48.75],[36.3,48.6],[36.8,48.65],[37.2,48.75],[37.3605,48.8176],[37.419,48.8477],[37.4875,48.8928],[37.5467,48.9147],[37.6326,48.9209],[37.7186,48.8948],[37.7746,48.8651],[38.1,48.8],[38.3,48.65],[38.3649,48.4671],[38.3729,48.4091],[38.3542,48.3519],[38.2781,48.3144],[38.7434,48.1207],[38.7765,48.052],[38.8089,47.9831],[38.7995,47.9245],[38.8123,47.8242],[38.8117,47.7469],[38.7666,47.66],[38.7956,47.6246],[38.8091,47.5441],[38.8407,47.4924],[38.854,47.4323],[38.8725,47.3832],[38.8948,47.3523],[39.0,47.2],[39.0,47.05],[38.5,46.8],[37.5,46.2],[36.65,45.45],[36.6,45.0],[36.6,44.3],[36.6,41.8],[36.3549571491761,41.8120381833195],[36.11227419495968,41.84803679899192],[35.874288306863846,41.90764916066947],[35.64329141908728,41.99030116872178],[35.42150815793501,42.09519683912911],[35.211074417450995,42.22132596924364],[35.01401678959089,42.36747386659315],[34.83223304703363,42.53223304703363],[34.667473866593156,42.714016789590886],[34.52132596924364,42.91107441745099],[34.39519683912911,43.121508157935004],[34.29030116872178,43.34329141908727],[34.207649160669476,43.57428830686384],[34.148036798991924,43.81227419495968],[34.11203818331951,44.0549571491761],[34.1,44.3],[34.1,45.0],[34.11529066331595,45.2760788151871],[34.16529066331595,45.7260788151871],[34.20123494638346,45.953537200399715],[34.25795624024212,46.176723228886644],[34.334973282333564,46.39374323652707],[34.43163260698035,46.60275587597167],[34.498037256673584,46.71731902327935],[34.346411307098144,46.83205753371033],[34.16792236475577,46.99666052860197],[34.006242676806,47.177801708266514],[33.86289726940433,47.373772478134484],[33.739238232589585,47.58272436513205],[33.63643196684098,47.802686453203215],[33.55544818113189,48.03158397376213],[33.49705074625488,48.26725787572325],[33.461790489693165,48.50748519051697],[33.45,48.75],[33.45,49.05],[33.46128573977575,49.28727901499381],[33.49504106476515,49.52241573461364],[33.550961211917105,49.75328720539602],[33.628541301048436,49.97780898306823],[33.72708089320098,50.19395395214484],[33.845690314619,50.39977062792598],[33.983298689250454,50.59340077565614],[34.08718085991186,50.71355112689629],[34.07030477603453,50.84078616872732],[34.0497570040881,51.09344947875234],[34.05490171977678,51.346894721487814],[34.06032549632943,51.39122697815733],[33.89366093740917,51.42464374963667],[33.29366093740917,51.57464374963667],[33.067036693270694,51.642846604558244],[32.8478771567514,51.73217339227301],[32.63814635417617,51.84182359930401],[32.43972381506006,51.97081458124269],[32.25438772846326,52.117990368843],[32.08379900752149,52.28203202738815],[31.929486404959725,52.46146947649341],[31.792832812978347,52.65469466442028],[31.675062870287135,52.85997597883857],[31.65006547652252,52.91503919457956],[31.571416006173813,52.9216875582362],[31.33789040051733,52.96401297249566],[31.10943058495789,53.02829175487372],[30.509430584957894,53.22829175487372],[30.27449700337061,53.32001236759842],[30.049999999999997,53.43493649053891],[29.838224288340587,53.5718945370611],[29.641325116876676,53.7294926805554],[29.461306335046572,53.90612703945658],[29.300000000000004,54.099999999999994],[29.000000000000004,54.49999999999999],[28.8743009508927,54.684171913727205],[28.76551210802576,54.87881140720193],[28.674498900477822,55.08237009850314],[28.601985349888206,55.29322865235692],[28.548548310772702,55.509709662154535],[28.4485483107727,56.009709662154535],[28.411993176223824,56.25541454490671],[28.40000249819399,56.503534255753166],[28.412694662407183,56.75161907237387],[28.449944357263373,56.99721961696461],[28.51138381105837,57.23791103930349],[28.596406423047792,57.47131695765314],[28.704172752505286,57.69513292112626],[28.720291016864987,57.72153259657065],[28.665140955442627,57.76073878453854],[28.48007735924269,57.921805174449915]]]}},{"type":"Feature","properties":{"side":"soviet_pocket","name":"Sevastopol","note":"Fortress area besieged since November 1941"},"geometry":{"type":"Polygon","coordinates":[[[33.4,44.56],[33.45,44.66],[33.62,44.71],[33.78,44.63],[33.76,44.52],[33.62,44.46],[33.48,44.48],[33.4,44.56]]]}},{"type":"Feature","properties":{"side":"soviet_pocket","name":"Kerch peninsula","note":"Soviet-held east of the Parpach (Ak-Monai) line after Feodosia was retaken on 18 January 1942"},"geometry":{"type":"Polygon","coordinates":[[[35.42,45.45],[36.8,45.55],[36.8,44.95],[35.45,45.05],[35.42,45.45]]]}},{"type":"Feature","properties":{"side":"soviet_pocket","name":"Oranienbaum bridgehead","note":"Coastal bridgehead west of Leningrad"},"geometry":{"type":"Polygon","coordinates":[[[29.2,59.95],[29.95,59.92],[29.95,59.8],[29.5,59.7],[29.15,59.78],[29.2,59.95]]]}},{"type":"Feature","properties":{"side":"soviet_pocket","name":"33rd Army and Belov's cavalry near Vyazma","note":"Soviet forces cut off south-west and south-east of Vyazma (Lage Ost: red groups inside the German line)"},"geometry":{"type":"Polygon","coordinates":[[[33.6,55.0],[34.3,55.1],[34.95,55.05],[34.75,54.85],[34.25,54.88],[34.0,54.55],[33.6,54.6],[33.5,54.8],[33.6,55.0]]]}},{"type":"Feature","properties":{"side":"axis_pocket","name":"Bely","note":"German-held town at the tip of a salient between the Toropets salient and the 39th Army (held throughout 1942)"},"geometry":{"type":"Polygon","coordinates":[[[31.95,55.92],[32.3,55.92],[32.4,55.7],[32.3,55.55],[32.0,55.48],[31.95,55.92]]]}}]}