{"type":"FeatureCollection","source":{"archive":"CAMO, Bestand 500, Findbuch 12457, Akte 254","map_date":"1942-03-01","url":"https://wwii.germandocsinrussia.org/de/nodes/20660-akte-254-unterlagen-der-operationsabteilung-iiib-des-generalstabs-des-heeres-im-okh-karte-lage-ost-karte-zur-lage-der-truppen-der-wehrmacht-an-der-deutsch-sowjetischen-front-einschlie-lich-der-lage-der-verb-nde-der-roten-armee-stand-1-3-1942","residuals_km":{"1436396":{"Leningrad":4.6,"Kronstadt":3.0,"Novgorod":10.2,"Moskau":5.4,"Kalinin":4.6,"Wologda":3.9,"Jaroslawl":6.2,"Kursk":10.3,"Charkow":4.3,"Woronesch":4.6},"1436397":{"Kletskaja":3.5,"Woroschilowgrad":5.8,"Kamensk":5.8,"Millerowo":3.5,"Jeisk":4.3,"Krasnograd":1.1,"Melitopol":6.1,"Berdjansk":10.5,"Makejewka":8.2,"Rostow":5.9,"Taganrog":4.7,"Asow":3.8,"Nowotscherkassk":6.2,"Schachty":4.4,"Simferopol":4.7,"Kertsch":7.5,"Feodosia":9.4}}},"features":[{"type":"Feature","properties":{"side":"front"},"geometry":{"type":"LineString","coordinates":[[30.2095,59.811],[30.3727,59.7551],[30.7423,59.7173],[31.1075,59.7887],[31.4752,59.7208],[31.6381,59.6284],[31.25,59.9],[31.75,59.6],[32.0,59.45],[31.85,59.2],[31.75,59.05],[31.65,58.85],[31.3,58.95],[31.0,59.2],[30.75,58.95],[30.95,58.7],[31.4,58.6],[31.55,58.55],[31.4,58.45],[31.45,58.25],[31.5,58.05],[31.45,57.8],[31.3,57.5],[31.6,57.25],[31.8,57.0],[31.4,56.9],[30.9,56.5],[31.0,56.0],[31.3,55.6],[31.9,55.4],[32.6,55.65],[32.7,55.95],[33.0,56.05],[33.3,55.95],[33.6,55.75],[34.1,55.8],[34.2,56.0],[33.8,56.05],[33.4,56.1],[33.2,56.2],[33.25,56.38],[33.66,56.35],[34.28,56.35],[34.77,56.39],[35.09,56.19],[35.1655,55.7346],[35.1283,55.5343],[35.282,55.3382],[35.4222,55.1478],[35.5154,54.9499],[35.4092,54.7475],[35.2953,54.6139],[34.971,54.3639],[34.807,54.161],[34.5744,54.0259],[34.3326,53.9534],[34.2277,53.7583],[35.2122,53.8551],[35.2872,53.7247],[35.8366,53.7781],[36.1334,53.7835],[36.2707,53.6728],[36.4764,53.4436],[36.606,53.2819],[36.8017,53.1149],[36.8929,52.9838],[36.9761,52.7196],[37.1026,52.5571],[37.1858,52.3873],[37.3109,52.2244],[37.3966,52.1241],[37.3465,52.0917],[37.1901,51.9498],[37.0328,51.8145],[36.9295,51.6801],[36.8371,51.5458],[36.734,51.4115],[36.7048,51.2083],[36.7253,51.0435],[36.7321,50.7324],[36.7902,50.5295],[36.8688,50.3328],[36.948,50.1296],[37.0902,49.9265],[36.57,49.44],[36.3,49.3],[35.95,49.05],[35.95,48.75],[36.3,48.6],[36.8,48.65],[36.5633,48.5956],[36.7373,48.6789],[36.9428,48.7376],[37.143,48.7238],[37.2643,48.7567],[37.4056,48.8358],[37.5213,48.9069],[37.6495,48.9588],[37.78,48.9454],[37.9229,48.8605],[37.9844,48.7654],[38.2416,48.7752],[38.3276,48.6415],[38.2796,48.5293],[38.3335,48.4143],[38.3094,48.3227],[38.3586,48.2335],[38.4977,48.1664],[38.6988,48.1264],[38.8378,48.0648],[38.8927,47.9235],[38.8718,47.7809],[38.8218,47.6378],[38.8637,47.5033],[38.9159,47.3497],[38.9262,47.234],[39.0,47.2],[39.0,47.05],[38.5,46.8],[37.5,46.2],[36.65,45.45],[36.6,45.0],[36.6,44.3]]}},{"type":"Feature","properties":{"side":"soviet"},"geometry":{"type":"Polygon","coordinates":[[[30.2095,59.811],[27.0,59.95],[27.0,90.0],[180.0,90.0],[180.0,0.0],[36.6,0.0],[36.6,44.3],[36.6,45.0],[36.65,45.45],[37.5,46.2],[38.5,46.8],[39.0,47.05],[39.0,47.2],[38.9262,47.234],[38.9159,47.3497],[38.8637,47.5033],[38.8218,47.6378],[38.8718,47.7809],[38.8927,47.9235],[38.8378,48.0648],[38.6988,48.1264],[38.4977,48.1664],[38.3586,48.2335],[38.3094,48.3227],[38.3335,48.4143],[38.2796,48.5293],[38.3276,48.6415],[38.2416,48.7752],[37.9844,48.7654],[37.9229,48.8605],[37.78,48.9454],[37.6495,48.9588],[37.5213,48.9069],[37.4056,48.8358],[37.2643,48.7567],[37.143,48.7238],[36.9428,48.7376],[36.7373,48.6789],[36.64443839150228,48.63444383915023],[36.3,48.6],[35.95,48.75],[35.95,49.05],[36.3,49.3],[36.57,49.44],[37.0902,49.9265],[36.948,50.1296],[36.8688,50.3328],[36.7902,50.5295],[36.7321,50.7324],[36.7253,51.0435],[36.7048,51.2083],[36.734,51.4115],[36.8371,51.5458],[36.9295,51.6801],[37.0328,51.8145],[37.1901,51.9498],[37.3465,52.0917],[37.3966,52.1241],[37.3109,52.2244],[37.1858,52.3873],[37.1026,52.5571],[36.9761,52.7196],[36.8929,52.9838],[36.8017,53.1149],[36.606,53.2819],[36.4764,53.4436],[36.2707,53.6728],[36.1334,53.7835],[35.8366,53.7781],[35.2872,53.7247],[35.2122,53.8551],[34.2277,53.7583],[34.3326,53.9534],[34.5744,54.0259],[34.807,54.161],[34.971,54.3639],[35.2953,54.6139],[35.4092,54.7475],[35.5154,54.9499],[35.4222,55.1478],[35.282,55.3382],[35.1283,55.5343],[35.1655,55.7346],[35.09,56.19],[34.77,56.39],[34.28,56.35],[33.66,56.35],[33.25,56.38],[33.2,56.2],[33.4,56.1],[33.8,56.05],[34.2,56.0],[34.1,55.8],[33.6,55.75],[33.3,55.95],[33.0,56.05],[32.7,55.95],[32.6,55.65],[31.9,55.4],[31.3,55.6],[31.0,56.0],[30.9,56.5],[31.4,56.9],[31.8,57.0],[31.6,57.25],[31.3,57.5],[31.45,57.8],[31.5,58.05],[31.45,58.25],[31.4,58.45],[31.55,58.55],[31.4,58.6],[30.95,58.7],[30.75,58.95],[31.0,59.2],[31.3,58.95],[31.65,58.85],[31.75,59.05],[31.85,59.2],[32.0,59.45],[31.75,59.6],[31.25,59.9],[31.6381,59.6284],[31.4752,59.7208],[31.1075,59.7887],[30.7423,59.7173],[30.3727,59.7551],[30.2095,59.811]]]}},{"type":"Feature","properties":{"side":"axis"},"geometry":{"type":"Polygon","coordinates":[[[-30.0,0.0],[-30.0,90.0],[27.0,90.0],[27.0,59.95],[30.2095,59.811],[30.3727,59.7551],[30.7423,59.7173],[31.1075,59.7887],[31.4752,59.7208],[31.6381,59.6284],[31.25,59.9],[31.75,59.6],[32.0,59.45],[31.85,59.2],[31.75,59.05],[31.65,58.85],[31.3,58.95],[31.0,59.2],[30.75,58.95],[30.95,58.7],[31.4,58.6],[31.55,58.55],[31.4,58.45],[31.45,58.25],[31.5,58.05],[31.45,57.8],[31.3,57.5],[31.6,57.25],[31.8,57.0],[31.4,56.9],[30.9,56.5],[31.0,56.0],[31.3,55.6],[31.9,55.4],[32.6,55.65],[32.7,55.95],[33.0,56.05],[33.3,55.95],[33.6,55.75],[34.1,55.8],[34.2,56.0],[33.8,56.05],[33.4,56.1],[33.2,56.2],[33.25,56.38],[33.66,56.35],[34.28,56.35],[34.77,56.39],[35.09,56.19],[35.1655,55.7346],[35.1283,55.5343],[35.282,55.3382],[35.4222,55.1478],[35.5154,54.9499],[35.4092,54.7475],[35.2953,54.6139],[34.971,54.3639],[34.807,54.161],[34.5744,54.0259],[34.3326,53.9534],[34.2277,53.7583],[35.2122,53.8551],[35.2872,53.7247],[35.8366,53.7781],[36.1334,53.7835],[36.2707,53.6728],[36.4764,53.4436],[36.606,53.2819],[36.8017,53.1149],[36.8929,52.9838],[36.9761,52.7196],[37.1026,52.5571],[37.1858,52.3873],[37.3109,52.2244],[37.3966,52.1241],[37.3465,52.0917],[37.1901,51.9498],[37.0328,51.8145],[36.9295,51.6801],[36.8371,51.5458],[36.734,51.4115],[36.7048,51.2083],[36.7253,51.0435],[36.7321,50.7324],[36.7902,50.5295],[36.8688,50.3328],[36.948,50.1296],[37.0902,49.9265],[36.57,49.44],[36.3,49.3],[35.95,49.05],[35.95,48.75],[36.3,48.6],[36.64443839150228,48.63444383915023],[36.7373,48.6789],[36.9428,48.7376],[37.143,48.7238],[37.2643,48.7567],[37.4056,48.8358],[37.5213,48.9069],[37.6495,48.9588],[37.78,48.9454],[37.9229,48.8605],[37.9844,48.7654],[38.2416,48.7752],[38.3276,48.6415],[38.2796,48.5293],[38.3335,48.4143],[38.3094,48.3227],[38.3586,48.2335],[38.4977,48.1664],[38.6988,48.1264],[38.8378,48.0648],[38.8927,47.9235],[38.8718,47.7809],[38.8218,47.6378],[38.8637,47.5033],[38.9159,47.3497],[38.9262,47.234],[39.0,47.2],[39.0,47.05],[38.5,46.8],[37.5,46.2],[36.65,45.45],[36.6,45.0],[36.6,44.3],[36.6,0.0],[-30.0,0.0]]]}},{"type":"Feature","properties":{"side":"soviet_pocket","name":"Sevastopol","note":"Fortress area besieged since November 1941"},"geometry":{"type":"Polygon","coordinates":[[[33.4,44.56],[33.45,44.66],[33.62,44.71],[33.78,44.63],[33.76,44.52],[33.62,44.46],[33.48,44.48],[33.4,44.56]]]}},{"type":"Feature","properties":{"side":"soviet_pocket","name":"Kerch peninsula","note":"Soviet-held east of the Parpach (Ak-Monai) line after Feodosia was retaken on 18 January 1942"},"geometry":{"type":"Polygon","coordinates":[[[35.42,45.45],[36.8,45.55],[36.8,44.95],[35.45,45.05],[35.42,45.45]]]}},{"type":"Feature","properties":{"side":"soviet_pocket","name":"Oranienbaum bridgehead","note":"Coastal bridgehead west of Leningrad"},"geometry":{"type":"Polygon","coordinates":[[[29.2,59.95],[29.95,59.92],[29.95,59.8],[29.5,59.7],[29.15,59.78],[29.2,59.95]]]}},{"type":"Feature","properties":{"side":"soviet_pocket","name":"33rd Army and Belov's cavalry near Vyazma","note":"Soviet forces cut off south of Vyazma"},"geometry":{"type":"Polygon","coordinates":[[[33.6,55.0],[34.3,55.1],[34.95,55.05],[34.75,54.85],[34.25,54.88],[34.0,54.55],[33.6,54.6],[33.5,54.8],[33.6,55.0]]]}},{"type":"Feature","properties":{"side":"axis_pocket","name":"Demyansk pocket","note":"II Army Corps encircled since 8 February 1942 (Lage Ost: dashed ring 'Gr. Eicke')"},"geometry":{"type":"Polygon","coordinates":[[[31.75,57.95],[32.35,57.95],[32.85,57.85],[33.05,57.6],[32.9,57.35],[32.3,57.3],[31.8,57.5],[31.7,57.75],[31.75,57.95]]]}},{"type":"Feature","properties":{"side":"axis_pocket","name":"Kholm pocket","note":"Kampfgruppe Scherer encircled since 21 January 1942"},"geometry":{"type":"Polygon","coordinates":[[[31.55,57.2],[31.7,57.2],[31.72,57.1],[31.55,57.1],[31.55,57.2]]]}},{"type":"Feature","properties":{"side":"axis_pocket","name":"Bely","note":"German-held town at the tip of a salient between the Toropets salient and the 39th Army (held throughout 1942)"},"geometry":{"type":"Polygon","coordinates":[[[31.95,55.92],[32.3,55.92],[32.4,55.7],[32.3,55.55],[32.0,55.48],[31.95,55.92]]]}}]}