{"type":"FeatureCollection","source":{"archive":"CAMO, Bestand 500, Findbuch 12457, Akte 285","map_date":"1942-04-01","url":"https://wwii.germandocsinrussia.org/de/nodes/20691-akte-285-unterlagen-der-operationsabteilung-iiib-des-generalstabs-des-heeres-im-okh-karte-lage-ost-karte-zur-lage-der-truppen-der-wehrmacht-an-der-deutsch-sowjetischen-front-einschlie-lich-der-lage-der-verb-nde-der-roten-armee-stand-1-4-1942","residuals_km":{"1436734":{"Leningrad":4.6,"Kronstadt":3.0,"Novgorod":10.2,"Moskau":5.5,"Kalinin":4.6,"Wologda":3.9,"Jaroslawl":6.2,"Kursk":10.2,"Charkow":4.2,"Woronesch":4.6},"1436735":{"Kletskaja":3.4,"Woroschilowgrad":5.8,"Kamensk":5.8,"Millerowo":3.5,"Jeisk":4.4,"Krasnograd":1.1,"Melitopol":6.0,"Berdjansk":10.6,"Makejewka":8.1,"Rostow":5.8,"Taganrog":4.7,"Asow":3.8,"Nowotscherkassk":6.2,"Schachty":4.3,"Simferopol":4.4,"Kertsch":7.5,"Feodosia":9.3}}},"features":[{"type":"Feature","properties":{"side":"front"},"geometry":{"type":"LineString","coordinates":[[30.2095,59.811],[30.3727,59.7551],[30.7423,59.7173],[31.1075,59.7887],[31.4752,59.7208],[31.6381,59.6284],[31.25,59.9],[31.75,59.6],[32.0,59.45],[31.85,59.2],[31.75,59.05],[31.65,58.85],[31.3,58.95],[31.0,59.2],[30.75,58.95],[30.95,58.7],[31.4,58.6],[31.55,58.55],[31.4,58.45],[31.45,58.25],[31.5,58.05],[31.45,57.8],[31.3,57.5],[31.6,57.25],[31.8,57.0],[31.4,56.9],[30.9,56.5],[31.0,56.0],[31.3,55.6],[31.9,55.4],[32.6,55.65],[32.7,55.95],[33.0,56.05],[33.3,55.95],[33.6,55.75],[34.1,55.8],[34.2,56.0],[33.8,56.05],[33.4,56.1],[33.2,56.2],[33.25,56.38],[32.9762,56.378],[33.4335,56.4089],[33.8816,56.3729],[34.3349,56.3557],[34.6016,56.3025],[34.7997,56.18],[34.9348,56.0616],[35.0154,55.874],[35.0946,55.815],[35.1741,55.6333],[35.326,55.4474],[35.4054,55.2592],[35.3055,55.0724],[35.0,55.0],[34.5,54.85],[34.2,54.75],[34.2166,54.4657],[33.9804,54.3084],[34.0668,54.1209],[34.5783,54.0082],[35.0197,53.9186],[35.1563,53.7679],[35.2965,53.5802],[35.7192,53.5573],[36.0696,53.6258],[36.2051,53.536],[36.4036,53.3794],[36.5854,53.2593],[36.7695,53.102],[36.8996,52.9125],[36.9702,52.7589],[37.1071,52.7117],[37.1799,52.5269],[37.253,52.3358],[37.38,52.1453],[37.4459,52.022],[37.3,51.8584],[37.1429,51.7012],[36.9814,51.6869],[36.8894,51.5309],[36.8563,51.3385],[36.823,51.1524],[36.7909,50.9601],[36.817,50.7373],[36.8126,50.5019],[36.8893,50.3102],[36.8583,50.1242],[36.9351,49.9323],[37.0646,49.7403],[37.1363,49.5853],[36.7175,49.6286],[36.2726,49.6598],[36.1713,49.5303],[36.0346,49.3457],[36.008,49.1547],[36.0451,48.9017],[36.181,48.7097],[36.0,48.9],[36.0,48.7],[36.3,48.6],[36.8,48.65],[36.7787,48.6441],[36.9905,48.69],[37.1948,48.7346],[37.3496,48.815],[37.5576,48.9176],[37.7778,48.8687],[37.9585,48.8435],[38.1808,48.7928],[38.3163,48.7646],[38.4003,48.6164],[38.3956,48.4918],[38.493,48.377],[38.3335,48.4143],[38.3094,48.3227],[38.3586,48.2335],[38.4977,48.1664],[38.6988,48.1264],[38.8378,48.0648],[38.8927,47.9235],[38.8718,47.7809],[38.8218,47.6378],[38.8637,47.5033],[38.9159,47.3497],[38.9262,47.234],[39.0,47.2],[39.0,47.05],[38.5,46.8],[37.5,46.2],[36.65,45.45],[36.6,45.0],[36.6,44.3]]}},{"type":"Feature","properties":{"side":"soviet"},"geometry":{"type":"Polygon","coordinates":[[[30.2095,59.811],[30.2095,60.0],[32.6,60.0],[33.0,60.6],[60.0,60.6],[60.0,40.0],[36.6,40.0],[36.6,44.3],[36.6,45.0],[36.65,45.45],[37.5,46.2],[38.5,46.8],[39.0,47.05],[39.0,47.2],[38.9262,47.234],[38.9159,47.3497],[38.8637,47.5033],[38.8218,47.6378],[38.8718,47.7809],[38.8927,47.9235],[38.8378,48.0648],[38.6988,48.1264],[38.4977,48.1664],[38.3586,48.2335],[38.3094,48.3227],[38.3335,48.4143],[38.493,48.377],[38.3956,48.4918],[38.4003,48.6164],[38.3163,48.7646],[38.1808,48.7928],[37.9585,48.8435],[37.7778,48.8687],[37.5576,48.9176],[37.3496,48.815],[37.1948,48.7346],[36.9905,48.69],[36.7787,48.6441],[36.8,48.65],[36.3,48.6],[36.0,48.7],[36.0,48.9],[36.181,48.7097],[36.0451,48.9017],[36.008,49.1547],[36.0346,49.3457],[36.1713,49.5303],[36.2726,49.6598],[36.7175,49.6286],[37.1363,49.5853],[37.0646,49.7403],[36.9351,49.9323],[36.8583,50.1242],[36.8893,50.3102],[36.8126,50.5019],[36.817,50.7373],[36.7909,50.9601],[36.823,51.1524],[36.8563,51.3385],[36.8894,51.5309],[36.9814,51.6869],[37.1429,51.7012],[37.3,51.8584],[37.4459,52.022],[37.38,52.1453],[37.253,52.3358],[37.1799,52.5269],[37.1071,52.7117],[36.9702,52.7589],[36.8996,52.9125],[36.7695,53.102],[36.5854,53.2593],[36.4036,53.3794],[36.2051,53.536],[36.0696,53.6258],[35.7192,53.5573],[35.2965,53.5802],[35.1563,53.7679],[35.0197,53.9186],[34.5783,54.0082],[34.0668,54.1209],[33.9804,54.3084],[34.2166,54.4657],[34.2,54.75],[34.5,54.85],[35.0,55.0],[35.3055,55.0724],[35.4054,55.2592],[35.326,55.4474],[35.1741,55.6333],[35.0946,55.815],[35.0154,55.874],[34.9348,56.0616],[34.7997,56.18],[34.6016,56.3025],[34.3349,56.3557],[33.8816,56.3729],[33.4335,56.4089],[32.9762,56.378],[33.25,56.38],[33.2,56.2],[33.4,56.1],[33.8,56.05],[34.2,56.0],[34.1,55.8],[33.6,55.75],[33.3,55.95],[33.0,56.05],[32.7,55.95],[32.6,55.65],[31.9,55.4],[31.3,55.6],[31.0,56.0],[30.9,56.5],[31.4,56.9],[31.8,57.0],[31.6,57.25],[31.3,57.5],[31.45,57.8],[31.5,58.05],[31.45,58.25],[31.4,58.45],[31.55,58.55],[31.4,58.6],[30.95,58.7],[30.75,58.95],[31.0,59.2],[31.3,58.95],[31.65,58.85],[31.75,59.05],[31.85,59.2],[32.0,59.45],[31.75,59.6],[31.25,59.9],[31.6381,59.6284],[31.4752,59.7208],[31.1075,59.7887],[30.7423,59.7173],[30.3727,59.7551],[30.2095,59.811]]]}},{"type":"Feature","properties":{"side":"axis"},"geometry":{"type":"Polygon","coordinates":[[[28.22193824443625,58.2945573641511],[28.082871526905446,58.49667456943741],[27.964285404103922,58.711449447103405],[27.867321925220022,58.93681359766926],[27.79291490156103,59.17059664116846],[27.741780913439797,59.410547119093295],[27.714412409114612,59.65435417717107],[27.71107296224327,59.89966982015401],[27.71957743964876,60.0],[30.2095,60.0],[30.2095,59.811],[30.3727,59.7551],[30.7423,59.7173],[31.1075,59.7887],[31.4752,59.7208],[31.6381,59.6284],[31.25,59.9],[31.75,59.6],[32.0,59.45],[31.85,59.2],[31.75,59.05],[31.65,58.85],[31.3,58.95],[31.0,59.2],[30.75,58.95],[30.95,58.7],[31.4,58.6],[31.55,58.55],[31.4,58.45],[31.45,58.25],[31.5,58.05],[31.45,57.8],[31.3,57.5],[31.6,57.25],[31.8,57.0],[31.4,56.9],[30.9,56.5],[31.0,56.0],[31.3,55.6],[31.9,55.4],[32.6,55.65],[32.7,55.95],[33.0,56.05],[33.3,55.95],[33.6,55.75],[34.1,55.8],[34.2,56.0],[33.8,56.05],[33.4,56.1],[33.2,56.2],[33.25,56.38],[32.9762,56.378],[33.4335,56.4089],[33.8816,56.3729],[34.3349,56.3557],[34.6016,56.3025],[34.7997,56.18],[34.9348,56.0616],[35.0154,55.874],[35.0946,55.815],[35.1741,55.6333],[35.326,55.4474],[35.4054,55.2592],[35.3055,55.0724],[35.0,55.0],[34.5,54.85],[34.2,54.75],[34.2166,54.4657],[33.9804,54.3084],[34.0668,54.1209],[34.5783,54.0082],[35.0197,53.9186],[35.1563,53.7679],[35.2965,53.5802],[35.7192,53.5573],[36.0696,53.6258],[36.2051,53.536],[36.4036,53.3794],[36.5854,53.2593],[36.7695,53.102],[36.8996,52.9125],[36.9702,52.7589],[37.1071,52.7117],[37.1799,52.5269],[37.253,52.3358],[37.38,52.1453],[37.4459,52.022],[37.3,51.8584],[37.1429,51.7012],[36.9814,51.6869],[36.8894,51.5309],[36.8563,51.3385],[36.823,51.1524],[36.7909,50.9601],[36.817,50.7373],[36.8126,50.5019],[36.8893,50.3102],[36.8583,50.1242],[36.9351,49.9323],[37.0646,49.7403],[37.1363,49.5853],[36.7175,49.6286],[36.2726,49.6598],[36.1713,49.5303],[36.0346,49.3457],[36.008,49.1547],[36.0451,48.9017],[36.181,48.7097],[36.0,48.9],[36.0,48.7],[36.3,48.6],[36.8,48.65],[36.7787,48.6441],[36.9905,48.69],[37.1948,48.7346],[37.3496,48.815],[37.5576,48.9176],[37.7778,48.8687],[37.9585,48.8435],[38.1808,48.7928],[38.3163,48.7646],[38.4003,48.6164],[38.3956,48.4918],[38.493,48.377],[38.3335,48.4143],[38.3094,48.3227],[38.3586,48.2335],[38.4977,48.1664],[38.6988,48.1264],[38.8378,48.0648],[38.8927,47.9235],[38.8718,47.7809],[38.8218,47.6378],[38.8637,47.5033],[38.9159,47.3497],[38.9262,47.234],[39.0,47.2],[39.0,47.05],[38.5,46.8],[37.5,46.2],[36.65,45.45],[36.6,45.0],[36.6,44.3],[36.6,41.8],[36.3549571491761,41.8120381833195],[36.11227419495968,41.84803679899192],[35.874288306863846,41.90764916066947],[35.64329141908728,41.99030116872178],[35.42150815793501,42.09519683912911],[35.211074417450995,42.22132596924364],[35.01401678959089,42.36747386659315],[34.83223304703363,42.53223304703363],[34.667473866593156,42.714016789590886],[34.52132596924364,42.91107441745099],[34.39519683912911,43.121508157935004],[34.29030116872178,43.34329141908727],[34.207649160669476,43.57428830686384],[34.148036798991924,43.81227419495968],[34.11203818331951,44.0549571491761],[34.1,44.3],[34.1,45.0],[34.11529066331595,45.2760788151871],[34.16529066331595,45.7260788151871],[34.20123494638346,45.953537200399715],[34.25795624024212,46.176723228886644],[34.334973282333564,46.39374323652707],[34.43163260698035,46.60275587597167],[34.493037609582835,46.708693493157746],[34.377874609737134,46.797709481108484],[34.20286430014254,46.96209802454286],[34.04443140331736,47.142517588006626],[33.90403736011281,47.3373039178903],[33.78297721463978,47.54466023646999],[33.682367668325746,47.76267381601805],[33.60313677906748,47.98933362247746],[33.546015400498035,48.222548865948376],[33.51153044033538,48.46016828687068],[33.5,48.7],[33.5,48.9],[33.510909664965155,49.119732178258126],[33.510388602973464,49.26395799487055],[33.531897065447964,49.49953946627785],[33.55849706544796,49.690539466277855],[33.60517921100242,49.93554288584878],[33.67604124496725,50.17467563236708],[33.770377881505766,50.40555763106254],[33.88725019338279,50.62589092639381],[34.02549495705456,50.83348255347051],[34.16219495705457,51.01808255347051],[34.20218459558234,51.07061961750964],[34.30348459558233,51.20011961750964],[34.30478534131603,51.201624803296696],[34.31460583424549,51.28418087696404],[34.224707914939046,51.3216027082278],[34.010496809275274,51.43632598470763],[33.80843541483657,51.57130383782974],[33.730653583800205,51.635000129522325],[33.52887160326382,51.67945922865517],[33.2819827467974,51.74728211182264],[33.04332556236073,51.84000103785832],[32.8154032411895,51.9566435105703],[32.60060638031566,52.095986108103126],[32.40118790843635,52.25656731497917],[32.21923945573742,52.43670285142024],[32.05666941552041,52.63450333916557],[31.91518292773665,52.84789411849556],[31.886526545603466,52.90253328083346],[31.807902844912775,52.90169695312501],[31.571416006173813,52.9216875582362],[31.33789040051733,52.96401297249566],[31.10943058495789,53.02829175487372],[30.509430584957894,53.22829175487372],[30.27449700337061,53.32001236759842],[30.049999999999997,53.43493649053891],[29.838224288340587,53.5718945370611],[29.641325116876676,53.7294926805554],[29.461306335046572,53.90612703945658],[29.300000000000004,54.099999999999994],[29.000000000000004,54.49999999999999],[28.8743009508927,54.684171913727205],[28.76551210802576,54.87881140720193],[28.674498900477822,55.08237009850314],[28.601985349888206,55.29322865235692],[28.548548310772702,55.509709662154535],[28.4485483107727,56.009709662154535],[28.411993176223824,56.25541454490671],[28.40000249819399,56.503534255753166],[28.412694662407183,56.75161907237387],[28.449944357263373,56.99721961696461],[28.51138381105837,57.23791103930349],[28.596406423047792,57.47131695765314],[28.653117247920772,57.589097603725044],[28.532577031732323,57.795428486494245],[28.430862833252046,58.0164032980948],[28.409227638670586,58.07874408765406],[28.380146268184905,58.107044330419896],[28.22193824443625,58.2945573641511]]]}},{"type":"Feature","properties":{"side":"soviet_pocket","name":"Sevastopol","note":"Fortress area besieged since November 1941"},"geometry":{"type":"Polygon","coordinates":[[[33.4,44.56],[33.45,44.66],[33.62,44.71],[33.78,44.63],[33.76,44.52],[33.62,44.46],[33.48,44.48],[33.4,44.56]]]}},{"type":"Feature","properties":{"side":"soviet_pocket","name":"Kerch peninsula","note":"Soviet-held east of the Parpach (Ak-Monai) line after Feodosia was retaken on 18 January 1942"},"geometry":{"type":"Polygon","coordinates":[[[35.42,45.45],[36.8,45.55],[36.8,44.95],[35.45,45.05],[35.42,45.45]]]}},{"type":"Feature","properties":{"side":"soviet_pocket","name":"Oranienbaum bridgehead","note":"Coastal bridgehead west of Leningrad"},"geometry":{"type":"Polygon","coordinates":[[[29.2,59.95],[29.95,59.92],[29.95,59.8],[29.5,59.7],[29.15,59.78],[29.2,59.95]]]}},{"type":"Feature","properties":{"side":"soviet_pocket","name":"33rd Army and Belov's cavalry near Vyazma","note":"Soviet forces cut off south of Vyazma"},"geometry":{"type":"Polygon","coordinates":[[[33.6,55.0],[34.3,55.1],[34.95,55.05],[34.75,54.85],[34.25,54.88],[34.0,54.55],[33.6,54.6],[33.5,54.8],[33.6,55.0]]]}},{"type":"Feature","properties":{"side":"axis_pocket","name":"Demyansk pocket","note":"II Army Corps encircled since 8 February 1942 (Lage Ost: dashed ring 'Gr. Eicke')"},"geometry":{"type":"Polygon","coordinates":[[[31.75,57.95],[32.35,57.95],[32.85,57.85],[33.05,57.6],[32.9,57.35],[32.3,57.3],[31.8,57.5],[31.7,57.75],[31.75,57.95]]]}},{"type":"Feature","properties":{"side":"axis_pocket","name":"Kholm pocket","note":"Kampfgruppe Scherer encircled since 21 January 1942"},"geometry":{"type":"Polygon","coordinates":[[[31.55,57.2],[31.7,57.2],[31.72,57.1],[31.55,57.1],[31.55,57.2]]]}},{"type":"Feature","properties":{"side":"axis_pocket","name":"Bely","note":"German-held town at the tip of a salient between the Toropets salient and the 39th Army (held throughout 1942)"},"geometry":{"type":"Polygon","coordinates":[[[31.95,55.92],[32.3,55.92],[32.4,55.7],[32.3,55.55],[32.0,55.48],[31.95,55.92]]]}}]}