{"type":"FeatureCollection","source":{"archive":"CAMO, Bestand 500, Findbuch 12457, Akte 466","map_date":"1942-10-01","url":"https://wwii.germandocsinrussia.org/de/nodes/20872-akte-466-unterlagen-der-operationsabteilung-iiib-des-generalstabs-des-heeres-im-okh-karte-lage-ost-karte-zur-lage-der-truppen-der-wehrmacht-an-der-deutsch-sowjetischen-front-einschlie-lich-der-lage-der-verb-nde-der-roten-armee-stand-1-10-1942","residuals_km":{"1258788":{"Sewastopol":4.5,"Simferopol":5.5,"Jalta":2.4,"Kertsch":4.6,"Rostow":19.0,"Nowotscherkassk":18.6,"Schachty":10.8,"Stalingrad":3.6,"Astrachan":3.8,"Kanewskaja":18.8,"Primorsko-Achtarsk":2.7,"Brjuchowezkaja":1.8,"Slawjanskaja":18.6,"Naltschik":10.6,"Signachi":11.3,"Nucha":9.9}}},"features":[{"type":"Feature","properties":{"side":"front"},"geometry":{"type":"LineString","coordinates":[[30.2095,59.811],[30.3727,59.7551],[30.7423,59.7173],[31.1075,59.7887],[31.4752,59.7208],[31.6381,59.6284],[31.25,59.9],[31.75,59.6],[32.0,59.45],[31.85,59.2],[31.75,59.05],[31.65,58.85],[31.55,58.7],[31.55,58.55],[31.4,58.45],[31.45,58.25],[31.5,58.05],[31.45,57.8],[31.3,57.5],[31.6,57.25],[31.8,57.0],[31.4,56.9],[30.9,56.5],[31.0,56.0],[31.3,55.6],[31.75,55.5],[32.0,55.7],[32.1,55.95],[32.45,56.05],[32.85,56.15],[32.9853,56.2541],[33.2018,56.3081],[33.5621,56.3446],[33.743,56.3684],[33.836,56.2688],[34.0471,56.2554],[34.1209,56.3175],[34.2617,56.31],[34.3919,56.2859],[34.5056,56.0454],[34.481,55.9383],[34.5532,55.8116],[34.7466,55.744],[34.8852,55.7251],[35.063,55.7351],[35.2057,55.6911],[35.2687,55.5892],[35.2022,55.4551],[35.4054,55.2592],[35.3055,55.0724],[35.0,55.0],[34.5,54.85],[34.2,54.75],[34.2166,54.4657],[33.9804,54.3084],[34.0668,54.1209],[34.5783,54.0082],[35.0197,53.9186],[35.1563,53.7679],[35.2965,53.5802],[35.7192,53.5573],[36.0696,53.6258],[36.2051,53.536],[36.4036,53.3794],[36.8646,53.3303],[36.8681,53.0293],[37.0071,52.8632],[37.1676,52.7366],[37.3348,52.508],[37.4452,52.3791],[37.5427,52.2815],[37.6454,52.2225],[37.789,52.2101],[38.0207,52.2206],[38.1643,52.2077],[38.2808,52.1999],[38.4683,52.2202],[38.7104,52.1914],[38.8978,52.1348],[39.1287,52.0363],[39.2299,51.7828],[39.2562,51.6465],[39.3034,51.5534],[39.2809,51.4873],[39.3322,51.3718],[39.3311,51.2822],[39.3339,51.1695],[39.3708,51.0548],[39.4319,50.984],[39.5358,50.9676],[39.6629,50.9357],[39.7758,50.9176],[39.8348,50.8762],[39.8911,50.7168],[39.9911,50.5773],[40.0613,50.4627],[40.1265,50.3701],[40.1186,50.2581],[40.157,50.1673],[40.1723,50.0545],[40.2727,50.0732],[40.4222,50.1248],[40.5127,50.0436],[40.6076,49.9289],[40.7778,49.8796],[40.8989,49.7878],[41.0193,49.7183],[41.1138,49.627],[41.2371,49.536],[41.3837,49.5338],[41.5346,49.5092],[41.6577,49.4858],[41.8409,49.5312],[42.0271,49.5411],[42.2188,49.5287],[42.3775,49.5613],[42.4636,49.519],[42.5529,49.4306],[42.6585,49.3504],[42.7619,49.3061],[42.8325,49.2625],[42.9137,49.23],[43.067,49.2461],[43.1979,49.2161],[43.3306,49.2017],[43.4909,49.1876],[43.572,49.1577],[43.6808,49.1435],[43.8186,49.1297],[43.8466,49.0955],[43.8216,49.0323],[43.8085,48.9616],[43.8987,48.9406],[44.0658,48.9115],[44.1783,48.8896],[44.2914,48.8998],[44.4628,48.9104],[44.5642,48.9077],[44.62,48.84],[44.62,48.8],[44.58,48.75],[44.55,48.7],[44.52,48.65],[44.5,48.62],[44.42,48.62],[44.38,48.57],[44.42,48.5],[44.5,48.42],[44.6,48.33],[44.686,48.2159],[44.6871,48.0918],[44.635,47.9381],[44.6565,47.7831],[44.689,47.6891],[44.7744,47.6237],[44.9015,47.5208],[44.8,47.0],[45.3,46.6],[45.6,46.2],[45.5,45.6],[45.9,45.0],[46.1,44.4],[46.1,44.09],[45.74,43.71],[45.57,43.74],[45.4,43.78],[45.2727,43.7854],[45.1417,43.7704],[44.9662,43.7382],[44.791,43.7065],[44.6289,43.6735],[44.5635,43.5393],[44.5217,43.4036],[44.4348,43.4039],[44.4117,43.5399],[44.4323,43.6746],[44.3529,43.777],[44.2651,43.7774],[44.0895,43.7614],[43.9137,43.7618],[43.7374,43.7788],[43.5635,43.7274],[43.387,43.7439],[43.2112,43.7264],[43.0354,43.7086],[42.83,43.75],[41.94,43.86],[41.21,43.93],[40.74,43.88],[40.29,44.26],[39.8327,44.2252],[39.692,44.2747],[39.546,44.3761],[39.4018,44.4428],[39.2069,44.561],[39.1435,44.7522],[38.951,44.835],[38.7187,44.8467],[38.4903,44.8054],[38.2631,44.7644],[38.0759,44.7764],[37.8946,44.736],[37.85,44.66],[37.6,44.3]]}},{"type":"Feature","properties":{"side":"soviet"},"geometry":{"type":"Polygon","coordinates":[[[30.2095,59.811],[27.0,59.95],[27.0,90.0],[180.0,90.0],[180.0,0.0],[37.6,0.0],[37.6,44.3],[37.85,44.66],[37.8946,44.736],[38.0759,44.7764],[38.2631,44.7644],[38.4903,44.8054],[38.7187,44.8467],[38.951,44.835],[39.1435,44.7522],[39.2069,44.561],[39.4018,44.4428],[39.546,44.3761],[39.692,44.2747],[39.8327,44.2252],[40.29,44.26],[40.74,43.88],[41.21,43.93],[41.94,43.86],[42.83,43.75],[43.0354,43.7086],[43.2112,43.7264],[43.387,43.7439],[43.5635,43.7274],[43.7374,43.7788],[43.9137,43.7618],[44.0895,43.7614],[44.2651,43.7774],[44.3529,43.777],[44.4323,43.6746],[44.4117,43.5399],[44.4348,43.4039],[44.5217,43.4036],[44.5635,43.5393],[44.6289,43.6735],[44.791,43.7065],[44.9662,43.7382],[45.1417,43.7704],[45.2727,43.7854],[45.4,43.78],[45.57,43.74],[45.74,43.71],[46.1,44.09],[46.1,44.4],[45.9,45.0],[45.5,45.6],[45.6,46.2],[45.3,46.6],[44.8,47.0],[44.9015,47.5208],[44.7744,47.6237],[44.689,47.6891],[44.6565,47.7831],[44.635,47.9381],[44.6871,48.0918],[44.686,48.2159],[44.6,48.33],[44.5,48.42],[44.42,48.5],[44.38,48.57],[44.42,48.62],[44.5,48.62],[44.52,48.65],[44.55,48.7],[44.58,48.75],[44.62,48.8],[44.62,48.84],[44.5642,48.9077],[44.4628,48.9104],[44.2914,48.8998],[44.1783,48.8896],[44.0658,48.9115],[43.8987,48.9406],[43.8085,48.9616],[43.8216,49.0323],[43.8466,49.0955],[43.8186,49.1297],[43.6808,49.1435],[43.572,49.1577],[43.4909,49.1876],[43.3306,49.2017],[43.1979,49.2161],[43.067,49.2461],[42.9137,49.23],[42.8325,49.2625],[42.7619,49.3061],[42.6585,49.3504],[42.5529,49.4306],[42.4636,49.519],[42.3775,49.5613],[42.2188,49.5287],[42.0271,49.5411],[41.8409,49.5312],[41.6577,49.4858],[41.5346,49.5092],[41.3837,49.5338],[41.2371,49.536],[41.1138,49.627],[41.0193,49.7183],[40.8989,49.7878],[40.7778,49.8796],[40.6076,49.9289],[40.5127,50.0436],[40.4222,50.1248],[40.2727,50.0732],[40.1723,50.0545],[40.157,50.1673],[40.1186,50.2581],[40.1265,50.3701],[40.0613,50.4627],[39.9911,50.5773],[39.8911,50.7168],[39.8348,50.8762],[39.7758,50.9176],[39.6629,50.9357],[39.5358,50.9676],[39.4319,50.984],[39.3708,51.0548],[39.3339,51.1695],[39.3311,51.2822],[39.3322,51.3718],[39.2809,51.4873],[39.3034,51.5534],[39.2562,51.6465],[39.2299,51.7828],[39.1287,52.0363],[38.8978,52.1348],[38.7104,52.1914],[38.4683,52.2202],[38.2808,52.1999],[38.1643,52.2077],[38.0207,52.2206],[37.789,52.2101],[37.6454,52.2225],[37.5427,52.2815],[37.4452,52.3791],[37.3348,52.508],[37.1676,52.7366],[37.0071,52.8632],[36.8681,53.0293],[36.8646,53.3303],[36.4036,53.3794],[36.2051,53.536],[36.0696,53.6258],[35.7192,53.5573],[35.2965,53.5802],[35.1563,53.7679],[35.0197,53.9186],[34.5783,54.0082],[34.0668,54.1209],[33.9804,54.3084],[34.2166,54.4657],[34.2,54.75],[34.5,54.85],[35.0,55.0],[35.3055,55.0724],[35.4054,55.2592],[35.2022,55.4551],[35.2687,55.5892],[35.2057,55.6911],[35.063,55.7351],[34.8852,55.7251],[34.7466,55.744],[34.5532,55.8116],[34.481,55.9383],[34.5056,56.0454],[34.3919,56.2859],[34.2617,56.31],[34.1209,56.3175],[34.0471,56.2554],[33.836,56.2688],[33.743,56.3684],[33.5621,56.3446],[33.2018,56.3081],[32.9853,56.2541],[32.85,56.15],[32.45,56.05],[32.1,55.95],[32.0,55.7],[31.75,55.5],[31.3,55.6],[31.0,56.0],[30.9,56.5],[31.4,56.9],[31.8,57.0],[31.6,57.25],[31.3,57.5],[31.45,57.8],[31.5,58.05],[31.45,58.25],[31.4,58.45],[31.55,58.55],[31.55,58.7],[31.65,58.85],[31.75,59.05],[31.85,59.2],[32.0,59.45],[31.75,59.6],[31.25,59.9],[31.6381,59.6284],[31.4752,59.7208],[31.1075,59.7887],[30.7423,59.7173],[30.3727,59.7551],[30.2095,59.811]]]}},{"type":"Feature","properties":{"side":"axis"},"geometry":{"type":"Polygon","coordinates":[[[-30.0,0.0],[-30.0,90.0],[27.0,90.0],[27.0,59.95],[30.2095,59.811],[30.3727,59.7551],[30.7423,59.7173],[31.1075,59.7887],[31.4752,59.7208],[31.6381,59.6284],[31.25,59.9],[31.75,59.6],[32.0,59.45],[31.85,59.2],[31.75,59.05],[31.65,58.85],[31.55,58.7],[31.55,58.55],[31.4,58.45],[31.45,58.25],[31.5,58.05],[31.45,57.8],[31.3,57.5],[31.6,57.25],[31.8,57.0],[31.4,56.9],[30.9,56.5],[31.0,56.0],[31.3,55.6],[31.75,55.5],[32.0,55.7],[32.1,55.95],[32.45,56.05],[32.85,56.15],[32.9853,56.2541],[33.2018,56.3081],[33.5621,56.3446],[33.743,56.3684],[33.836,56.2688],[34.0471,56.2554],[34.1209,56.3175],[34.2617,56.31],[34.3919,56.2859],[34.5056,56.0454],[34.481,55.9383],[34.5532,55.8116],[34.7466,55.744],[34.8852,55.7251],[35.063,55.7351],[35.2057,55.6911],[35.2687,55.5892],[35.2022,55.4551],[35.4054,55.2592],[35.3055,55.0724],[35.0,55.0],[34.5,54.85],[34.2,54.75],[34.2166,54.4657],[33.9804,54.3084],[34.0668,54.1209],[34.5783,54.0082],[35.0197,53.9186],[35.1563,53.7679],[35.2965,53.5802],[35.7192,53.5573],[36.0696,53.6258],[36.2051,53.536],[36.4036,53.3794],[36.8646,53.3303],[36.8681,53.0293],[37.0071,52.8632],[37.1676,52.7366],[37.3348,52.508],[37.4452,52.3791],[37.5427,52.2815],[37.6454,52.2225],[37.789,52.2101],[38.0207,52.2206],[38.1643,52.2077],[38.2808,52.1999],[38.4683,52.2202],[38.7104,52.1914],[38.8978,52.1348],[39.1287,52.0363],[39.2299,51.7828],[39.2562,51.6465],[39.3034,51.5534],[39.2809,51.4873],[39.3322,51.3718],[39.3311,51.2822],[39.3339,51.1695],[39.3708,51.0548],[39.4319,50.984],[39.5358,50.9676],[39.6629,50.9357],[39.7758,50.9176],[39.8348,50.8762],[39.8911,50.7168],[39.9911,50.5773],[40.0613,50.4627],[40.1265,50.3701],[40.1186,50.2581],[40.157,50.1673],[40.1723,50.0545],[40.2727,50.0732],[40.4222,50.1248],[40.5127,50.0436],[40.6076,49.9289],[40.7778,49.8796],[40.8989,49.7878],[41.0193,49.7183],[41.1138,49.627],[41.2371,49.536],[41.3837,49.5338],[41.5346,49.5092],[41.6577,49.4858],[41.8409,49.5312],[42.0271,49.5411],[42.2188,49.5287],[42.3775,49.5613],[42.4636,49.519],[42.5529,49.4306],[42.6585,49.3504],[42.7619,49.3061],[42.8325,49.2625],[42.9137,49.23],[43.067,49.2461],[43.1979,49.2161],[43.3306,49.2017],[43.4909,49.1876],[43.572,49.1577],[43.6808,49.1435],[43.8186,49.1297],[43.8466,49.0955],[43.8216,49.0323],[43.8085,48.9616],[43.8987,48.9406],[44.0658,48.9115],[44.1783,48.8896],[44.2914,48.8998],[44.4628,48.9104],[44.5642,48.9077],[44.62,48.84],[44.62,48.8],[44.58,48.75],[44.55,48.7],[44.52,48.65],[44.5,48.62],[44.42,48.62],[44.38,48.57],[44.42,48.5],[44.5,48.42],[44.6,48.33],[44.686,48.2159],[44.6871,48.0918],[44.635,47.9381],[44.6565,47.7831],[44.689,47.6891],[44.7744,47.6237],[44.9015,47.5208],[44.8,47.0],[45.3,46.6],[45.6,46.2],[45.5,45.6],[45.9,45.0],[46.1,44.4],[46.1,44.09],[45.74,43.71],[45.57,43.74],[45.4,43.78],[45.2727,43.7854],[45.1417,43.7704],[44.9662,43.7382],[44.791,43.7065],[44.6289,43.6735],[44.5635,43.5393],[44.5217,43.4036],[44.4348,43.4039],[44.4117,43.5399],[44.4323,43.6746],[44.3529,43.777],[44.2651,43.7774],[44.0895,43.7614],[43.9137,43.7618],[43.7374,43.7788],[43.5635,43.7274],[43.387,43.7439],[43.2112,43.7264],[43.0354,43.7086],[42.83,43.75],[41.94,43.86],[41.21,43.93],[40.74,43.88],[40.29,44.26],[39.8327,44.2252],[39.692,44.2747],[39.546,44.3761],[39.4018,44.4428],[39.2069,44.561],[39.1435,44.7522],[38.951,44.835],[38.7187,44.8467],[38.4903,44.8054],[38.2631,44.7644],[38.0759,44.7764],[37.8946,44.736],[37.85,44.66],[37.6,44.3],[37.6,0.0],[-30.0,0.0]]]}},{"type":"Feature","properties":{"side":"soviet_pocket","name":"Oranienbaum bridgehead","note":"Coastal bridgehead west of Leningrad"},"geometry":{"type":"Polygon","coordinates":[[[29.2,59.95],[29.95,59.92],[29.95,59.8],[29.5,59.7],[29.15,59.78],[29.2,59.95]]]}},{"type":"Feature","properties":{"side":"axis_pocket","name":"Demyansk salient","note":"II Army Corps, linked to the main front on 21 April 1942 by the Ramushevo corridor along the Lovat (Lage Ost: 'Gr. Seydlitz' corridor)"},"geometry":{"type":"Polygon","coordinates":[[[31.45,57.95],[31.75,57.93],[32.35,57.95],[32.85,57.85],[33.05,57.6],[32.9,57.35],[32.3,57.3],[31.8,57.5],[31.7,57.8],[31.48,57.84],[31.45,57.95]]]}},{"type":"Feature","properties":{"side":"axis_pocket","name":"Kholm","note":"Kampfgruppe Scherer, relieved from the west on 5 May 1942; the town is a German salient tip (the strip on the map covers this sector)"},"geometry":{"type":"Polygon","coordinates":[[[31.5,57.22],[31.75,57.21],[31.78,57.1],[31.6,57.06],[31.5,57.12],[31.5,57.22]]]}},{"type":"Feature","properties":{"side":"soviet_pocket","name":"62nd Army in Stalingrad","note":"The 62nd Army holds the factory district and a strip of the Volga bank in the city, with the Rynok–Spartanovka group in the north"},"geometry":{"type":"Polygon","coordinates":[[[44.565,48.87],[44.615,48.86],[44.625,48.8],[44.59,48.75],[44.56,48.715],[44.535,48.7],[44.52,48.71],[44.54,48.74],[44.565,48.78],[44.585,48.82],[44.565,48.87]]]}}]}