{"type":"FeatureCollection","source":{"archive":"CAMO, Bestand 500, Findbuch 12457, Akte 405","map_date":"1942-08-01","url":"https://wwii.germandocsinrussia.org/de/nodes/20811-akte-405-unterlagen-der-operationsabteilung-iiib-des-generalstabs-des-heeres-im-okh-karte-lage-ost-karte-zur-lage-der-truppen-der-wehrmacht-an-der-deutsch-sowjetischen-front-einschlie-lich-der-lage-der-verb-nde-der-roten-armee-stand-1-8-1942","residuals_km":{"1258725":{"Leningrad":0.7,"Kronstadt":1.0,"Moskau":2.4,"Kalinin":2.4,"Smolensk":4.6,"Kursk":12.2,"Isjum":2.9,"Kupjansk":3.4,"Gorki":4.1,"Dserschinsk":12.2,"Pawlowo":8.8,"Tula":7.5,"Orel":5.2},"1258726":{"Rostow":6.2,"Nowotscherkassk":17.0,"Schachty":5.5,"Stalingrad":2.3,"Woronesch":4.7,"Swoboda":10.8,"Kantemirowka":13.5,"Kasanskaja":3.5,"Buturlinowka":1.8,"Pawlowsk":15.5,"Weschenskaja":8.8,"Morosowski":12.9,"Zymljanskaja":11.9,"Kotelnikowo":10.5}}},"features":[{"type":"Feature","properties":{"side":"front"},"geometry":{"type":"LineString","coordinates":[[30.2095,59.811],[30.3727,59.7551],[30.7423,59.7173],[31.1075,59.7887],[31.4752,59.7208],[31.6381,59.6284],[31.25,59.9],[31.75,59.6],[32.0,59.45],[31.85,59.2],[31.75,59.05],[31.65,58.85],[31.55,58.7],[31.55,58.55],[31.4,58.45],[31.45,58.25],[31.5,58.05],[31.45,57.8],[31.3,57.5],[31.6,57.25],[31.8,57.0],[31.4,56.9],[30.9,56.5],[31.0,56.0],[31.3,55.6],[31.75,55.5],[32.0,55.7],[32.1,55.95],[32.45,56.05],[32.85,56.15],[33.1,56.3],[33.25,56.38],[32.9762,56.378],[33.4335,56.4089],[33.8816,56.3729],[34.3349,56.3557],[34.6016,56.3025],[34.7997,56.18],[34.9348,56.0616],[35.0154,55.874],[35.0946,55.815],[35.1741,55.6333],[35.326,55.4474],[35.4054,55.2592],[35.3055,55.0724],[35.0,55.0],[34.5,54.85],[34.2,54.75],[34.2166,54.4657],[33.9804,54.3084],[34.0668,54.1209],[34.5783,54.0082],[35.0197,53.9186],[35.1563,53.7679],[35.2965,53.5802],[35.7192,53.5573],[36.0696,53.6258],[36.2051,53.536],[36.4036,53.3794],[36.8646,53.3303],[36.8681,53.0293],[37.0071,52.8632],[37.1676,52.7366],[37.3348,52.508],[37.4452,52.3791],[37.5427,52.2815],[37.6454,52.2225],[37.789,52.2101],[38.0207,52.2206],[38.1643,52.2077],[38.2808,52.1999],[38.4683,52.2202],[38.7104,52.1914],[38.8978,52.1348],[39.1287,52.0363],[39.2299,51.7828],[39.2562,51.6465],[39.3034,51.5534],[39.2809,51.4873],[39.3322,51.3718],[39.3311,51.2822],[39.3339,51.1695],[39.3708,51.0548],[39.4319,50.984],[39.5358,50.9676],[39.6629,50.9357],[39.7758,50.9176],[39.8348,50.8762],[39.8911,50.7168],[39.9911,50.5773],[40.0613,50.4627],[40.1265,50.3701],[40.1186,50.2581],[40.157,50.1673],[40.1723,50.0545],[40.2727,50.0732],[40.4222,50.1248],[40.5127,50.0436],[40.6076,49.9289],[40.7778,49.8796],[40.8989,49.7878],[41.0193,49.7183],[41.1138,49.627],[41.2371,49.536],[41.3837,49.5338],[41.5346,49.5092],[41.6577,49.4858],[41.8409,49.5312],[42.0271,49.5411],[42.2188,49.5287],[42.3775,49.5613],[42.4636,49.519],[42.5529,49.4306],[42.6585,49.3504],[42.7619,49.3061],[42.8325,49.2625],[42.9708,49.2185],[43.0446,49.1302],[43.0498,49.0205],[43.1215,48.9542],[43.1939,48.8669],[43.3348,48.8021],[43.4413,48.7589],[42.9084,48.4213],[42.8387,48.3327],[42.7688,48.2448],[42.7324,48.1564],[42.6923,48.0247],[42.6214,47.9362],[42.5492,47.8484],[42.4476,47.8037],[42.217,47.7584],[42.0863,47.7145],[41.989,47.6918],[42.25,47.6],[42.5,47.35],[42.1,47.0],[41.9,46.76],[41.8,46.45],[41.52,46.08],[41.07,45.98],[40.99,46.35],[40.63,46.5],[40.09,46.55],[39.45,46.59],[38.99,46.7],[38.95,46.85],[38.7,46.9],[37.5,46.2],[36.65,45.45],[36.6,45.0],[36.6,44.3]]}},{"type":"Feature","properties":{"side":"soviet"},"geometry":{"type":"Polygon","coordinates":[[[30.2095,59.811],[27.0,59.95],[27.0,90.0],[180.0,90.0],[180.0,0.0],[36.6,0.0],[36.6,44.3],[36.6,45.0],[36.65,45.45],[37.5,46.2],[38.7,46.9],[38.95,46.85],[38.99,46.7],[39.45,46.59],[40.09,46.55],[40.63,46.5],[40.99,46.35],[41.07,45.98],[41.52,46.08],[41.8,46.45],[41.9,46.76],[42.1,47.0],[42.5,47.35],[42.25,47.6],[41.989,47.6918],[42.0863,47.7145],[42.217,47.7584],[42.4476,47.8037],[42.5492,47.8484],[42.6214,47.9362],[42.6923,48.0247],[42.7324,48.1564],[42.7688,48.2448],[42.8387,48.3327],[42.9084,48.4213],[43.4413,48.7589],[43.3348,48.8021],[43.1939,48.8669],[43.1215,48.9542],[43.0498,49.0205],[43.0446,49.1302],[42.9708,49.2185],[42.8325,49.2625],[42.7619,49.3061],[42.6585,49.3504],[42.5529,49.4306],[42.4636,49.519],[42.3775,49.5613],[42.2188,49.5287],[42.0271,49.5411],[41.8409,49.5312],[41.6577,49.4858],[41.5346,49.5092],[41.3837,49.5338],[41.2371,49.536],[41.1138,49.627],[41.0193,49.7183],[40.8989,49.7878],[40.7778,49.8796],[40.6076,49.9289],[40.5127,50.0436],[40.4222,50.1248],[40.2727,50.0732],[40.1723,50.0545],[40.157,50.1673],[40.1186,50.2581],[40.1265,50.3701],[40.0613,50.4627],[39.9911,50.5773],[39.8911,50.7168],[39.8348,50.8762],[39.7758,50.9176],[39.6629,50.9357],[39.5358,50.9676],[39.4319,50.984],[39.3708,51.0548],[39.3339,51.1695],[39.3311,51.2822],[39.3322,51.3718],[39.2809,51.4873],[39.3034,51.5534],[39.2562,51.6465],[39.2299,51.7828],[39.1287,52.0363],[38.8978,52.1348],[38.7104,52.1914],[38.4683,52.2202],[38.2808,52.1999],[38.1643,52.2077],[38.0207,52.2206],[37.789,52.2101],[37.6454,52.2225],[37.5427,52.2815],[37.4452,52.3791],[37.3348,52.508],[37.1676,52.7366],[37.0071,52.8632],[36.8681,53.0293],[36.8646,53.3303],[36.4036,53.3794],[36.2051,53.536],[36.0696,53.6258],[35.7192,53.5573],[35.2965,53.5802],[35.1563,53.7679],[35.0197,53.9186],[34.5783,54.0082],[34.0668,54.1209],[33.9804,54.3084],[34.2166,54.4657],[34.2,54.75],[34.5,54.85],[35.0,55.0],[35.3055,55.0724],[35.4054,55.2592],[35.326,55.4474],[35.1741,55.6333],[35.0946,55.815],[35.0154,55.874],[34.9348,56.0616],[34.7997,56.18],[34.6016,56.3025],[34.3349,56.3557],[33.8816,56.3729],[33.4335,56.4089],[32.9762,56.378],[33.25,56.38],[33.1,56.3],[32.85,56.15],[32.45,56.05],[32.1,55.95],[32.0,55.7],[31.75,55.5],[31.3,55.6],[31.0,56.0],[30.9,56.5],[31.4,56.9],[31.8,57.0],[31.6,57.25],[31.3,57.5],[31.45,57.8],[31.5,58.05],[31.45,58.25],[31.4,58.45],[31.55,58.55],[31.55,58.7],[31.65,58.85],[31.75,59.05],[31.85,59.2],[32.0,59.45],[31.75,59.6],[31.25,59.9],[31.6381,59.6284],[31.4752,59.7208],[31.1075,59.7887],[30.7423,59.7173],[30.3727,59.7551],[30.2095,59.811]]]}},{"type":"Feature","properties":{"side":"axis"},"geometry":{"type":"Polygon","coordinates":[[[-30.0,0.0],[-30.0,90.0],[27.0,90.0],[27.0,59.95],[30.2095,59.811],[30.3727,59.7551],[30.7423,59.7173],[31.1075,59.7887],[31.4752,59.7208],[31.6381,59.6284],[31.25,59.9],[31.75,59.6],[32.0,59.45],[31.85,59.2],[31.75,59.05],[31.65,58.85],[31.55,58.7],[31.55,58.55],[31.4,58.45],[31.45,58.25],[31.5,58.05],[31.45,57.8],[31.3,57.5],[31.6,57.25],[31.8,57.0],[31.4,56.9],[30.9,56.5],[31.0,56.0],[31.3,55.6],[31.75,55.5],[32.0,55.7],[32.1,55.95],[32.45,56.05],[32.85,56.15],[33.1,56.3],[33.25,56.38],[32.9762,56.378],[33.4335,56.4089],[33.8816,56.3729],[34.3349,56.3557],[34.6016,56.3025],[34.7997,56.18],[34.9348,56.0616],[35.0154,55.874],[35.0946,55.815],[35.1741,55.6333],[35.326,55.4474],[35.4054,55.2592],[35.3055,55.0724],[35.0,55.0],[34.5,54.85],[34.2,54.75],[34.2166,54.4657],[33.9804,54.3084],[34.0668,54.1209],[34.5783,54.0082],[35.0197,53.9186],[35.1563,53.7679],[35.2965,53.5802],[35.7192,53.5573],[36.0696,53.6258],[36.2051,53.536],[36.4036,53.3794],[36.8646,53.3303],[36.8681,53.0293],[37.0071,52.8632],[37.1676,52.7366],[37.3348,52.508],[37.4452,52.3791],[37.5427,52.2815],[37.6454,52.2225],[37.789,52.2101],[38.0207,52.2206],[38.1643,52.2077],[38.2808,52.1999],[38.4683,52.2202],[38.7104,52.1914],[38.8978,52.1348],[39.1287,52.0363],[39.2299,51.7828],[39.2562,51.6465],[39.3034,51.5534],[39.2809,51.4873],[39.3322,51.3718],[39.3311,51.2822],[39.3339,51.1695],[39.3708,51.0548],[39.4319,50.984],[39.5358,50.9676],[39.6629,50.9357],[39.7758,50.9176],[39.8348,50.8762],[39.8911,50.7168],[39.9911,50.5773],[40.0613,50.4627],[40.1265,50.3701],[40.1186,50.2581],[40.157,50.1673],[40.1723,50.0545],[40.2727,50.0732],[40.4222,50.1248],[40.5127,50.0436],[40.6076,49.9289],[40.7778,49.8796],[40.8989,49.7878],[41.0193,49.7183],[41.1138,49.627],[41.2371,49.536],[41.3837,49.5338],[41.5346,49.5092],[41.6577,49.4858],[41.8409,49.5312],[42.0271,49.5411],[42.2188,49.5287],[42.3775,49.5613],[42.4636,49.519],[42.5529,49.4306],[42.6585,49.3504],[42.7619,49.3061],[42.8325,49.2625],[42.9708,49.2185],[43.0446,49.1302],[43.0498,49.0205],[43.1215,48.9542],[43.1939,48.8669],[43.3348,48.8021],[43.4413,48.7589],[42.9084,48.4213],[42.8387,48.3327],[42.7688,48.2448],[42.7324,48.1564],[42.6923,48.0247],[42.6214,47.9362],[42.5492,47.8484],[42.4476,47.8037],[42.217,47.7584],[42.0863,47.7145],[41.989,47.6918],[42.25,47.6],[42.5,47.35],[42.1,47.0],[41.9,46.76],[41.8,46.45],[41.52,46.08],[41.07,45.98],[40.99,46.35],[40.63,46.5],[40.09,46.55],[39.45,46.59],[38.99,46.7],[38.95,46.85],[38.7,46.9],[37.5,46.2],[36.65,45.45],[36.6,45.0],[36.6,44.3],[36.6,0.0],[-30.0,0.0]]]}},{"type":"Feature","properties":{"side":"soviet_pocket","name":"Oranienbaum bridgehead","note":"Coastal bridgehead west of Leningrad"},"geometry":{"type":"Polygon","coordinates":[[[29.2,59.95],[29.95,59.92],[29.95,59.8],[29.5,59.7],[29.15,59.78],[29.2,59.95]]]}},{"type":"Feature","properties":{"side":"axis_pocket","name":"Demyansk salient","note":"II Army Corps, linked to the main front on 21 April 1942 by the Ramushevo corridor along the Lovat (Lage Ost: 'Gr. Seydlitz' corridor)"},"geometry":{"type":"Polygon","coordinates":[[[31.45,57.95],[31.75,57.93],[32.35,57.95],[32.85,57.85],[33.05,57.6],[32.9,57.35],[32.3,57.3],[31.8,57.5],[31.7,57.8],[31.48,57.84],[31.45,57.95]]]}},{"type":"Feature","properties":{"side":"axis_pocket","name":"Kholm","note":"Kampfgruppe Scherer, relieved from the west on 5 May 1942; the town is a German salient tip (the strip on the map covers this sector)"},"geometry":{"type":"Polygon","coordinates":[[[31.5,57.22],[31.75,57.21],[31.78,57.1],[31.6,57.06],[31.5,57.12],[31.5,57.22]]]}}]}