{"type":"FeatureCollection","features":[{"type":"Feature","geometry":{"type":"Point","coordinates":[146.034,-43.54]},"properties":{"name":"South West Cape","name_en":"South West Cape","name_zh":"西南角","featurecla":"cape","scalerank":5,"region":"Oceania","subregion":"Australia","label":"South West Cape","wikidataid":"Q7568836","min_zoom":6}},{"type":"Feature","geometry":{"type":"Point","coordinates":[149.958,-37.489]},"properties":{"name":"Cape Howe","name_en":"Cape Howe","name_zh":"豪角","featurecla":"cape","scalerank":5,"region":"Oceania","subregion":"Australia","label":null,"wikidataid":null,"min_zoom":6}},{"type":"Feature","geometry":{"type":"Point","coordinates":[143.537,-38.855]},"properties":{"name":"Cape Otway","name_en":"Cape Otway","name_zh":"奥特韦角","featurecla":"cape","scalerank":5,"region":"Oceania","subregion":"Australia","label":"Cape Otway","wikidataid":"Q838457","min_zoom":6}},{"type":"Feature","geometry":{"type":"Point","coordinates":[139.681,-36.956]},"properties":{"name":"Cape Jaffa","name_en":"Cape Jaffa","name_zh":"雅法角","featurecla":"cape","scalerank":5,"region":"Oceania","subregion":"Australia","label":null,"wikidataid":null,"min_zoom":6}},{"type":"Feature","geometry":{"type":"Point","coordinates":[135.654,-34.939]},"properties":{"name":"Cape Carnot","name_en":"Cape Carnot","name_zh":"卡诺角","featurecla":"cape","scalerank":5,"region":"Oceania","subregion":"Australia","label":null,"wikidataid":null,"min_zoom":6}},{"type":"Feature","geometry":{"type":"Point","coordinates":[153.628,-28.662]},"properties":{"name":"Cape Byron","name_en":"Cape Byron","name_zh":"拜伦角","featurecla":"cape","scalerank":5,"region":"Oceania","subregion":"Australia","label":"Cape Byron","wikidataid":"Q1034320","min_zoom":6}},{"type":"Feature","geometry":{"type":"Point","coordinates":[150.811,-22.702]},"properties":{"name":"Cape Manifold","name_en":"Cape Manifold","name_zh":"马尼福尔德角","featurecla":"cape","scalerank":5,"region":"Oceania","subregion":"Australia","label":null,"wikidataid":null,"min_zoom":6}},{"type":"Feature","geometry":{"type":"Point","coordinates":[142.522,-10.711]},"properties":{"name":"Cape York","name_en":"Cape York","name_zh":"约克角","featurecla":"cape","scalerank":5,"region":"Oceania","subregion":"Australia","label":"Cape York","wikidataid":"Q1728345","min_zoom":6}},{"type":"Feature","geometry":{"type":"Point","coordinates":[144.507,-14.164]},"properties":{"name":"Cape Melville","name_en":"Cape Melville","name_zh":"麦维尔角","featurecla":"cape","scalerank":5,"region":"Oceania","subregion":"Australia","label":null,"wikidataid":null,"min_zoom":6}},{"type":"Feature","geometry":{"type":"Point","coordinates":[136.915,-12.296]},"properties":{"name":"Cape Arnhem","name_en":"Cape Arnhem","name_zh":"阿纳姆角","featurecla":"cape","scalerank":5,"region":"Oceania","subregion":"Australia","label":null,"wikidataid":null,"min_zoom":6}},{"type":"Feature","geometry":{"type":"Point","coordinates":[117.597,-35.104]},"properties":{"name":"West Cape Howe","name_en":"West Cape Howe","name_zh":"西岬洞","featurecla":"cape","scalerank":5,"region":"Oceania","subregion":"Australia","label":null,"wikidataid":null,"min_zoom":6}},{"type":"Feature","geometry":{"type":"Point","coordinates":[115.128,-34.328]},"properties":{"name":"Cape Leeuwin","name_en":"Cape Leeuwin","name_zh":"露纹角","featurecla":"cape","scalerank":5,"region":"Oceania","subregion":"Australia","label":"Cape Leeuwin","wikidataid":"Q1536418","min_zoom":6}},{"type":"Feature","geometry":{"type":"Point","coordinates":[123.517,-33.929]},"properties":{"name":"Cape Pasley","name_en":"Cape Pasley","name_zh":"帕斯利角","featurecla":"cape","scalerank":5,"region":"Oceania","subregion":"Australia","label":null,"wikidataid":null,"min_zoom":6}},{"type":"Feature","geometry":{"type":"Point","coordinates":[126.941,-13.743]},"properties":{"name":"Cape Londonderry","name_en":"Cape Londonderry","name_zh":"伦敦德里角","featurecla":"cape","scalerank":5,"region":"Oceania","subregion":"Australia","label":null,"wikidataid":null,"min_zoom":6}},{"type":"Feature","geometry":{"type":"Point","coordinates":[113.145,-26.157]},"properties":{"name":"Steep Point","name_en":"Steep Point","name_zh":"斯提普角","featurecla":"cape","scalerank":5,"region":"Oceania","subregion":"Australia","label":"Steep Point","wikidataid":"Q1999953","min_zoom":6}},{"type":"Feature","geometry":{"type":"Point","coordinates":[114.16,-21.801]},"properties":{"name":"North West Cape","name_en":"North West Cape","name_zh":"西北角","featurecla":"cape","scalerank":5,"region":"Oceania","subregion":"Australia","label":null,"wikidataid":null,"min_zoom":6}},{"type":"Feature","geometry":{"type":"Point","coordinates":[-5.669,50.07]},"properties":{"name":"Lands End","name_en":"Land's End","name_zh":"兰兹角","featurecla":"cape","scalerank":4,"region":"Europe","subregion":"British Isles","label":"Lands End","wikidataid":"Q169532","min_zoom":5.7}},{"type":"Feature","geometry":{"type":"Point","coordinates":[-83.159,14.994]},"properties":{"name":"Cabo Gracias a Dios","name_en":"Cabo Gracias a Dios","name_zh":"格拉西亞斯阿迪奧斯角","featurecla":"cape","scalerank":5,"region":"North America","subregion":"Central America","label":null,"wikidataid":null,"min_zoom":6}},{"type":"Feature","geometry":{"type":"Point","coordinates":[-22.123,70.151]},"properties":{"name":"Cape Brewster","name_en":"Cape Brewster","name_zh":"布鲁斯特角","featurecla":"cape","scalerank":5,"region":"North America","subregion":"Greenland","label":"Cape Brewster","wikidataid":"Q3657109","min_zoom":6}},{"type":"Feature","geometry":{"type":"Point","coordinates":[-32.492,83.626]},"properties":{"name":"Cape Morris Jesup","name_en":"Cape Morris Jesup","name_zh":"莫里斯·杰塞普角","featurecla":"cape","scalerank":5,"region":"North America","subregion":"Greenland","label":"Cape Morris Jesup","wikidataid":"Q917353","min_zoom":6}},{"type":"Feature","geometry":{"type":"Point","coordinates":[-68.219,76.219]},"properties":{"name":"Cape York","name_en":"Cape York","name_zh":"约克角","featurecla":"cape","scalerank":4,"region":"North America","subregion":"Greenland","label":"Cape York","wikidataid":"Q1636266","min_zoom":5.7}},{"type":"Feature","geometry":{"type":"Point","coordinates":[-43.901,59.863]},"properties":{"name":"Nunap Isua","name_en":"Cape Farewell","name_zh":"法韦尔角","featurecla":"cape","scalerank":4,"region":"North America","subregion":"Greenland","label":null,"wikidataid":"Q128097","min_zoom":5.7}},{"type":"Feature","geometry":{"type":"Point","coordinates":[-16.149,66.531]},"properties":{"name":"Rifstangi","name_en":"Rifstangi","name_zh":"里夫斯角岛","featurecla":"island","scalerank":6,"region":"Europe","subregion":"Iceland","label":"Rifstangi","wikidataid":"Q7333283","min_zoom":6.7}},{"type":"Feature","geometry":{"type":"Point","coordinates":[-18.251,66.669]},"properties":{"name":"Grímsey","name_en":"Grímsey","name_zh":"格里姆赛岛","featurecla":"island","scalerank":5,"region":"Europe","subregion":"Iceland","label":"Grímsey","wikidataid":"Q213707","min_zoom":6}},{"type":"Feature","geometry":{"type":"Point","coordinates":[-20.435,63.218]},"properties":{"name":"Surtsey","name_en":"Surtsey","name_zh":"叙尔特塞","featurecla":"island","scalerank":5,"region":"Europe","subregion":"Iceland","label":"Surtsey","wikidataid":"Q178124","min_zoom":6}},{"type":"Feature","geometry":{"type":"Point","coordinates":[50.5,-15.275]},"properties":{"name":"Cap Est","name_en":"Tanjona Angontsy","name_zh":"东角","featurecla":"cape","scalerank":5,"region":"Africa","subregion":"Indian Ocean","label":null,"wikidataid":null,"min_zoom":6}},{"type":"Feature","geometry":{"type":"Point","coordinates":[45.159,-25.546]},"properties":{"name":"Cape Vohimena","name_en":"Cape Saint Marie","name_zh":"沃希梅纳角","featurecla":"cape","scalerank":4,"region":"Africa","subregion":"Indian Ocean","label":null,"wikidataid":"Q1352197","min_zoom":5.7}},{"type":"Feature","geometry":{"type":"Point","coordinates":[66.543,-19.702]},"properties":{"name":"Rodrigues","name_en":"Rodrigues","name_zh":"罗德里格斯岛","featurecla":"island","scalerank":7,"region":"Seven seas (open ocean)","subregion":"Indian Ocean","label":null,"wikidataid":null,"min_zoom":7}},{"type":"Feature","geometry":{"type":"Point","coordinates":[72.442,-7.332]},"properties":{"name":"Diego Garcia","name_en":"Diego Garcia","name_zh":"迪戈加西亚岛","featurecla":"island","scalerank":7,"region":"Seven seas (open ocean)","subregion":"Indian Ocean","label":"Diego Garcia","wikidataid":"Q184851","min_zoom":7}},{"type":"Feature","geometry":{"type":"Point","coordinates":[-114.75,18.346]},"properties":{"name":"Isla Clarión","name_en":"Clarion Island","name_zh":"克拉里翁岛","featurecla":"island","scalerank":6,"region":"Seven seas (open ocean)","subregion":"North Pacific Ocean","label":"I. Clarión","wikidataid":"Q1095657","min_zoom":6.7}},{"type":"Feature","geometry":{"type":"Point","coordinates":[-110.993,18.787]},"properties":{"name":"Isla Socorro","name_en":"Socorro Island","name_zh":"索科罗岛","featurecla":"island","scalerank":6,"region":"Seven seas (open ocean)","subregion":"North Pacific Ocean","label":"I. Socorro","wikidataid":"Q1361324","min_zoom":6.7}},{"type":"Feature","geometry":{"type":"Point","coordinates":[168.834,-12.289]},"properties":{"name":"Tikopia","name_en":"Tikopia","name_zh":"蒂科皮亞島","featurecla":"island","scalerank":7,"region":"Oceania","subregion":"Melanesia","label":"Tikopia","wikidataid":"Q889519","min_zoom":7}},{"type":"Feature","geometry":{"type":"Point","coordinates":[167.96,-29.024]},"properties":{"name":"Norfolk Island","name_en":"Norfolk Island","name_zh":"诺福克岛","featurecla":"island","scalerank":6,"region":"Oceania","subregion":"Melanesia","label":"Norfolk I.","wikidataid":"Q31057","min_zoom":6.7}},{"type":"Feature","geometry":{"type":"Point","coordinates":[147.852,-6.637]},"properties":{"name":"Cape Cretin","name_en":"Cape Cretin","name_zh":"克雷廷角","featurecla":"cape","scalerank":5,"region":"Oceania","subregion":"Melanesia","label":null,"wikidataid":null,"min_zoom":6}},{"type":"Feature","geometry":{"type":"Point","coordinates":[159.952,-19.205]},"properties":{"name":"Îles Chesterfield","name_en":"Chesterfield Islands","name_zh":"切斯特菲尔德群岛","featurecla":"island","scalerank":5,"region":"Oceania","subregion":"Melanesia","label":null,"wikidataid":null,"min_zoom":6}},{"type":"Feature","geometry":{"type":"Point","coordinates":[146.333,7.51]},"properties":{"name":"Lamotrek","name_en":"Lamotrek","name_zh":"拉莫特雷克環礁","featurecla":"island","scalerank":7,"region":"Oceania","subregion":"Micronesia","label":"Lamotrek","wikidataid":"Q1779228","min_zoom":7}},{"type":"Feature","geometry":{"type":"Point","coordinates":[162.974,5.329]},"properties":{"name":"Kosrae","name_en":"Kosrae","name_zh":"科斯雷","featurecla":"island","scalerank":7,"region":"Oceania","subregion":"Micronesia","label":"Kosrae","wikidataid":"Q459848","min_zoom":7}},{"type":"Feature","geometry":{"type":"Point","coordinates":[176.813,-2.618]},"properties":{"name":"Arorae","name_en":"Arorae","name_zh":"阿羅賴島","featurecla":"island","scalerank":7,"region":"Oceania","subregion":"Micronesia","label":"Arorae","wikidataid":"Q698352","min_zoom":7}},{"type":"Feature","geometry":{"type":"Point","coordinates":[160.703,6.23]},"properties":{"name":"Pingelap","name_en":"Pingelap","name_zh":"平格拉普","featurecla":"island","scalerank":7,"region":"Oceania","subregion":"Micronesia","label":null,"wikidataid":null,"min_zoom":7}},{"type":"Feature","geometry":{"type":"Point","coordinates":[154.781,1.079]},"properties":{"name":"Kapingamarangi","name_en":"Kapingamarangi","name_zh":"卡宾加马郎岛","featurecla":"island","scalerank":7,"region":"Oceania","subregion":"Micronesia","label":null,"wikidataid":null,"min_zoom":7}},{"type":"Feature","geometry":{"type":"Point","coordinates":[145.67,18.777]},"properties":{"name":"Agrihan","name_en":"Agrihan","name_zh":"阿格里漢島","featurecla":"island","scalerank":7,"region":"Oceania","subregion":"Micronesia","label":"Agrihan","wikidataid":"Q396730","min_zoom":7}},{"type":"Feature","geometry":{"type":"Point","coordinates":[145.401,19.689]},"properties":{"name":"Isla Asunción","name_en":"Asuncion Island","name_zh":"亚松森岛","featurecla":"island","scalerank":7,"region":"Oceania","subregion":"Micronesia","label":"Asunción","wikidataid":"Q752427","min_zoom":7}},{"type":"Feature","geometry":{"type":"Point","coordinates":[170.012,9.451]},"properties":{"name":"Wotje","name_en":"Wotje Atoll","name_zh":"沃特吉环礁","featurecla":"island","scalerank":7,"region":"Oceania","subregion":"Micronesia","label":null,"wikidataid":null,"min_zoom":7}},{"type":"Feature","geometry":{"type":"Point","coordinates":[170.121,12.244]},"properties":{"name":"Bikar","name_en":"Bikar Atoll","name_zh":"比卡尔岛","featurecla":"island","scalerank":7,"region":"Oceania","subregion":"Micronesia","label":null,"wikidataid":null,"min_zoom":7}},{"type":"Feature","geometry":{"type":"Point","coordinates":[145.785,18.12]},"properties":{"name":"Pagan","name_en":"Pagan","name_zh":"帕甘岛","featurecla":"island","scalerank":5,"region":"Oceania","subregion":"Micronesia","label":"Pagan","wikidataid":"Q1126761","min_zoom":6}},{"type":"Feature","geometry":{"type":"Point","coordinates":[166.636,19.304]},"properties":{"name":"Wake I.","name_en":"Wake Island","name_zh":"威克岛","featurecla":"island","scalerank":5,"region":"Oceania","subregion":"Micronesia","label":null,"wikidataid":null,"min_zoom":6}},{"type":"Feature","geometry":{"type":"Point","coordinates":[174.755,-1.201]},"properties":{"name":"Tabiteuea","name_en":"Tabiteuea","name_zh":"塔比特韋亞環礁","featurecla":"island","scalerank":5,"region":"Oceania","subregion":"Micronesia","label":"Tabiteuea","wikidataid":"Q1059267","min_zoom":6}},{"type":"Feature","geometry":{"type":"Point","coordinates":[173.626,0.227]},"properties":{"name":"Aranuka","name_en":"Aranuka","name_zh":"阿拉努卡環礁","featurecla":"island","scalerank":5,"region":"Oceania","subregion":"Micronesia","label":"Aranuka","wikidataid":"Q626095","min_zoom":6}},{"type":"Feature","geometry":{"type":"Point","coordinates":[166.931,-0.506]},"properties":{"name":"Nauru","name_en":"Nauru","name_zh":"瑙鲁岛","featurecla":"island","scalerank":5,"region":"Oceania","subregion":"Micronesia","label":"Nauru","wikidataid":"Q30151675","min_zoom":6}},{"type":"Feature","geometry":{"type":"Point","coordinates":[168.736,4.6]},"properties":{"name":"Ebon","name_en":"Ebon","name_zh":"埃邦环礁","featurecla":"island","scalerank":5,"region":"Oceania","subregion":"Micronesia","label":null,"wikidataid":null,"min_zoom":6}},{"type":"Feature","geometry":{"type":"Point","coordinates":[169.683,5.964]},"properties":{"name":"Jaluit","name_en":"Jaluit Island","name_zh":"加路伊岛","featurecla":"island","scalerank":5,"region":"Oceania","subregion":"Micronesia","label":"Jaluit","wikidataid":"Q27577106","min_zoom":6}},{"type":"Feature","geometry":{"type":"Point","coordinates":[171.726,6.107]},"properties":{"name":"Mili","name_en":"Mili Atoll","name_zh":"米利环礁","featurecla":"island","scalerank":5,"region":"Oceania","subregion":"Micronesia","label":null,"wikidataid":null,"min_zoom":6}},{"type":"Feature","geometry":{"type":"Point","coordinates":[171.16,7.118]},"properties":{"name":"Majuro","name_en":"Majuro Island","name_zh":"马朱罗","featurecla":"island","scalerank":5,"region":"Oceania","subregion":"Micronesia","label":"Majuro","wikidataid":"Q27577464","min_zoom":6}},{"type":"Feature","geometry":{"type":"Point","coordinates":[168.597,7.276]},"properties":{"name":"Ailinglapalap","name_en":"Ailinglaplap","name_zh":"马绍尔岛","featurecla":"island","scalerank":5,"region":"Oceania","subregion":"Micronesia","label":"Ailinglapalap","wikidataid":"Q27577510","min_zoom":6}},{"type":"Feature","geometry":{"type":"Point","coordinates":[167.735,8.747]},"properties":{"name":"Kwajalein","name_en":"Kwajalein Island","name_zh":"夸贾林岛","featurecla":"island","scalerank":5,"region":"Oceania","subregion":"Micronesia","label":null,"wikidataid":null,"min_zoom":6}},{"type":"Feature","geometry":{"type":"Point","coordinates":[166.87,11.164]},"properties":{"name":"Rongelap","name_en":"Rongelap Atoll","name_zh":"朗格拉普岛","featurecla":"island","scalerank":5,"region":"Oceania","subregion":"Micronesia","label":null,"wikidataid":null,"min_zoom":6}},{"type":"Feature","geometry":{"type":"Point","coordinates":[165.55,11.639]},"properties":{"name":"Bikini","name_en":"Bikini Atoll","name_zh":"比基尼岛","featurecla":"island","scalerank":5,"region":"Oceania","subregion":"Micronesia","label":"Bikini","wikidataid":"Q27577613","min_zoom":6}},{"type":"Feature","geometry":{"type":"Point","coordinates":[172.706,-34.42]},"properties":{"name":"Cape Reinga","name_en":"Cape Reinga / Te Rerenga Wairua","name_zh":"雷恩加角","featurecla":"cape","scalerank":5,"region":"Oceania","subregion":"New Zealand","label":"Cape Reinga","wikidataid":"Q1034494","min_zoom":6}},{"type":"Feature","geometry":{"type":"Point","coordinates":[-164.705,23.587]},"properties":{"name":"Necker","name_en":"Necker Island","name_zh":"內克爾島","featurecla":"island","scalerank":7,"region":"Oceania","subregion":"Polynesia","label":"Necker","wikidataid":"Q853419","min_zoom":7}},{"type":"Feature","geometry":{"type":"Point","coordinates":[-171.734,25.776]},"properties":{"name":"Laysan","name_en":"Laysan","name_zh":"雷仙岛","featurecla":"island","scalerank":7,"region":"Oceania","subregion":"Polynesia","label":"Laysan","wikidataid":"Q34720","min_zoom":7}},{"type":"Feature","geometry":{"type":"Point","coordinates":[-178.319,28.441]},"properties":{"name":"Kure Atoll","name_en":"Kure Atoll","name_zh":"庫裏環礁","featurecla":"island","scalerank":7,"region":"Oceania","subregion":"Polynesia","label":"Kure Atoll","wikidataid":"Q686179","min_zoom":7}},{"type":"Feature","geometry":{"type":"Point","coordinates":[-174.531,-4.645]},"properties":{"name":"Nikumaroro","name_en":"Nikumaroro","name_zh":"尼库马罗罗环礁","featurecla":"island","scalerank":7,"region":"Oceania","subregion":"Polynesia","label":"Nikumaroro","wikidataid":"Q1050891","min_zoom":7}},{"type":"Feature","geometry":{"type":"Point","coordinates":[-176.638,0.814]},"properties":{"name":"Howland I.","name_en":"Howland Island","name_zh":"豪兰岛","featurecla":"island","scalerank":7,"region":"Oceania","subregion":"Polynesia","label":"Howland I.","wikidataid":"Q131305","min_zoom":7}},{"type":"Feature","geometry":{"type":"Point","coordinates":[-162.099,5.879]},"properties":{"name":"Palmyra Atoll","name_en":"Palmyra Island","name_zh":"帕尔米拉环礁","featurecla":"island","scalerank":7,"region":"Oceania","subregion":"Polynesia","label":null,"wikidataid":null,"min_zoom":7}},{"type":"Feature","geometry":{"type":"Point","coordinates":[-160.021,-0.369]},"properties":{"name":"Jarvis","name_en":"Jarvis Island","name_zh":"贾维斯岛","featurecla":"island","scalerank":7,"region":"Oceania","subregion":"Polynesia","label":null,"wikidataid":null,"min_zoom":7}},{"type":"Feature","geometry":{"type":"Point","coordinates":[-158.294,-19.803]},"properties":{"name":"Takutea","name_en":"Takutea","name_zh":"塔库特阿岛","featurecla":"island","scalerank":7,"region":"Oceania","subregion":"Polynesia","label":"Takutea","wikidataid":"Q1425600","min_zoom":7}},{"type":"Feature","geometry":{"type":"Point","coordinates":[-161.082,-10.023]},"properties":{"name":"Rakahanga","name_en":"Rakahanga","name_zh":"拉卡杭阿島","featurecla":"island","scalerank":7,"region":"Oceania","subregion":"Polynesia","label":"Rakahanga","wikidataid":"Q1345121","min_zoom":7}},{"type":"Feature","geometry":{"type":"Point","coordinates":[-142.51,-16.054]},"properties":{"name":"Raroia","name_en":"Raroia","name_zh":"拉羅亞環礁","featurecla":"island","scalerank":7,"region":"Oceania","subregion":"Polynesia","label":"Raroia","wikidataid":"Q666634","min_zoom":7}},{"type":"Feature","geometry":{"type":"Point","coordinates":[-144.328,-27.587]},"properties":{"name":"Rapa","name_en":"Rapa Iti","name_zh":"小拉帕島","featurecla":"island","scalerank":7,"region":"Oceania","subregion":"Polynesia","label":"Rapa","wikidataid":"Q114832","min_zoom":7}},{"type":"Feature","geometry":{"type":"Point","coordinates":[-134.986,-23.103]},"properties":{"name":"Mangareva","name_en":"Mangareva","name_zh":"曼加瑞瓦島","featurecla":"island","scalerank":7,"region":"Oceania","subregion":"Polynesia","label":"Mangareva","wikidataid":"Q616662","min_zoom":7}},{"type":"Feature","geometry":{"type":"Point","coordinates":[-128.318,-24.35]},"properties":{"name":"Henderson Island","name_en":"Henderson Island","name_zh":"亨德森岛","featurecla":"island","scalerank":7,"region":"Oceania","subregion":"Polynesia","label":"Henderson I.","wikidataid":"Q379759","min_zoom":7}},{"type":"Feature","geometry":{"type":"Point","coordinates":[176.138,-5.676]},"properties":{"name":"Nanumea","name_en":"Nanumea","name_zh":"纳努梅阿环礁","featurecla":"island","scalerank":7,"region":"Oceania","subregion":"Polynesia","label":"Nanumea","wikidataid":"Q1964786","min_zoom":7}},{"type":"Feature","geometry":{"type":"Point","coordinates":[179.498,-10.751]},"properties":{"name":"Niulakita","name_en":"Niulakita","name_zh":"纽拉基塔岛","featurecla":"island","scalerank":7,"region":"Oceania","subregion":"Polynesia","label":"Niulakita","wikidataid":"Q632489","min_zoom":7}},{"type":"Feature","geometry":{"type":"Point","coordinates":[166.589,-48.017]},"properties":{"name":"The Snares","name_en":"Snares Islands","name_zh":"斯奈尔斯群岛","featurecla":"island","scalerank":6,"region":"Oceania","subregion":"New Zealand","label":null,"wikidataid":null,"min_zoom":6.7}},{"type":"Feature","geometry":{"type":"Point","coordinates":[-171.717,-2.757]},"properties":{"name":"Kanton Island","name_en":"Kanton Island","name_zh":"阿巴里靈阿環礁","featurecla":"island","scalerank":5,"region":"Oceania","subregion":"Polynesia","label":"Kanton","wikidataid":"Q30895","min_zoom":6}},{"type":"Feature","geometry":{"type":"Point","coordinates":[-159.327,3.867]},"properties":{"name":"Tabuaeran","name_en":"Tabuaeran","name_zh":"塔布阿埃兰环礁","featurecla":"island","scalerank":5,"region":"Oceania","subregion":"Polynesia","label":null,"wikidataid":null,"min_zoom":6}},{"type":"Feature","geometry":{"type":"Point","coordinates":[-154.984,-4.043]},"properties":{"name":"Malden Island","name_en":"Malden Island","name_zh":"莫爾登島","featurecla":"island","scalerank":5,"region":"Oceania","subregion":"Polynesia","label":"Malden","wikidataid":"Q532590","min_zoom":6}},{"type":"Feature","geometry":{"type":"Point","coordinates":[-159.798,-21.202]},"properties":{"name":"Rarotonga","name_en":"Rarotonga","name_zh":"拉罗汤加岛","featurecla":"island","scalerank":5,"region":"Oceania","subregion":"Polynesia","label":"Rarotonga","wikidataid":"Q471793","min_zoom":6}},{"type":"Feature","geometry":{"type":"Point","coordinates":[-147.774,-15.205]},"properties":{"name":"Rangiroa","name_en":"Rangiroa","name_zh":"伦吉拉环礁","featurecla":"island","scalerank":5,"region":"Oceania","subregion":"Polynesia","label":"Rangiroa","wikidataid":"Q757399","min_zoom":6}},{"type":"Feature","geometry":{"type":"Point","coordinates":[179.198,-8.492]},"properties":{"name":"Funafuti","name_en":"Fongafale","name_zh":"风加法列","featurecla":"island","scalerank":5,"region":"Oceania","subregion":"Polynesia","label":"Funafuti","wikidataid":"Q731947","min_zoom":6}},{"type":"Feature","geometry":{"type":"Point","coordinates":[-173.977,-18.59]},"properties":{"name":"Vavau","name_en":"Vavaʻu","name_zh":"瓦瓦乌岛","featurecla":"island","scalerank":4,"region":"Oceania","subregion":"Polynesia","label":"Vavau","wikidataid":"Q20456736","min_zoom":5.7}},{"type":"Feature","geometry":{"type":"Point","coordinates":[-109.368,-27.102]},"properties":{"name":"I. de Pascua","name_en":"Easter Island","name_zh":"复活节岛","featurecla":"island","scalerank":4,"region":"Oceania","subregion":"Polynesia","label":null,"wikidataid":"Q14452","min_zoom":5.7}},{"type":"Feature","geometry":{"type":"Point","coordinates":[-64.763,17.763]},"properties":{"name":"Saint Croix","name_en":"Saint Croix","name_zh":"圣克洛伊岛","featurecla":"island","scalerank":5,"region":"North America","subregion":"West Indies","label":"St. Croix","wikidataid":"Q642481","min_zoom":6}},{"type":"Feature","geometry":{"type":"Point","coordinates":[-81.272,19.316]},"properties":{"name":"Grand Cayman","name_en":"Grand Cayman","name_zh":"大开曼","featurecla":"island","scalerank":5,"region":"North America","subregion":"West Indies","label":"Grand Cayman","wikidataid":"Q737765","min_zoom":6}},{"type":"Feature","geometry":{"type":"Point","coordinates":[-74.493,24.053]},"properties":{"name":"San Salvador","name_en":"San Salvador Island","name_zh":"圣萨尔瓦多岛","featurecla":"island","scalerank":5,"region":"North America","subregion":"West Indies","label":"San Salvador","wikidataid":"Q845540","min_zoom":6}},{"type":"Feature","geometry":{"type":"Point","coordinates":[-61.723,12.106]},"properties":{"name":"Grenada","name_en":"Grenada","name_zh":"格林纳达岛","featurecla":"island","scalerank":5,"region":"North America","subregion":"West Indies","label":"Grenada","wikidataid":"Q3116419","min_zoom":6}},{"type":"Feature","geometry":{"type":"Point","coordinates":[-61.789,17.623]},"properties":{"name":"Barbuda","name_en":"Barbuda","name_zh":"巴布达岛","featurecla":"island","scalerank":5,"region":"North America","subregion":"West Indies","label":"Barbuda","wikidataid":"Q238752","min_zoom":6}},{"type":"Feature","geometry":{"type":"Point","coordinates":[-61.776,17.041]},"properties":{"name":"Antigua","name_en":"Antigua","name_zh":"安提瓜島","featurecla":"island","scalerank":5,"region":"North America","subregion":"West Indies","label":"Antigua","wikidataid":"Q316390","min_zoom":6}},{"type":"Feature","geometry":{"type":"Point","coordinates":[-61.657,16.181]},"properties":{"name":"Guadeloupe","name_en":"Guadeloupe","name_zh":"瓜德罗普岛","featurecla":"island","scalerank":5,"region":"North America","subregion":"West Indies","label":"Guadeloupe","wikidataid":"Q3118683","min_zoom":6}},{"type":"Feature","geometry":{"type":"Point","coordinates":[-61.353,15.453]},"properties":{"name":"Dominica","name_en":"Dominika","name_zh":"多米尼加岛","featurecla":"island","scalerank":5,"region":"North America","subregion":"West Indies","label":"Dominica","wikidataid":"Q4165857","min_zoom":6}},{"type":"Feature","geometry":{"type":"Point","coordinates":[-61.009,14.672]},"properties":{"name":"Martinique","name_en":"Martinique","name_zh":"马提尼克","featurecla":"island","scalerank":5,"region":"North America","subregion":"West Indies","label":"Martinique","wikidataid":"Q17054","min_zoom":6}},{"type":"Feature","geometry":{"type":"Point","coordinates":[-60.982,13.918]},"properties":{"name":"Saint Lucia","name_en":"Saint Lucia","name_zh":"圣卢西亚岛","featurecla":"island","scalerank":5,"region":"North America","subregion":"West Indies","label":"Saint Lucia","wikidataid":"Q27508090","min_zoom":6}},{"type":"Feature","geometry":{"type":"Point","coordinates":[-61.207,13.27]},"properties":{"name":"Saint Vincent","name_en":"Saint Vincent","name_zh":"圣文森特岛","featurecla":"island","scalerank":5,"region":"North America","subregion":"West Indies","label":"Saint Vincent","wikidataid":"Q379656","min_zoom":6}},{"type":"Feature","geometry":{"type":"Point","coordinates":[-59.567,13.164]},"properties":{"name":"Barbados","name_en":"Barbados","name_zh":"巴巴多斯","featurecla":"island","scalerank":5,"region":"North America","subregion":"West Indies","label":"Barbados","wikidataid":"Q30151210","min_zoom":6}},{"type":"Feature","geometry":{"type":"Point","coordinates":[-60.678,11.259]},"properties":{"name":"Tobago","name_en":"Tobago","name_zh":"多巴哥岛","featurecla":"island","scalerank":5,"region":"South America","subregion":"West Indies","label":"Tobago","wikidataid":"Q185111","min_zoom":6}},{"type":"Feature","geometry":{"type":"Point","coordinates":[-64.051,10.982]},"properties":{"name":"Margarita","name_en":"Margarita Island","name_zh":"玛格丽塔岛","featurecla":"island","scalerank":5,"region":"South America","subregion":"West Indies","label":"Margarita","wikidataid":"Q334738","min_zoom":6}},{"type":"Feature","geometry":{"type":"Point","coordinates":[-68.999,12.185]},"properties":{"name":"Curaçao","name_en":"Curaçao","name_zh":"库拉索","featurecla":"island","scalerank":5,"region":"North America","subregion":"West Indies","label":"Curaçao","wikidataid":"Q25279","min_zoom":6}},{"type":"Feature","geometry":{"type":"Point","coordinates":[-69.965,12.503]},"properties":{"name":"Aruba","name_en":"Aruba","name_zh":"阿鲁巴","featurecla":"island","scalerank":5,"region":"North America","subregion":"West Indies","label":"Aruba","wikidataid":"Q21203","min_zoom":6}},{"type":"Feature","geometry":{"type":"Point","coordinates":[35.778,23.951]},"properties":{"name":"Ra’s Banäs","name_en":"Ras Banas","name_zh":"巴纳斯角","featurecla":"cape","scalerank":5,"region":"Africa","subregion":null,"label":null,"wikidataid":null,"min_zoom":6}},{"type":"Feature","geometry":{"type":"Point","coordinates":[12.969,-12.856]},"properties":{"name":"Ponta das Salinas","name_en":"Ponta das Salinas","name_zh":"萨利纳斯角","featurecla":"cape","scalerank":5,"region":"Africa","subregion":null,"label":null,"wikidataid":null,"min_zoom":6}},{"type":"Feature","geometry":{"type":"Point","coordinates":[13.034,-9.1]},"properties":{"name":"Ponta das Palmeirinhas","name_en":"Ponta das Palmeirinhas","name_zh":"帕尔梅拉斯角","featurecla":"cape","scalerank":5,"region":"Africa","subregion":null,"label":null,"wikidataid":null,"min_zoom":6}},{"type":"Feature","geometry":{"type":"Point","coordinates":[-14.473,26.158]},"properties":{"name":"Cabo Bojador","name_en":"Cape Bojador","name_zh":"博哈多爾角","featurecla":"cape","scalerank":5,"region":"Africa","subregion":null,"label":"Cabo Bojador","wikidataid":"Q185222","min_zoom":6}},{"type":"Feature","geometry":{"type":"Point","coordinates":[19.993,-34.801]},"properties":{"name":"Cape Agulhas","name_en":"Cape Agulhas","name_zh":"厄加勒斯角","featurecla":"cape","scalerank":4,"region":"Africa","subregion":null,"label":"Cape Agulhas","wikidataid":"Q4085","min_zoom":5.7}},{"type":"Feature","geometry":{"type":"Point","coordinates":[51.258,11.822]},"properties":{"name":"Gees Gwardafuy","name_en":"Cape Guardafui","name_zh":"瓜达富伊角","featurecla":"cape","scalerank":3,"region":"Africa","subregion":null,"label":"Gees Gwardafuy","wikidataid":"Q1145030","min_zoom":5.1}},{"type":"Feature","geometry":{"type":"Point","coordinates":[25.853,-17.928]},"properties":{"name":"Victoria Falls","name_en":"Victoria Falls","name_zh":"维多利亚瀑布","featurecla":"waterfall","scalerank":3,"region":"Africa","subregion":null,"label":"Victoria Falls","wikidataid":"Q43278","min_zoom":5.1}},{"type":"Feature","geometry":{"type":"Point","coordinates":[-2.812,-70.862]},"properties":{"name":"Novyy Island","name_en":"Novyy Island","name_zh":"諾威島","featurecla":"island","scalerank":6,"region":"Antarctica","subregion":null,"label":"Novyy I.","wikidataid":"Q6112731","min_zoom":6.7}},{"type":"Feature","geometry":{"type":"Point","coordinates":[-20.902,-74.119]},"properties":{"name":"Lyddan I.","name_en":"Lyddan Island","name_zh":"利丹岛","featurecla":"island","scalerank":6,"region":"Antarctica","subregion":null,"label":null,"wikidataid":null,"min_zoom":6.7}},{"type":"Feature","geometry":{"type":"Point","coordinates":[16.05,-69.882]},"properties":{"name":"Verblyud Island","name_en":"Verblyud Island","name_zh":"韋爾布柳德島","featurecla":"island","scalerank":6,"region":"Antarctica","subregion":null,"label":"Verblyud I.","wikidataid":"Q6112759","min_zoom":6.7}},{"type":"Feature","geometry":{"type":"Point","coordinates":[169.735,-73.509]},"properties":{"name":"Coulman Island","name_en":"Coulman Island","name_zh":"庫爾曼島","featurecla":"island","scalerank":6,"region":"Antarctica","subregion":null,"label":"Coulman I.","wikidataid":"Q173788","min_zoom":6.7}},{"type":"Feature","geometry":{"type":"Point","coordinates":[167.253,-78.638]},"properties":{"name":"Minna Hook","name_en":"Minna Hook","name_zh":"米娜胡克角","featurecla":"cape","scalerank":6,"region":"Antarctica","subregion":null,"label":null,"wikidataid":null,"min_zoom":6.7}},{"type":"Feature","geometry":{"type":"Point","coordinates":[-116.893,-74.067]},"properties":{"name":"Wright Island","name_en":"Wright Island","name_zh":"莱特岛","featurecla":"island","scalerank":3,"region":"Antarctica","subregion":null,"label":"Wright I.","wikidataid":"Q6980542","min_zoom":5.1}},{"type":"Feature","geometry":{"type":"Point","coordinates":[-131.485,-74.483]},"properties":{"name":"Grant Island","name_en":"Grant Island","name_zh":"格蘭特島","featurecla":"island","scalerank":3,"region":"Antarctica","subregion":null,"label":"Grant I.","wikidataid":"Q1543171","min_zoom":5.1}},{"type":"Feature","geometry":{"type":"Point","coordinates":[-145.687,-75.592]},"properties":{"name":"Newman Island","name_en":"Newman Island","name_zh":"維曼島","featurecla":"island","scalerank":3,"region":"Antarctica","subregion":null,"label":"Newman I.","wikidataid":"Q6272638","min_zoom":5.1}},{"type":"Feature","geometry":{"type":"Point","coordinates":[-127.634,-74.501]},"properties":{"name":"Dean Island","name_en":"Dean Island","name_zh":"迪安島","featurecla":"island","scalerank":3,"region":"Antarctica","subregion":null,"label":"Dean I.","wikidataid":"Q559842","min_zoom":5.1}},{"type":"Feature","geometry":{"type":"Point","coordinates":[170.267,-71.33]},"properties":{"name":"Cape Adare","name_en":"Cape Adare","name_zh":"艾德角","featurecla":"cape","scalerank":6,"region":"Antarctica","subregion":null,"label":null,"wikidataid":null,"min_zoom":6.7}},{"type":"Feature","geometry":{"type":"Point","coordinates":[113.205,-65.786]},"properties":{"name":"Cape Poinsett","name_en":"Cape Poinsett","name_zh":"波因塞特角","featurecla":"cape","scalerank":6,"region":"Antarctica","subregion":null,"label":"Cape Poinsett","wikidataid":"Q2606363","min_zoom":6.7}},{"type":"Feature","geometry":{"type":"Point","coordinates":[96.634,-66.151]},"properties":{"name":"Masson Island","name_en":"Masson Island","name_zh":"馬森島","featurecla":"island","scalerank":6,"region":"Antarctica","subregion":null,"label":"Masson I.","wikidataid":"Q1407303","min_zoom":6.7}},{"type":"Feature","geometry":{"type":"Point","coordinates":[85.603,-66.84]},"properties":{"name":"Mikhaylov Island","name_en":"Mikhaylov Island","name_zh":"米哈伊洛夫島","featurecla":"island","scalerank":6,"region":"Antarctica","subregion":null,"label":"Mikhaylov I.","wikidataid":"Q3498688","min_zoom":6.7}},{"type":"Feature","geometry":{"type":"Point","coordinates":[-12.327,-71.372]},"properties":{"name":"Cape Norvegia","name_en":"Cape Norvegia","name_zh":"諾維吉亞岬","featurecla":"cape","scalerank":6,"region":"Antarctica","subregion":null,"label":"Cape Norvegia","wikidataid":"Q827931","min_zoom":6.7}},{"type":"Feature","geometry":{"type":"Point","coordinates":[-60.614,-62.951]},"properties":{"name":"Deception Island","name_en":"Deception Island","name_zh":"迪塞普遜島","featurecla":"island","scalerank":6,"region":"Antarctica","subregion":null,"label":"Deception I.","wikidataid":"Q1045820","min_zoom":6.7}},{"type":"Feature","geometry":{"type":"Point","coordinates":[-60.593,-65.972]},"properties":{"name":"Cape Framnes","name_en":"Cape Framnes","name_zh":"弗拉姆內斯角","featurecla":"cape","scalerank":6,"region":"Antarctica","subregion":null,"label":"Cape Framnes","wikidataid":"Q1099478","min_zoom":6.7}},{"type":"Feature","geometry":{"type":"Point","coordinates":[-62.875,-68.456]},"properties":{"name":"Cape Agassiz","name_en":"Cape Agassiz","name_zh":"阿加西角","featurecla":"cape","scalerank":6,"region":"Antarctica","subregion":null,"label":"Cape Agassiz","wikidataid":"Q1100951","min_zoom":6.7}},{"type":"Feature","geometry":{"type":"Point","coordinates":[-68.791,-69.433]},"properties":{"name":"Cape Jeremy","name_en":"Cape Jeremy","name_zh":"傑里米角","featurecla":"cape","scalerank":6,"region":"Antarctica","subregion":null,"label":"Cape Jeremy","wikidataid":"Q1100932","min_zoom":6.7}},{"type":"Feature","geometry":{"type":"Point","coordinates":[77.512,8.085]},"properties":{"name":"Cape Comorin","name_en":"Cape Comorin","name_zh":"科摩林角","featurecla":"cape","scalerank":5,"region":"Asia","subregion":null,"label":"Cape Comorin","wikidataid":"Q946721","min_zoom":6}},{"type":"Feature","geometry":{"type":"Point","coordinates":[80.592,5.93]},"properties":{"name":"Dondra Head","name_en":"Dondra Head","name_zh":"栋德勒角","featurecla":"cape","scalerank":5,"region":"Asia","subregion":null,"label":"Dondra Head","wikidataid":"Q2426307","min_zoom":6}},{"type":"Feature","geometry":{"type":"Point","coordinates":[142.721,54.416]},"properties":{"name":"Cape Yelizavety","name_en":"Cape Elizabeth","name_zh":"耶利扎维蒂角","featurecla":"cape","scalerank":5,"region":"Asia","subregion":null,"label":"Cape Yelizavety","wikidataid":"Q2469144","min_zoom":6}},{"type":"Feature","geometry":{"type":"Point","coordinates":[156.797,57.733]},"properties":{"name":"Pt. Yuzhnyy","name_en":"Mys Yuzhnyy","name_zh":"尤日内角","featurecla":"cape","scalerank":5,"region":"Asia","subregion":null,"label":null,"wikidataid":null,"min_zoom":6}},{"type":"Feature","geometry":{"type":"Point","coordinates":[130.695,31.027]},"properties":{"name":"Cape Sata","name_en":"Cape Sata","name_zh":"佐多岬","featurecla":"cape","scalerank":5,"region":"Asia","subregion":null,"label":"Cape Sata","wikidataid":"Q431595","min_zoom":6}},{"type":"Feature","geometry":{"type":"Point","coordinates":[143.435,46.082]},"properties":{"name":"Cape Aniva","name_en":"Cape Aniva","name_zh":"阿尼瓦岬","featurecla":"cape","scalerank":5,"region":"Asia","subregion":null,"label":"Cape Aniva","wikidataid":"Q1083875","min_zoom":6}},{"type":"Feature","geometry":{"type":"Point","coordinates":[144.713,48.669]},"properties":{"name":"Cape Terpeniya","name_en":"Terpeniya Peninsula","name_zh":"北知床岬","featurecla":"cape","scalerank":5,"region":"Asia","subregion":null,"label":"Cape Terpeniya","wikidataid":"Q4309490","min_zoom":6}},{"type":"Feature","geometry":{"type":"Point","coordinates":[156.652,50.914]},"properties":{"name":"Cape Lopatka","name_en":"Cape Lopatka","name_zh":"洛帕特卡角","featurecla":"cape","scalerank":5,"region":"Asia","subregion":null,"label":"Cape Lopatka","wikidataid":"Q1199044","min_zoom":6}},{"type":"Feature","geometry":{"type":"Point","coordinates":[163.247,57.771]},"properties":{"name":"Cape Ozernoy","name_en":"Ozernoy Peninsula","name_zh":"奥泽诺伊角","featurecla":"cape","scalerank":5,"region":"Asia","subregion":null,"label":null,"wikidataid":null,"min_zoom":6}},{"type":"Feature","geometry":{"type":"Point","coordinates":[170.313,59.961]},"properties":{"name":"Cape Olyutorskiy","name_en":"Cape Olyutorsky","name_zh":"奥柳托尔斯基角","featurecla":"cape","scalerank":5,"region":"Asia","subregion":null,"label":"Cape Olyutorskiy","wikidataid":"Q3463471","min_zoom":6}},{"type":"Feature","geometry":{"type":"Point","coordinates":[179.074,62.327]},"properties":{"name":"Cape Navarin","name_en":"Cape Navarin","name_zh":"纳瓦林角","featurecla":"cape","scalerank":5,"region":"Asia","subregion":null,"label":"Cape Navarin","wikidataid":"Q3562501","min_zoom":6}},{"type":"Feature","geometry":{"type":"Point","coordinates":[150.066,71.908]},"properties":{"name":"Cape Lopatka","name_en":"Cape Lopatka","name_zh":"洛帕特卡角","featurecla":"cape","scalerank":5,"region":"Asia","subregion":null,"label":"Cape Lopatka","wikidataid":"Q1199044","min_zoom":6}},{"type":"Feature","geometry":{"type":"Point","coordinates":[34.983,42.084]},"properties":{"name":"Cape Ince","name_en":"Cape İnce","name_zh":"因斯角","featurecla":"cape","scalerank":5,"region":"Asia","subregion":null,"label":null,"wikidataid":null,"min_zoom":6}},{"type":"Feature","geometry":{"type":"Point","coordinates":[52.239,15.658]},"properties":{"name":"Ra’s Fartak","name_en":"Ra’s Fartak","name_zh":"法塔克角","featurecla":"cape","scalerank":5,"region":"Asia","subregion":null,"label":null,"wikidataid":null,"min_zoom":6}},{"type":"Feature","geometry":{"type":"Point","coordinates":[56.558,18.167]},"properties":{"name":"Ras Sharbatat","name_en":"Ras ash Sharbatat","name_zh":"沙巴塔角","featurecla":"cape","scalerank":5,"region":"Asia","subregion":null,"label":null,"wikidataid":null,"min_zoom":6}},{"type":"Feature","geometry":{"type":"Point","coordinates":[59.8,22.519]},"properties":{"name":"Ra's al Had","name_en":"Ras al Hadd","name_zh":"哈德角","featurecla":"cape","scalerank":5,"region":"Asia","subregion":null,"label":"Ra's al Had","wikidataid":"Q1329208","min_zoom":6}},{"type":"Feature","geometry":{"type":"Point","coordinates":[139.805,33.11]},"properties":{"name":"Hachijō-jima","name_en":"Hachijō-jima","name_zh":"八丈岛","featurecla":"island","scalerank":5,"region":"Asia","subregion":null,"label":"Hachijō-jima","wikidataid":"Q1191120","min_zoom":6}},{"type":"Feature","geometry":{"type":"Point","coordinates":[101.891,20.551]},"properties":{"name":"Plain of Jars","name_en":"Plain of Jars","name_zh":"查爾平原","featurecla":"plain","scalerank":4,"region":"Asia","subregion":null,"label":null,"wikidataid":"Q870258","min_zoom":5.7}},{"type":"Feature","geometry":{"type":"Point","coordinates":[25.661,71.155]},"properties":{"name":"Nordkapp","name_en":"North Cape","name_zh":"北角","featurecla":"cape","scalerank":5,"region":"Europe","subregion":null,"label":"Nordkapp","wikidataid":"Q4069","min_zoom":6}},{"type":"Feature","geometry":{"type":"Point","coordinates":[-8.969,37.038]},"properties":{"name":"Cabo de São Vicente","name_en":"Cape St. Vincent","name_zh":"圣维森特角","featurecla":"cape","scalerank":5,"region":"Europe","subregion":null,"label":"Cabo de São Vicente","wikidataid":"Q4103","min_zoom":6}},{"type":"Feature","geometry":{"type":"Point","coordinates":[-9.27,42.929]},"properties":{"name":"Cabo Fisterra","name_en":"Cape Finisterre","name_zh":"非尼斯泰尔角","featurecla":"cape","scalerank":5,"region":"Europe","subregion":null,"label":"Cabo Fisterra","wikidataid":"Q1136198","min_zoom":6}},{"type":"Feature","geometry":{"type":"Point","coordinates":[-85.271,29.714]},"properties":{"name":"Cape San Blas","name_en":"Cape San Blas","name_zh":"聖布拉斯角","featurecla":"cape","scalerank":5,"region":"North America","subregion":null,"label":"Cape San Blas","wikidataid":"Q5035028","min_zoom":6}},{"type":"Feature","geometry":{"type":"Point","coordinates":[-65.611,43.469]},"properties":{"name":"Cape Sable","name_en":"Cape Sable","name_zh":"塞布尔角","featurecla":"cape","scalerank":5,"region":"North America","subregion":null,"label":"Cape Sable","wikidataid":null,"min_zoom":6}},{"type":"Feature","geometry":{"type":"Point","coordinates":[-55.43,51.568]},"properties":{"name":"Cape Bauld","name_en":"Cape Bauld","name_zh":"鲍尔德角","featurecla":"cape","scalerank":5,"region":"North America","subregion":null,"label":null,"wikidataid":null,"min_zoom":6}},{"type":"Feature","geometry":{"type":"Point","coordinates":[-77.991,33.868]},"properties":{"name":"Cape Fear","name_en":"Cape Fear","name_zh":"菲尔角","featurecla":"cape","scalerank":5,"region":"North America","subregion":null,"label":"Cape Fear","wikidataid":"Q1034413","min_zoom":6}},{"type":"Feature","geometry":{"type":"Point","coordinates":[-118.317,29.052]},"properties":{"name":"I. Guadalupe","name_en":"Guadalupe Island","name_zh":"瓜达卢普岛","featurecla":"island","scalerank":5,"region":"Seven seas (open ocean)","subregion":"North Pacific Ocean","label":"I. Guadalupe","wikidataid":"Q853909","min_zoom":6}},{"type":"Feature","geometry":{"type":"Point","coordinates":[-56.33,46.929]},"properties":{"name":"Miquelon","name_en":"Miquelon","name_zh":"密克隆岛","featurecla":"island","scalerank":5,"region":"North America","subregion":null,"label":"Miquelon","wikidataid":"Q15076349","min_zoom":6}},{"type":"Feature","geometry":{"type":"Point","coordinates":[-105.678,20.42]},"properties":{"name":"Cabo Corrientes","name_en":"Cabo Corrientes","name_zh":"卡波科連特斯","featurecla":"cape","scalerank":4,"region":"North America","subregion":null,"label":"Cabo Corrientes","wikidataid":"Q2932434","min_zoom":5.7}},{"type":"Feature","geometry":{"type":"Point","coordinates":[-115.046,27.843]},"properties":{"name":"Pt. Eugenia","name_en":"Punta Eugenia","name_zh":"尤金伲亚角","featurecla":"cape","scalerank":4,"region":"North America","subregion":null,"label":"Pt. Eugenia","wikidataid":null,"min_zoom":5.7}},{"type":"Feature","geometry":{"type":"Point","coordinates":[-120.464,34.46]},"properties":{"name":"Point Conception","name_en":"Point Conception","name_zh":"康塞普申角","featurecla":"cape","scalerank":4,"region":"North America","subregion":null,"label":null,"wikidataid":"Q3307973","min_zoom":5.7}},{"type":"Feature","geometry":{"type":"Point","coordinates":[-75.54,35.245]},"properties":{"name":"Cape Hatteras","name_en":"Cape Hatteras","name_zh":"哈特拉斯角","featurecla":"cape","scalerank":4,"region":"North America","subregion":null,"label":"Cape Hatteras","wikidataid":"Q978032","min_zoom":5.7}},{"type":"Feature","geometry":{"type":"Point","coordinates":[-81.09,25.125]},"properties":{"name":"Cape Sable","name_en":"Cape Sable","name_zh":"沙布耳角","featurecla":"cape","scalerank":4,"region":"North America","subregion":null,"label":"Cape Sable","wikidataid":"Q2937102","min_zoom":5.7}},{"type":"Feature","geometry":{"type":"Point","coordinates":[-166.813,68.354]},"properties":{"name":"Cape Hope","name_en":"Point Hope","name_zh":"好望角","featurecla":"cape","scalerank":4,"region":"North America","subregion":null,"label":"Cape Hope","wikidataid":"Q7208042","min_zoom":5.7}},{"type":"Feature","geometry":{"type":"Point","coordinates":[-156.472,71.406]},"properties":{"name":"Point Barrow","name_en":"Point Barrow","name_zh":"巴罗角","featurecla":"cape","scalerank":4,"region":"North America","subregion":null,"label":"Point Barrow","wikidataid":"Q1343019","min_zoom":5.7}},{"type":"Feature","geometry":{"type":"Point","coordinates":[-80.536,28.473]},"properties":{"name":"Cape Canaveral","name_en":"Cape Canaveral","name_zh":"卡纳维拉尔角","featurecla":"cape","scalerank":3,"region":"North America","subregion":null,"label":"Cape Canaveral","wikidataid":"Q193401","min_zoom":5.1}},{"type":"Feature","geometry":{"type":"Point","coordinates":[-124.392,40.442]},"properties":{"name":"Cape Mendocino","name_en":"Cape Mendocino","name_zh":"曼杜西诺角","featurecla":"cape","scalerank":3,"region":"North America","subregion":null,"label":"Cape Mendocino","wikidataid":"Q780339","min_zoom":5.1}},{"type":"Feature","geometry":{"type":"Point","coordinates":[-109.97,22.888]},"properties":{"name":"Cabo San Lucas","name_en":"Cabo San Lucas","name_zh":"卡波圣卢卡斯","featurecla":"cape","scalerank":3,"region":"North America","subregion":null,"label":null,"wikidataid":"Q1020776","min_zoom":5.1}},{"type":"Feature","geometry":{"type":"Point","coordinates":[-93.182,58.752]},"properties":{"name":"Cape Churchill","name_en":"Cape Churchill","name_zh":"丘吉尔角","featurecla":"cape","scalerank":3,"region":"North America","subregion":null,"label":null,"wikidataid":null,"min_zoom":5.1}},{"type":"Feature","geometry":{"type":"Point","coordinates":[-70.037,41.991]},"properties":{"name":"Cape Cod","name_en":"Cape Cod","name_zh":"鳕鱼角","featurecla":"cape","scalerank":3,"region":"North America","subregion":null,"label":"Cape Cod","wikidataid":"Q49152","min_zoom":5.1}},{"type":"Feature","geometry":{"type":"Point","coordinates":[-74.951,38.93]},"properties":{"name":"Cape May","name_en":"Cape May","name_zh":"五月角","featurecla":"cape","scalerank":3,"region":"North America","subregion":null,"label":"Cape May","wikidataid":"Q2065437","min_zoom":5.1}},{"type":"Feature","geometry":{"type":"Point","coordinates":[-79.044,43.088]},"properties":{"name":"Niagara Falls","name_en":"Niagara Falls","name_zh":"尼亚加拉瀑布","featurecla":"waterfall","scalerank":2,"region":"North America","subregion":null,"label":"Niagara Falls","wikidataid":"Q34221","min_zoom":5}},{"type":"Feature","geometry":{"type":"Point","coordinates":[-80.734,-33.722]},"properties":{"name":"I. Alejandro Selkirk","name_en":"Alejandro Selkirk Island","name_zh":"亚历山大塞尔扣克岛","featurecla":"island","scalerank":7,"region":"Seven seas (open ocean)","subregion":"South Pacific Ocean","label":"I. Alejandro Selkirk","wikidataid":"Q1471979","min_zoom":7}},{"type":"Feature","geometry":{"type":"Point","coordinates":[-79.9,-26.342]},"properties":{"name":"I. San Ambrosio","name_en":"Isla San Ambrosio","name_zh":"圣安布罗焦岛","featurecla":"island","scalerank":7,"region":"Seven seas (open ocean)","subregion":"South Pacific Ocean","label":"I. San Ambrosio","wikidataid":"Q22454103","min_zoom":7}},{"type":"Feature","geometry":{"type":"Point","coordinates":[-78.873,-33.59]},"properties":{"name":"I. Robinson Crusoe","name_en":"Robinson Crusoe Island","name_zh":"鲁宾逊克鲁索岛","featurecla":"island","scalerank":5,"region":"Seven seas (open ocean)","subregion":"South Pacific Ocean","label":"I. Robinson Crusoe","wikidataid":"Q329422","min_zoom":6}},{"type":"Feature","geometry":{"type":"Point","coordinates":[-51.263,4.136]},"properties":{"name":"Cabo Orange","name_en":"Cape Orange","name_zh":"奥兰治角","featurecla":"cape","scalerank":5,"region":"South America","subregion":null,"label":"Cabo Orange","wikidataid":"Q963259","min_zoom":6}},{"type":"Feature","geometry":{"type":"Point","coordinates":[-48.803,-28.572]},"properties":{"name":"Cabo de Santa Marta Grande","name_en":"Cabo de Santa Marta Grande","name_zh":"圣玛尔塔格兰德角","featurecla":"cape","scalerank":5,"region":"South America","subregion":null,"label":null,"wikidataid":null,"min_zoom":6}},{"type":"Feature","geometry":{"type":"Point","coordinates":[-54.946,-34.967]},"properties":{"name":"Punta del Este","name_en":"Punta del Este","name_zh":"埃斯特角","featurecla":"cape","scalerank":5,"region":"South America","subregion":null,"label":null,"wikidataid":null,"min_zoom":6}},{"type":"Feature","geometry":{"type":"Point","coordinates":[-56.717,-36.41]},"properties":{"name":"Cabo San Antonio","name_en":"Cape San Antonio","name_zh":"圣安东尼奥角","featurecla":"cape","scalerank":5,"region":"South America","subregion":null,"label":null,"wikidataid":null,"min_zoom":6}},{"type":"Feature","geometry":{"type":"Point","coordinates":[-57.563,-38.066]},"properties":{"name":"Cabo Corrientes","name_en":"Cabo Corrientes","name_zh":"特斯角","featurecla":"cape","scalerank":5,"region":"South America","subregion":null,"label":null,"wikidataid":null,"min_zoom":6}},{"type":"Feature","geometry":{"type":"Point","coordinates":[-62.259,-40.726]},"properties":{"name":"Punta Rasa","name_en":"Punta Rasa","name_zh":"拉莎角","featurecla":"cape","scalerank":5,"region":"South America","subregion":null,"label":null,"wikidataid":null,"min_zoom":6}},{"type":"Feature","geometry":{"type":"Point","coordinates":[-65.544,-44.894]},"properties":{"name":"Cabo Dos Bahías","name_en":"Cabo Dos Bahías","name_zh":"达巴亚斯角","featurecla":"cape","scalerank":5,"region":"South America","subregion":null,"label":null,"wikidataid":null,"min_zoom":6}},{"type":"Feature","geometry":{"type":"Point","coordinates":[-81.108,-5.949]},"properties":{"name":"Punta Negra","name_en":"Punta Negra","name_zh":"内格拉角","featurecla":"cape","scalerank":4,"region":"South America","subregion":null,"label":null,"wikidataid":"Q987098","min_zoom":5.7}},{"type":"Feature","geometry":{"type":"Point","coordinates":[-73.603,-37.171]},"properties":{"name":"Punta Lavapié","name_en":"Punta Lavapié","name_zh":"拉瓦皮埃角","featurecla":"cape","scalerank":4,"region":"South America","subregion":null,"label":null,"wikidataid":null,"min_zoom":5.7}},{"type":"Feature","geometry":{"type":"Point","coordinates":[-67.169,-55.863]},"properties":{"name":"Cabo de Hornos","name_en":"Cape Horn","name_zh":"合恩角","featurecla":"cape","scalerank":3,"region":"South America","subregion":null,"label":"Cabo de Hornos","wikidataid":"Q4078","min_zoom":5.1}},{"type":"Feature","geometry":{"type":"Point","coordinates":[-62.062,5.687]},"properties":{"name":"Salto Angel","name_en":"Angel Falls","name_zh":"安赫尔瀑布","featurecla":"waterfall","scalerank":2,"region":"South America","subregion":null,"label":"Salto Angel","wikidataid":"Q80299","min_zoom":5}},{"type":"Feature","geometry":{"type":"Point","coordinates":[-54.583,-25.568]},"properties":{"name":"Iguazu Falls","name_en":"Iguaçu Falls","name_zh":"伊瓜苏瀑布","featurecla":"waterfall","scalerank":2,"region":"South America","subregion":null,"label":"Iguazu Falls","wikidataid":"Q36332","min_zoom":5}},{"type":"Feature","geometry":{"type":"Point","coordinates":[-109.23,10.304]},"properties":{"name":"Clipperton Island","name_en":"Clipperton Island","name_zh":"克利珀顿岛","featurecla":"island","scalerank":7,"region":"Seven seas (open ocean)","subregion":"North Pacific Ocean","label":"Clipperton I.","wikidataid":"Q161258","min_zoom":7}},{"type":"Feature","geometry":{"type":"Point","coordinates":[77.535,-37.858]},"properties":{"name":"Île Amsterdam","name_en":"Île Amsterdam","name_zh":"阿姆斯特丹岛","featurecla":"island","scalerank":7,"region":"Seven seas (open ocean)","subregion":"South Indian Ocean","label":"Île Amsterdam","wikidataid":"Q194215","min_zoom":7}},{"type":"Feature","geometry":{"type":"Point","coordinates":[77.526,-38.72]},"properties":{"name":"Île Amsterdam","name_en":"Île Amsterdam","name_zh":"阿姆斯特丹岛","featurecla":"island","scalerank":7,"region":"Seven seas (open ocean)","subregion":"South Indian Ocean","label":"Île Amsterdam","wikidataid":"Q194215","min_zoom":7}},{"type":"Feature","geometry":{"type":"Point","coordinates":[40.192,-22.838]},"properties":{"name":"Île Europa","name_en":"Europa Island","name_zh":"欧罗巴岛","featurecla":"island","scalerank":7,"region":"Africa","subregion":null,"label":"Île Europa","wikidataid":"Q193089","min_zoom":7}},{"type":"Feature","geometry":{"type":"Point","coordinates":[5.621,-1.43]},"properties":{"name":"Annobón","name_en":"Annobón Island","name_zh":"安诺本岛","featurecla":"island","scalerank":7,"region":"Africa","subregion":null,"label":"Annobón","wikidataid":"Q728665","min_zoom":7}},{"type":"Feature","geometry":{"type":"Point","coordinates":[-14.363,-7.925]},"properties":{"name":"Ascension","name_en":"Ascension","name_zh":"阿森松岛","featurecla":"island","scalerank":7,"region":"Seven seas (open ocean)","subregion":"Southern Atlantic Ocean","label":"Ascension","wikidataid":"Q46197","min_zoom":7}},{"type":"Feature","geometry":{"type":"Point","coordinates":[-12.265,-37.07]},"properties":{"name":"Tristan da Cunha","name_en":"Tristan da Cunha","name_zh":"特里斯坦-达库尼亚岛","featurecla":"island group","scalerank":7,"region":"Seven seas (open ocean)","subregion":"Southern Atlantic Ocean","label":"Tristan da Cunha","wikidataid":"Q2454241","min_zoom":7}},{"type":"Feature","geometry":{"type":"Point","coordinates":[-9.967,-40.34]},"properties":{"name":"Gough Island","name_en":"Gough Island","name_zh":"戈夫岛","featurecla":"island","scalerank":7,"region":"Seven seas (open ocean)","subregion":"Southern Atlantic Ocean","label":"Gough I.","wikidataid":"Q505935","min_zoom":7}},{"type":"Feature","geometry":{"type":"Point","coordinates":[3.41,-54.417]},"properties":{"name":"Bouvet Island","name_en":"Bouvet Island","name_zh":"布韦岛","featurecla":"island","scalerank":7,"region":"Seven seas (open ocean)","subregion":"Southern Atlantic Ocean","label":"Bouvet I.","wikidataid":"Q23408","min_zoom":7}},{"type":"Feature","geometry":{"type":"Point","coordinates":[-158.258,-77.111]},"properties":{"name":"Cape Colbeck","name_en":"Cape Colbeck","name_zh":"科貝克角","featurecla":"cape","scalerank":6,"region":"Antarctica","subregion":null,"label":"Cape Colbeck","wikidataid":"Q1990087","min_zoom":6.7}},{"type":"Feature","geometry":{"type":"Point","coordinates":[-32.417,-3.85]},"properties":{"name":"Is. de Fernando de Noronha","name_en":"Ilha de Fernando de Noronha","name_zh":"费尔南多迪诺罗尼亚岛","featurecla":"island","scalerank":6,"region":"Seven seas (open ocean)","subregion":"Southern Atlantic Ocean","label":"Is. de Fernando de Noronha","wikidataid":"Q22020149","min_zoom":6.7}},{"type":"Feature","geometry":{"type":"Point","coordinates":[96.828,-12.158]},"properties":{"name":"Cocos Is.","name_en":"Cocos Islands","name_zh":"科克斯岛","featurecla":"island","scalerank":6,"region":"Seven seas (open ocean)","subregion":"Indian Ocean","label":null,"wikidataid":null,"min_zoom":6.7}},{"type":"Feature","geometry":{"type":"Point","coordinates":[105.667,-10.473]},"properties":{"name":"Christmas Island","name_en":"Christmas Island","name_zh":"聖誕島","featurecla":"island","scalerank":6,"region":"Seven seas (open ocean)","subregion":"Indian Ocean","label":"Christmas I.","wikidataid":"Q31063","min_zoom":6.7}},{"type":"Feature","geometry":{"type":"Point","coordinates":[169.12,-52.51]},"properties":{"name":"Campbell Island","name_en":"Campbell Island/Motu Ihupuku","name_zh":"坎贝尔岛","featurecla":"island","scalerank":6,"region":"Seven seas (open ocean)","subregion":"South Pacific Ocean","label":"Campbell I.","wikidataid":"Q3593036","min_zoom":6.7}},{"type":"Feature","geometry":{"type":"Point","coordinates":[158.896,-54.61]},"properties":{"name":"Macquarie Island","name_en":"Macquarie Island","name_zh":"麦夸里岛","featurecla":"island","scalerank":6,"region":"Seven seas (open ocean)","subregion":"South Indian Ocean","label":"Macquarie I.","wikidataid":"Q46650","min_zoom":6.7}},{"type":"Feature","geometry":{"type":"Point","coordinates":[69.611,-67.773]},"properties":{"name":"Cape Darnley","name_en":"Cape Darnley","name_zh":"達恩利角","featurecla":"cape","scalerank":6,"region":"Antarctica","subregion":null,"label":"Cape Darnley","wikidataid":"Q2228608","min_zoom":6.7}},{"type":"Feature","geometry":{"type":"Point","coordinates":[51.408,-66.161]},"properties":{"name":"Cape Ann","name_en":"Cape Ann","name_zh":"安角","featurecla":"cape","scalerank":6,"region":"Antarctica","subregion":null,"label":"Cape Ann","wikidataid":"Q857241","min_zoom":6.7}},{"type":"Feature","geometry":{"type":"Point","coordinates":[-90.568,-68.766]},"properties":{"name":"Peter I Island","name_en":"Peter I Island","name_zh":"彼得一世岛","featurecla":"island","scalerank":6,"region":"Antarctica","subregion":"Southern Ocean","label":"Peter I I.","wikidataid":"Q202780","min_zoom":6.7}},{"type":"Feature","geometry":{"type":"Point","coordinates":[178.773,-49.649]},"properties":{"name":"Antipodes Islands","name_en":"Antipodes Island","name_zh":"安蒂波德斯群岛","featurecla":"island","scalerank":6,"region":"Seven seas (open ocean)","subregion":"South Pacific Ocean","label":"Antipodes Islands","wikidataid":"Q582389","min_zoom":6.7}},{"type":"Feature","geometry":{"type":"Point","coordinates":[178.897,-47.688]},"properties":{"name":"Bounty Is.","name_en":"Bounty Islands","name_zh":"班提岛","featurecla":"island","scalerank":6,"region":"Seven seas (open ocean)","subregion":"South Pacific Ocean","label":null,"wikidataid":null,"min_zoom":6.7}},{"type":"Feature","geometry":{"type":"Point","coordinates":[159.158,-31.827]},"properties":{"name":"Ball's Pyramid","name_en":"Ball's Pyramid","name_zh":"柏尔的金字塔","featurecla":"island","scalerank":6,"region":"Seven seas (open ocean)","subregion":"South Pacific Ocean","label":"Ball's Pyramid","wikidataid":"Q152872","min_zoom":6.7}},{"type":"Feature","geometry":{"type":"Point","coordinates":[159.069,-31.543]},"properties":{"name":"Lord Howe Island","name_en":"Lord Howe Island","name_zh":"豪勋爵岛","featurecla":"island","scalerank":6,"region":"Seven seas (open ocean)","subregion":"South Pacific Ocean","label":"Lord Howe I.","wikidataid":"Q104784","min_zoom":6.7}},{"type":"Feature","geometry":{"type":"Point","coordinates":[-5.705,-15.951]},"properties":{"name":"Saint Helena","name_en":"Saint Helena","name_zh":"圣赫勒拿","featurecla":"island","scalerank":6,"region":"Seven seas (open ocean)","subregion":"Southern Atlantic Ocean","label":"St. Helena","wikidataid":"Q34497","min_zoom":6.7}},{"type":"Feature","geometry":{"type":"Point","coordinates":[-87.092,5.54]},"properties":{"name":"I. del Coco","name_en":"Cocos Island","name_zh":"可可岛","featurecla":"island","scalerank":6,"region":"Seven seas (open ocean)","subregion":"North Pacific Ocean","label":"I. del Coco","wikidataid":null,"min_zoom":6.7}},{"type":"Feature","geometry":{"type":"Point","coordinates":[-59.92,43.931]},"properties":{"name":"Sable Island","name_en":"Sable Island","name_zh":"塞布尔岛","featurecla":"island","scalerank":6,"region":"Seven seas (open ocean)","subregion":null,"label":"Sable I.","wikidataid":"Q1336091","min_zoom":6.7}},{"type":"Feature","geometry":{"type":"Point","coordinates":[40.624,-10.67]},"properties":{"name":"Cabo Delgado","name_en":"Cape Delgado","name_zh":"德尔加杜角","featurecla":"cape","scalerank":5,"region":"Africa","subregion":null,"label":"Cabo Delgado","wikidataid":"Q1728307","min_zoom":6}},{"type":"Feature","geometry":{"type":"Point","coordinates":[35.516,-23.83]},"properties":{"name":"Ponta da Barra","name_en":"Ponta da Barra","name_zh":"巴拉角","featurecla":"cape","scalerank":5,"region":"Africa","subregion":null,"label":null,"wikidataid":null,"min_zoom":6}},{"type":"Feature","geometry":{"type":"Point","coordinates":[35.48,-22.119]},"properties":{"name":"Ponta São Sebastio","name_en":"Ponta São Sebastião","name_zh":"圣塞巴斯蒂安角","featurecla":"cape","scalerank":5,"region":"Africa","subregion":null,"label":null,"wikidataid":null,"min_zoom":6}},{"type":"Feature","geometry":{"type":"Point","coordinates":[-9.274,32.582]},"properties":{"name":"Ras Cantin","name_en":"Ras Cantin","name_zh":"坎廷角","featurecla":"cape","scalerank":5,"region":"Africa","subregion":null,"label":"Ras Cantin","wikidataid":"Q18214270","min_zoom":6}},{"type":"Feature","geometry":{"type":"Point","coordinates":[38.58,18.075]},"properties":{"name":"Ra’s Kasr","name_en":"Ras Kasar","name_zh":"卡斯尔角","featurecla":"cape","scalerank":5,"region":"Africa","subregion":null,"label":null,"wikidataid":null,"min_zoom":6}},{"type":"Feature","geometry":{"type":"Point","coordinates":[-39.992,-2.852]},"properties":{"name":"Ponta de Jericoacoara","name_en":"Jericoacoara","name_zh":"杰里科科拉角","featurecla":"cape","scalerank":5,"region":"South America","subregion":null,"label":null,"wikidataid":null,"min_zoom":6}},{"type":"Feature","geometry":{"type":"Point","coordinates":[-35.51,-5.157]},"properties":{"name":"Cabo de São Roque","name_en":"Cape São Roque","name_zh":"聖洛克岬","featurecla":"cape","scalerank":5,"region":"South America","subregion":null,"label":"Cabo de São Roque","wikidataid":"Q2535130","min_zoom":6}},{"type":"Feature","geometry":{"type":"Point","coordinates":[-39.146,-17.679]},"properties":{"name":"Ponta da Baleia","name_en":"Ponta da Baleia","name_zh":"巴莱亚角","featurecla":"cape","scalerank":5,"region":"South America","subregion":null,"label":null,"wikidataid":null,"min_zoom":6}},{"type":"Feature","geometry":{"type":"Point","coordinates":[-40.988,-21.972]},"properties":{"name":"Cabo de São Tomé","name_en":"Cabo de São Tomé","name_zh":"圣多美角","featurecla":"cape","scalerank":5,"region":"South America","subregion":null,"label":"Cabo de São Tomé","wikidataid":"Q8254538","min_zoom":6}},{"type":"Feature","geometry":{"type":"Point","coordinates":[-41.89,-22.76]},"properties":{"name":"Cabo Frio","name_en":"Cabo Frio","name_zh":"弗里乌角","featurecla":"cape","scalerank":5,"region":"South America","subregion":null,"label":"Cabo Frio","wikidataid":null,"min_zoom":6}},{"type":"Feature","geometry":{"type":"Point","coordinates":[-65.214,-54.641]},"properties":{"name":"Cabo San Diego","name_en":"Cabo San Diego","name_zh":"圣地亚哥角","featurecla":"cape","scalerank":5,"region":"South America","subregion":null,"label":"Cabo San Diego","wikidataid":"Q5738394","min_zoom":6}},{"type":"Feature","geometry":{"type":"Point","coordinates":[-65.744,-47.329]},"properties":{"name":"Cabo Tres Puntas","name_en":"Cape Tres Puntas","name_zh":"特雷斯蓬塔斯角","featurecla":"cape","scalerank":5,"region":"South America","subregion":null,"label":null,"wikidataid":null,"min_zoom":6}},{"type":"Feature","geometry":{"type":"Point","coordinates":[44.467,-16.174]},"properties":{"name":"Cap Saint André","name_en":"Tanjona Vilanandro","name_zh":"圣安德烈角","featurecla":"cape","scalerank":5,"region":"Africa","subregion":null,"label":"Cap Saint André","wikidataid":"Q2937092","min_zoom":6}},{"type":"Feature","geometry":{"type":"Point","coordinates":[32.367,-28.553]},"properties":{"name":"Cape St. Lucia","name_en":"Cape Vidal","name_zh":"圣卢西亚角","featurecla":"cape","scalerank":5,"region":"Africa","subregion":null,"label":null,"wikidataid":null,"min_zoom":6}},{"type":"Feature","geometry":{"type":"Point","coordinates":[24.841,-34.189]},"properties":{"name":"Cape St. Francis","name_en":"Cape St. Francis","name_zh":"圣弗朗西斯角","featurecla":"cape","scalerank":5,"region":"Africa","subregion":null,"label":null,"wikidataid":null,"min_zoom":6}},{"type":"Feature","geometry":{"type":"Point","coordinates":[153.959,24.32]},"properties":{"name":"Minamitori-shima","name_en":"Minamitorishima","name_zh":"南鸟岛","featurecla":"island","scalerank":5,"region":"Seven seas (open ocean)","subregion":"North Pacific Ocean","label":"Minamitori-shima","wikidataid":"Q1047492","min_zoom":6}},{"type":"Feature","geometry":{"type":"Point","coordinates":[-29.338,-20.56]},"properties":{"name":"Islas de Martín Vaz","name_en":"Islas de Martín Vaz","name_zh":"马丁瓦兹群岛","featurecla":"island","scalerank":5,"region":"Seven seas (open ocean)","subregion":"Southern Atlantic Ocean","label":"Is. Martín Vaz","wikidataid":"Q17505593","min_zoom":6}},{"type":"Feature","geometry":{"type":"Point","coordinates":[-12.409,58.163]},"properties":{"name":"Rockall","name_en":"Rockall","name_zh":"罗科尔","featurecla":"island","scalerank":5,"region":"Seven seas (open ocean)","subregion":"North Atlantic Ocean","label":"Rockall","wikidataid":"Q206137","min_zoom":6}},{"type":"Feature","geometry":{"type":"Point","coordinates":[-86.881,20.445]},"properties":{"name":"I. de Cozumel","name_en":"Cozumel Island","name_zh":"科苏梅尔岛","featurecla":"island","scalerank":5,"region":"North America","subregion":null,"label":"I. de Cozumel","wikidataid":"Q20119933","min_zoom":6}},{"type":"Feature","geometry":{"type":"Point","coordinates":[-64.743,32.317]},"properties":{"name":"Bermuda Islands","name_en":"Bermuda","name_zh":"百慕大群岛","featurecla":"island","scalerank":5,"region":"Seven seas (open ocean)","subregion":"North Atlantic Ocean","label":null,"wikidataid":null,"min_zoom":6}},{"type":"Feature","geometry":{"type":"Point","coordinates":[-80.062,0.731]},"properties":{"name":"Punta Galera","name_en":"Punta Galera","name_zh":"加莱拉角","featurecla":"cape","scalerank":4,"region":"South America","subregion":null,"label":null,"wikidataid":null,"min_zoom":5.7}},{"type":"Feature","geometry":{"type":"Point","coordinates":[8.727,-0.615]},"properties":{"name":"Cap Lopez","name_en":"Cape Lopez","name_zh":"洛佩斯角","featurecla":"cape","scalerank":4,"region":"Africa","subregion":null,"label":null,"wikidataid":null,"min_zoom":5.7}},{"type":"Feature","geometry":{"type":"Point","coordinates":[49.263,-11.966]},"properties":{"name":"Cape Bobaomby","name_en":"Cap d'Ambre","name_zh":"波班比角","featurecla":"cape","scalerank":4,"region":"Africa","subregion":null,"label":"Cape Bobaomby","wikidataid":"Q2937135","min_zoom":5.7}},{"type":"Feature","geometry":{"type":"Point","coordinates":[-17.053,20.822]},"properties":{"name":"Cap Blanc","name_en":"Ras Nouadhibou","name_zh":"卡普布朗角","featurecla":"cape","scalerank":4,"region":"Africa","subregion":null,"label":null,"wikidataid":null,"min_zoom":5.7}},{"type":"Feature","geometry":{"type":"Point","coordinates":[18.441,-34.307]},"properties":{"name":"Cape of Good Hope","name_en":"Cape of Good Hope","name_zh":"好望角","featurecla":"cape","scalerank":3,"region":"Africa","subregion":null,"label":"Cape of Good Hope","wikidataid":"Q4092","min_zoom":5.1}},{"type":"Feature","geometry":{"type":"Point","coordinates":[-7.457,4.374]},"properties":{"name":"Cape Palmas","name_en":"Cape Palmas","name_zh":"帕尔马斯角","featurecla":"cape","scalerank":3,"region":"Africa","subregion":null,"label":"Cape Palmas","wikidataid":"Q1034489","min_zoom":5.1}},{"type":"Feature","geometry":{"type":"Point","coordinates":[-17.472,14.732]},"properties":{"name":"Cape Verde","name_en":"Cap-Vert","name_zh":"佛得角半岛","featurecla":"cape","scalerank":3,"region":"Africa","subregion":null,"label":"Cape Verde","wikidataid":"Q216889","min_zoom":5.1}},{"type":"Feature","geometry":{"type":"Point","coordinates":[11.024,37.074]},"properties":{"name":"Cap Bon","name_en":"Cap Bon","name_zh":"卡本半岛","featurecla":"cape","scalerank":3,"region":"Africa","subregion":null,"label":"Cap Bon","wikidataid":"Q849879","min_zoom":5.1}},{"type":"Feature","geometry":{"type":"Point","coordinates":[-123.402,-48.865]},"properties":{"name":"Oceanic pole of inaccessibility","name_en":"pole of inaccessibility","name_zh":"難抵極","featurecla":"pole","scalerank":3,"region":"Seven seas (open ocean)","subregion":"South Pacific Ocean","label":null,"wikidataid":"Q752003","min_zoom":5.1}},{"type":"Feature","geometry":{"type":"Point","coordinates":[137.854,-64.518]},"properties":{"name":"South Magnetic Pole 2005 (est)","name_en":"South Magnetic Pole","name_zh":"地磁南极","featurecla":"pole","scalerank":3,"region":"Antarctica","subregion":"Southern Ocean","label":null,"wikidataid":"Q1043682","min_zoom":5.1}},{"type":"Feature","geometry":{"type":"Point","coordinates":[-114.406,82.71]},"properties":{"name":"North Magnetic Pole 2005 (est)","name_en":"North Magnetic Pole","name_zh":"地磁北极","featurecla":"pole","scalerank":3,"region":"Seven seas (open ocean)","subregion":"Arctic Ocean","label":null,"wikidataid":"Q842763","min_zoom":5.1}}]}