{"type":"FeatureCollection","source":{"archive":"CAMO, Bestand 500, Findbuch 12457, Akte 133","map_date":"1941-10-31","url":"https://wwii.germandocsinrussia.org/de/nodes/20539-akte-133-unterlagen-der-operationsabteilung-iiib-des-generalstabs-des-heeres-im-okh-karte-lage-ost-lagekarte-der-truppen-der-wehrmacht-im-rahmen-des-angriffes-auf-die-sowjetunion-einschlie-lich-lage-der-verb-nde-der-roten-armee-stand-31-10-1941","residuals_km":{"1436178":{"Leningrad":2.9,"Kronstadt":3.5,"Novgorod":7.7,"Moskau":5.1,"Kalinin":7.2,"Wologda":4.3,"Jaroslawl":9.0,"Gorki":1.1,"Kursk":11.3,"Charkow":5.0,"Woronesch":4.2}}},"features":[{"type":"Feature","properties":{"side":"front"},"geometry":{"type":"LineString","coordinates":[[30.2792,59.747],[30.6321,59.7062],[30.9177,59.8311],[31.1056,59.907],[31.3138,59.8951],[31.5,59.75],[31.85,59.6],[32.2,59.5],[32.6,59.45],[33.1,59.5],[33.05,59.35],[32.7,59.2],[32.45,59.0],[32.4,58.85],[32.1,58.72],[31.643,58.7205],[31.6536,58.5504],[31.6206,58.3978],[31.5608,58.1272],[31.8558,58.0457],[32.1435,57.929],[32.4011,57.8235],[32.5436,57.7646],[32.6511,57.683],[32.8162,57.5708],[32.9127,57.4065],[33.066,57.2797],[33.0433,57.0603],[33.5,57.15],[34.0,57.08],[34.6,57.0],[35.2,56.98],[35.6,57.0],[35.95,56.95],[36.1,56.85],[36.2,56.6],[36.4,56.4],[36.3,56.05],[36.45,55.8],[36.59,55.53],[36.7,55.35],[36.64,55.12],[36.95,54.83],[37.2,54.6],[37.45,54.35],[37.55,54.17],[37.75,54.1],[37.5,53.7],[37.1,53.35],[36.75,53.05],[36.5,52.7],[36.25,52.3],[36.05,51.85],[36.0,51.6],[36.2,51.3],[36.45,50.95],[36.65,50.75],[36.7197,50.6181],[36.5943,50.4474],[36.6682,50.2478],[36.8004,50.1097],[36.9233,49.9445],[37.0451,49.7791],[37.0836,49.5786],[37.1734,49.3924],[37.2925,49.2266],[37.458,49.1282],[37.6531,49.0431],[37.7645,48.9435],[37.9245,48.8911],[38.116,48.825],[38.2281,48.8177],[38.3843,48.7523],[38.4409,48.6827],[38.4385,48.5623],[38.356,48.4582],[38.3076,48.3603],[38.2816,48.2633],[38.4012,48.1725],[38.5453,48.1255],[38.6919,48.0355],[38.7904,47.7038],[38.8352,47.4861],[38.8768,47.3212],[38.9146,47.2367],[39.05,47.2],[39.0,47.05],[38.5,46.8],[37.5,46.2],[36.65,45.45],[36.6,45.0],[36.6,44.3]]}},{"type":"Feature","properties":{"side":"soviet"},"geometry":{"type":"Polygon","coordinates":[[[30.2792,59.747],[30.2792,60.0],[32.6,60.0],[33.0,60.6],[60.0,60.6],[60.0,40.0],[36.6,40.0],[36.6,44.3],[36.6,45.0],[36.65,45.45],[37.5,46.2],[38.5,46.8],[39.0,47.05],[39.05,47.2],[38.9146,47.2367],[38.8768,47.3212],[38.8352,47.4861],[38.7904,47.7038],[38.6919,48.0355],[38.5453,48.1255],[38.4012,48.1725],[38.2816,48.2633],[38.3076,48.3603],[38.356,48.4582],[38.4385,48.5623],[38.4409,48.6827],[38.3843,48.7523],[38.2281,48.8177],[38.116,48.825],[37.9245,48.8911],[37.7645,48.9435],[37.6531,49.0431],[37.458,49.1282],[37.2925,49.2266],[37.1734,49.3924],[37.0836,49.5786],[37.0451,49.7791],[36.9233,49.9445],[36.8004,50.1097],[36.6682,50.2478],[36.5943,50.4474],[36.7197,50.6181],[36.65,50.75],[36.45,50.95],[36.2,51.3],[36.0,51.6],[36.05,51.85],[36.25,52.3],[36.5,52.7],[36.75,53.05],[37.1,53.35],[37.5,53.7],[37.75,54.1],[37.55,54.17],[37.45,54.35],[37.2,54.6],[36.95,54.83],[36.64,55.12],[36.7,55.35],[36.59,55.53],[36.45,55.8],[36.3,56.05],[36.4,56.4],[36.2,56.6],[36.1,56.85],[35.95,56.95],[35.6,57.0],[35.2,56.98],[34.6,57.0],[34.0,57.08],[33.5,57.15],[33.0433,57.0603],[33.066,57.2797],[32.9127,57.4065],[32.8162,57.5708],[32.6511,57.683],[32.5436,57.7646],[32.4011,57.8235],[32.1435,57.929],[31.8558,58.0457],[31.5608,58.1272],[31.6206,58.3978],[31.6536,58.5504],[31.643,58.7205],[32.1,58.72],[32.4,58.85],[32.45,59.0],[32.7,59.2],[33.05,59.35],[33.1,59.5],[32.6,59.45],[32.2,59.5],[31.85,59.6],[31.5,59.75],[31.3138,59.8951],[31.1056,59.907],[30.9177,59.8311],[30.6321,59.7062],[30.2792,59.747]]]}},{"type":"Feature","properties":{"side":"axis"},"geometry":{"type":"Polygon","coordinates":[[[28.8552879295394,57.69213396650862],[28.660732362990252,57.84159649733919],[28.481763524529917,58.00940910549989],[28.320104981907086,58.19395566383843],[28.177313595258763,58.3934588881146],[28.054764523696086,58.60599745321907],[27.95363798177034,58.82952449658447],[27.874907873361657,59.06188733059089],[27.819332412452273,59.300848174124404],[27.78744682111138,59.5441057036325],[27.77955817501403,59.78931721612792],[27.793486655140125,60.0],[30.2792,60.0],[30.2792,59.747],[30.6321,59.7062],[30.9177,59.8311],[31.1056,59.907],[31.3138,59.8951],[31.5,59.75],[31.85,59.6],[32.2,59.5],[32.6,59.45],[33.1,59.5],[33.05,59.35],[32.7,59.2],[32.45,59.0],[32.4,58.85],[32.1,58.72],[31.643,58.7205],[31.6536,58.5504],[31.6206,58.3978],[31.5608,58.1272],[31.8558,58.0457],[32.1435,57.929],[32.4011,57.8235],[32.5436,57.7646],[32.6511,57.683],[32.8162,57.5708],[32.9127,57.4065],[33.066,57.2797],[33.0433,57.0603],[33.5,57.15],[34.0,57.08],[34.6,57.0],[35.2,56.98],[35.6,57.0],[35.95,56.95],[36.1,56.85],[36.2,56.6],[36.4,56.4],[36.3,56.05],[36.45,55.8],[36.59,55.53],[36.7,55.35],[36.64,55.12],[36.95,54.83],[37.2,54.6],[37.45,54.35],[37.55,54.17],[37.75,54.1],[37.5,53.7],[37.1,53.35],[36.75,53.05],[36.5,52.7],[36.25,52.3],[36.05,51.85],[36.0,51.6],[36.2,51.3],[36.45,50.95],[36.65,50.75],[36.7197,50.6181],[36.5943,50.4474],[36.6682,50.2478],[36.8004,50.1097],[36.9233,49.9445],[37.0451,49.7791],[37.0836,49.5786],[37.1734,49.3924],[37.2925,49.2266],[37.458,49.1282],[37.6531,49.0431],[37.7645,48.9435],[37.9245,48.8911],[38.116,48.825],[38.2281,48.8177],[38.3843,48.7523],[38.4409,48.6827],[38.4385,48.5623],[38.356,48.4582],[38.3076,48.3603],[38.2816,48.2633],[38.4012,48.1725],[38.5453,48.1255],[38.6919,48.0355],[38.7904,47.7038],[38.8352,47.4861],[38.8768,47.3212],[38.9146,47.2367],[39.05,47.2],[39.0,47.05],[38.5,46.8],[37.5,46.2],[36.65,45.45],[36.6,45.0],[36.6,44.3],[36.6,41.8],[36.3549571491761,41.8120381833195],[36.11227419495968,41.84803679899192],[35.874288306863846,41.90764916066947],[35.64329141908728,41.99030116872178],[35.42150815793501,42.09519683912911],[35.211074417450995,42.22132596924364],[35.01401678959089,42.36747386659315],[34.83223304703363,42.53223304703363],[34.667473866593156,42.714016789590886],[34.52132596924364,42.91107441745099],[34.39519683912911,43.121508157935004],[34.29030116872178,43.34329141908727],[34.207649160669476,43.57428830686384],[34.148036798991924,43.81227419495968],[34.11203818331951,44.0549571491761],[34.1,44.3],[34.1,45.0],[34.11529066331595,45.2760788151871],[34.16529066331595,45.7260788151871],[34.20123494638346,45.953537200399715],[34.25795624024212,46.176723228886644],[34.334973282333564,46.39374323652707],[34.43163260698035,46.60275587597167],[34.54711408983927,46.8019877399028],[34.68043790640164,46.98974840784476],[34.83047284549989,47.164444788856365],[34.99594590728289,47.324594638412734],[35.359872711528524,47.64570652451182],[35.26206263722689,47.76806507897308],[35.142962637226894,47.933865078973085],[35.02419239243951,48.115330440577296],[34.92159658497774,48.30640673110093],[34.83179658497774,48.49260673110093],[34.77895933294182,48.61548588554222],[34.695257292024735,48.71238570052014],[34.54884500813348,48.92177797210963],[34.42456953303738,49.14502063506923],[34.32372893262943,49.379781904415395],[34.24982893262943,49.5793819044154],[34.1756303534321,49.8149151062902],[34.17028809410075,49.84043403473764],[34.165666321983174,49.84690451570224],[34.11987426415539,49.91324950943692],[33.91987426415539,50.21324950943693],[33.79396532069407,50.42381506823986],[33.6893016971357,50.64570793090374],[33.60689136139008,50.876791147862114],[33.54752797004054,51.114839261412754],[33.51178322499709,51.35755973809183],[33.500001367694566,51.6026150470244],[33.51229586385941,51.847645171624606],[33.548548310772695,52.09029033784544],[33.59854831077269,52.34029033784544],[33.667501548067875,52.6074306083999],[33.76547112844936,52.86534616513364],[33.965471128449366,53.31534616513363],[34.13000423998727,53.62499735000793],[34.38000423998727,54.024997350007936],[34.3885354983663,54.03775489986005],[34.365723256384584,54.081893409398596],[34.275366098277175,54.30851585916723],[34.211340843645445,54.529696895777015],[33.66959069977246,54.601930248293414],[33.65338038866398,54.604145633314175],[33.569508334461645,54.6158877209025],[33.52511708253381,54.60716887855977],[33.28201893691382,54.57172344518825],[33.036615603325174,54.56030893624775],[32.791276817572545,54.57303557587474],[32.548371692154795,54.60978046935074],[32.31024583894453,54.6701887898344],[32.079198718801216,54.75367720474481],[31.85746143684132,54.85943950870898],[31.64717519778527,54.98645440867916],[31.450370629427052,55.13349538604298],[31.268948173889182,55.29914254049298],[31.104659736014902,55.481796301285364],[30.959091766109626,55.67969287348516],[30.944820181516025,55.703724442802695],[30.895061409049102,55.71747135790797],[30.65490357275004,55.79710307860472],[30.424024579509616,55.900601328625],[30.204789258108885,56.02690600441845],[29.999443174463543,56.174723402611264],[29.810089630921997,56.34253947104701],[29.63866812272926,56.52863531679833],[29.486934472321035,56.731104812305105],[29.35644284492693,56.94787411930452],[29.24852982969183,57.17672293057485],[29.164300749368127,57.41530721191961],[29.13743801663726,57.52597467990622],[29.063556547716598,57.562460918884604],[28.8552879295394,57.69213396650862]]]}},{"type":"Feature","properties":{"side":"soviet_pocket","name":"Southern and eastern Crimea","note":"The 11th Army broke through at Ishun on 28 October 1941; the Coastal Army and the 51st Army fell back to Sevastopol and to Kerch (Simferopol fell on 1 November, Feodosia on 3 November, Kerch on 16 November)"},"geometry":{"type":"Polygon","coordinates":[[[33.3,45.05],[34.0,44.98],[34.7,45.08],[35.2,45.2],[35.6,45.4],[36.1,45.55],[36.7,45.5],[36.7,45.1],[36.2,44.95],[35.4,44.95],[34.3,44.55],[33.5,44.4],[33.3,44.6],[33.3,45.05]]]}},{"type":"Feature","properties":{"side":"soviet_pocket","name":"Oranienbaum bridgehead","note":"Coastal bridgehead west of Leningrad, held throughout the siege"},"geometry":{"type":"Polygon","coordinates":[[[29.2,59.95],[29.95,59.92],[29.95,59.8],[29.5,59.7],[29.15,59.78],[29.2,59.95]]]}}]}