{"type":"FeatureCollection","source":{"archive":"CAMO, Bestand 500, Findbuch 12457, Akte 3","map_date":"1941-06-22","url":"https://wwii.germandocsinrussia.org/de/nodes/15900-akte-3-unterlagen-der-operationsabteilung-iiib-des-generalstabs-des-heeres-im-okh-karte-lage-ost-lagekarte-der-truppen-der-wehrmacht-im-rahmen-des-angriffes-auf-die-sowjetunion-einschlie-lich-der-lage-der-verb-nde-der-roten-armee-stand-23-6-1941","residuals_km":{"1024543":{"Riga":3.3,"Wilna":0.5,"Minsk":2.9,"Borissow":8.1,"Disna":4.1,"Kauen":4.2,"Dünaburg":3.3,"Königsberg":3.5,"Brest":6.0,"Bobruisk":8.2,"Bialystok":2.3,"Krakau":1.3,"Winniza":2.3,"Luzk":5.8}}},"features":[{"type":"Feature","properties":{"side":"front"},"geometry":{"type":"LineString","coordinates":[[21.0,56.05],[21.3,56.05],[21.9,55.75],[22.4,55.5],[22.75,55.35],[23.2,55.15],[23.6,54.95],[23.75,54.7],[23.9,54.45],[24.15,54.35],[24.55,54.2],[24.2,54.0],[23.85,53.72],[23.45,53.75],[23.0,53.8],[22.6,53.55],[22.3,53.3],[22.15,53.05],[22.3,52.8],[22.65,52.6],[23.15,52.45],[23.85,52.55],[24.45,52.5],[24.5,52.2],[24.15,51.9],[23.8,51.6],[24.15,51.1],[24.3,50.8],[24.35,50.45],[24.6,50.3],[24.0,50.2],[23.6,50.15],[23.35,49.95],[22.9,49.8],[22.65,49.5],[22.75,49.15],[23.2,48.9],[23.2,48.9],[23.9,48.3],[24.6,47.95],[25.3,47.85],[26.2,47.95],[26.65,48.2],[27.25,47.7],[27.8,47.3],[28.1,46.8],[28.2,46.2],[28.2,45.5],[28.7,45.3],[29.7,45.2],[30.0,45.0]]}},{"type":"Feature","properties":{"side":"soviet"},"geometry":{"type":"Polygon","coordinates":[[[21.0,56.05],[21.0,60.0],[32.6,60.0],[33.0,60.6],[60.0,60.6],[60.0,40.0],[30.0,40.0],[30.0,45.0],[29.7,45.2],[28.7,45.3],[28.2,45.5],[28.2,46.2],[28.1,46.8],[27.8,47.3],[27.25,47.7],[26.65,48.2],[26.2,47.95],[25.3,47.85],[24.6,47.95],[23.9,48.3],[23.2,48.9],[22.75,49.15],[22.65,49.5],[22.9,49.8],[23.35,49.95],[23.6,50.15],[24.0,50.2],[24.6,50.3],[24.35,50.45],[24.3,50.8],[24.15,51.1],[23.8,51.6],[24.15,51.9],[24.5,52.2],[24.45,52.5],[23.85,52.55],[23.15,52.45],[22.65,52.6],[22.3,52.8],[22.15,53.05],[22.3,53.3],[22.6,53.55],[23.0,53.8],[23.45,53.75],[23.85,53.72],[24.2,54.0],[24.55,54.2],[24.15,54.35],[23.9,54.45],[23.75,54.7],[23.6,54.95],[23.2,55.15],[22.75,55.35],[22.4,55.5],[21.9,55.75],[21.3,56.05],[21.0,56.05]]]}},{"type":"Feature","properties":{"side":"axis"},"geometry":{"type":"Polygon","coordinates":[[[20.274288306863845,58.44235083933052],[20.51227419495968,58.501963201008074],[20.7549571491761,58.53796181668049],[21.0,58.55],[21.0,56.05],[21.3,56.05],[21.9,55.75],[22.4,55.5],[22.75,55.35],[23.2,55.15],[23.6,54.95],[23.75,54.7],[23.9,54.45],[24.15,54.35],[24.55,54.2],[24.2,54.0],[23.85,53.72],[23.45,53.75],[23.0,53.8],[22.6,53.55],[22.3,53.3],[22.15,53.05],[22.3,52.8],[22.65,52.6],[23.15,52.45],[23.85,52.55],[24.45,52.5],[24.5,52.2],[24.15,51.9],[23.8,51.6],[24.15,51.1],[24.3,50.8],[24.35,50.45],[24.6,50.3],[24.0,50.2],[23.6,50.15],[23.35,49.95],[22.9,49.8],[22.65,49.5],[22.75,49.15],[23.2,48.9],[23.9,48.3],[24.6,47.95],[25.3,47.85],[26.2,47.95],[26.65,48.2],[27.25,47.7],[27.8,47.3],[28.1,46.8],[28.2,46.2],[28.2,45.5],[28.7,45.3],[29.7,45.2],[30.0,45.0],[30.0,42.50012709486618],[29.757559738091825,42.51178322499709],[29.51483926141275,42.54752797004054],[29.276791147862106,42.60689136139008],[29.045707930903728,42.6893016971357],[28.8744378067888,42.77008731404089],[28.451240702447517,42.81240702447502],[28.21979987076498,42.846551847728854],[27.99256411147134,42.90218131135366],[27.771523309114727,42.97880827278685],[27.271523309114727,43.17880827278685],[27.04622355534979,43.282163235093634],[26.83226629671165,43.4073212102931],[26.63175489488246,43.55305180082395],[26.44666052860196,43.71792236475577],[26.27880281548956,43.90031209974284],[26.129831923826814,44.09842797673705],[26.001212350155104,44.31032236681967],[25.89420852216694,44.533912187866726],[25.809872368425385,44.76699938282187],[25.749032977110602,45.00729252825974],[25.712288445455997,45.2524293608114],[25.705970082057185,45.37972302630152],[25.57607881518712,45.36529066331595],[25.36617342686103,45.350875937937964],[25.155799339496618,45.35416223093119],[24.94644660940672,45.375126265847086],[24.24644660940672,45.47512626584709],[23.983555952341565,45.52719238565947],[23.727749211701383,45.60710039431639],[23.481966011250126,45.7139320225002],[22.781966011250123,46.0639320225002],[22.51713273420103,46.217290676742984],[22.273021566360075,46.40185849408676],[21.764935640956974,46.83736071586085],[21.535892672053418,46.96460680969616],[21.327532939677493,47.09413340357467],[21.132872342692064,47.243459116627776],[20.953785569058414,47.411145860609004],[20.791997322305416,47.595578720506936],[20.64906571169176,47.7949815070595],[20.52636724676202,48.007433862427526],[20.42508358080727,48.230889754290565],[20.346190130897945,48.46319718025655],[20.246190130897944,48.81319718025655],[20.190837711044658,49.049976848840046],[20.158750344299015,49.29101398857883],[20.150231595128787,49.53402825307929],[20.165362055674127,49.776720591239794],[20.20399858330077,50.01679499756225],[20.26577565480955,50.25198023365058],[20.350108824490665,50.480051315398484],[20.456200253307554,50.69885056258575],[20.58304625690121,50.90630801174206],[20.617992003926517,50.95265224648531],[20.462130733297105,51.10523259456969],[20.298747499048595,51.301671455442516],[20.15626768571865,51.51376061143117],[20.006267685718647,51.76376061143117],[20.0,51.77547488531412],[20.0,58.339223514951584],[20.043291419087275,58.359698831278216],[20.274288306863845,58.44235083933052]]]}}]}