{"type":"FeatureCollection","source":{"archive":"CAMO, Bestand 500, Findbuch 12457, Akte 41","map_date":"1941-07-31","url":"https://wwii.germandocsinrussia.org/de/nodes/15938-akte-41-unterlagen-der-operationsabteilung-iiib-des-generalstabs-des-heeres-im-okh-karte-lage-ost-lagekarte-der-truppen-der-wehrmacht-im-rahmen-des-angriffes-auf-die-sowjetunion-einschlie-lich-der-lage-der-verb-nde-der-roten-armee-stand-31-7-1941","residuals_km":{"1024599":{"Riga":5.0,"Wilna":1.0,"Minsk":0.9,"Borissow":10.6,"Wilejka":13.8,"Disna":4.1,"Orscha":4.9,"Kauen":3.6,"Dünaburg":3.3,"Pleskau":6.0,"Smolensk":1.9,"Leningrad":2.1,"Königsberg":5.3,"Brest":5.9,"Gomel":4.4,"Bobruisk":4.9,"Bialystok":3.0,"Kiew":10.1,"Welikije Luki":14.2,"Novgorod":12.4,"Moskau":6.8,"Kalinin":6.0,"Wologda":7.2,"Jaroslawl":6.5,"Kursk":13.4,"Charkow":8.3,"Woronesch":5.4},"1024600":{"Kiew":3.7,"Lemberg":3.4,"Botosani":5.1,"Shitomir":8.1,"Kischinew":3.1,"Krakau":0.1,"Czernowitz":8.0,"Galatz":3.1,"Bukarest":1.5,"Winniza":1.7,"Luzk":4.2}}},"features":[{"type":"Feature","properties":{"side":"front"},"geometry":{"type":"LineString","coordinates":[[23.9,58.45],[24.6,58.6],[25.3,58.75],[26.0,58.7],[26.6,58.6],[26.95,58.8],[27.4,58.6],[27.75,58.75],[28.2,58.95],[28.9,59.25],[29.2,59.3],[29.3,59.0],[29.7,58.6],[30.3,58.5],[30.8,58.15],[31.0,57.95],[30.85,57.6],[30.6,57.3],[30.4,56.9],[30.1,56.5],[30.3,56.2],[30.75,55.75],[31.2,55.6],[31.8,55.6],[32.5,55.5],[32.7,55.1],[32.9,54.9],[33.6,54.7],[33.5,54.4],[33.1,54.3],[32.6,54.1],[32.3,53.8],[31.7,53.7],[31.0,53.45],[30.2,53.3],[29.9,53.0],[29.6,52.6],[29.0,52.3],[28.4,51.8],[28.0,51.2],[28.3,50.8],[29.1,50.4],[30.1,50.4],[30.3,50.2],[30.6,49.9],[31.2,49.5],[30.97,49.08],[30.8,48.66],[30.85,48.1],[30.0,48.2],[29.3,48.0],[29.0,47.8],[29.5,47.2],[29.8,46.8],[30.2,46.25],[30.5,46.0]]}},{"type":"Feature","properties":{"side":"soviet"},"geometry":{"type":"Polygon","coordinates":[[[23.9,58.45],[23.9,90.0],[180.0,90.0],[180.0,0.0],[30.5,0.0],[30.5,46.0],[30.2,46.25],[29.8,46.8],[29.5,47.2],[29.0,47.8],[29.3,48.0],[30.0,48.2],[30.85,48.1],[30.8,48.66],[30.97,49.08],[31.2,49.5],[30.6,49.9],[30.3,50.2],[30.1,50.4],[29.1,50.4],[28.3,50.8],[28.0,51.2],[28.4,51.8],[29.0,52.3],[29.6,52.6],[29.9,53.0],[30.2,53.3],[31.0,53.45],[31.7,53.7],[32.3,53.8],[32.6,54.1],[33.1,54.3],[33.5,54.4],[33.6,54.7],[32.9,54.9],[32.7,55.1],[32.5,55.5],[31.8,55.6],[31.2,55.6],[30.75,55.75],[30.3,56.2],[30.1,56.5],[30.4,56.9],[30.6,57.3],[30.85,57.6],[31.0,57.95],[30.8,58.15],[30.3,58.5],[29.7,58.6],[29.3,59.0],[29.2,59.3],[28.9,59.25],[28.2,58.95],[27.75,58.75],[27.4,58.6],[26.95,58.8],[26.6,58.6],[26.0,58.7],[25.3,58.75],[24.6,58.6],[23.9,58.45]]]}},{"type":"Feature","properties":{"side":"axis"},"geometry":{"type":"Polygon","coordinates":[[[-30.0,0.0],[-30.0,90.0],[23.9,90.0],[23.9,58.45],[24.6,58.6],[25.3,58.75],[26.0,58.7],[26.6,58.6],[26.95,58.8],[27.4,58.6],[27.75,58.75],[28.2,58.95],[28.9,59.25],[29.2,59.3],[29.3,59.0],[29.7,58.6],[30.3,58.5],[30.8,58.15],[31.0,57.95],[30.85,57.6],[30.6,57.3],[30.4,56.9],[30.1,56.5],[30.3,56.2],[30.75,55.75],[31.2,55.6],[31.8,55.6],[32.5,55.5],[32.7,55.1],[32.9,54.9],[33.6,54.7],[33.5,54.4],[33.1,54.3],[32.6,54.1],[32.3,53.8],[31.7,53.7],[31.0,53.45],[30.2,53.3],[29.9,53.0],[29.6,52.6],[29.0,52.3],[28.4,51.8],[28.0,51.2],[28.3,50.8],[29.1,50.4],[30.1,50.4],[30.3,50.2],[30.6,49.9],[31.2,49.5],[30.97,49.08],[30.8,48.66],[30.85,48.1],[30.0,48.2],[29.3,48.0],[29.0,47.8],[29.5,47.2],[29.8,46.8],[30.2,46.25],[30.5,46.0],[30.5,0.0],[-30.0,0.0]]]}},{"type":"Feature","properties":{"side":"soviet_pocket","name":"Smolensk pocket","note":"16th and 20th Armies cut off north of the Dnieper between Smolensk and Yartsevo (closed 27 July 1941; broke out across the Solovyovo crossing by 4 August)"},"geometry":{"type":"Polygon","coordinates":[[[32.15,54.82],[32.2,55.1],[32.5,55.2],[32.75,55.1],[32.8,54.9],[32.4,54.8],[32.15,54.82]]]}}]}