{"type":"FeatureCollection","source":{"archive":"CAMO, Bestand 500, Findbuch 12457, Akte 102","map_date":"1941-09-30","url":"https://wwii.germandocsinrussia.org/de/nodes/15999-akte-102-unterlagen-der-operationsabteilung-iiib-des-generalstabs-des-heeres-im-okh-karte-lage-ost-lagekarte-der-truppen-der-wehrmacht-im-rahmen-des-angriffes-auf-die-sowjetunion-einschlie-lich-der-lage-der-verb-nde-der-roten-armee-stand-30-9-1941","residuals_km":{"1024739":{"Riga":5.0,"Wilna":1.2,"Minsk":0.7,"Borissow":10.8,"Wilejka":13.6,"Disna":4.3,"Orscha":4.8,"Kauen":3.8,"Dünaburg":3.1,"Pleskau":6.0,"Smolensk":2.1,"Leningrad":2.8,"Königsberg":5.6,"Brest":5.4,"Gomel":4.2,"Bobruisk":4.8,"Bialystok":3.1,"Kiew":10.0,"Welikije Luki":14.4,"Novgorod":11.9,"Moskau":6.4,"Kalinin":6.3,"Wologda":6.1,"Jaroslawl":6.9,"Kursk":13.3,"Charkow":7.4,"Woronesch":5.7},"1024740":{"Kiew":3.8,"Lemberg":3.3,"Botosani":5.1,"Shitomir":8.2,"Kischinew":3.1,"Krakau":0.2,"Czernowitz":8.0,"Galatz":3.1,"Bukarest":1.5,"Winniza":1.6,"Luzk":4.2}}},"features":[{"type":"Feature","properties":{"side":"front"},"geometry":{"type":"LineString","coordinates":[[30.28,59.75],[30.63,59.71],[30.92,59.83],[31.1,59.91],[31.31,59.9],[31.85,59.5],[32.0,59.35],[31.75,59.1],[31.65,58.85],[31.6,58.55],[31.5,58.35],[31.55,58.1],[31.85,58.05],[32.15,57.95],[32.6,57.75],[33.0,57.35],[33.1,57.0],[32.6,56.75],[32.3,56.5],[32.3,56.2],[31.95,55.9],[32.3,55.5],[32.8,55.1],[33.05,54.85],[33.4,54.45],[33.2,54.1],[33.5,53.6],[33.8,53.2],[33.5,52.6],[33.4,52.1],[33.9,51.7],[34.4,51.3],[34.6,50.8],[34.9,50.35],[35.3,49.8],[35.5,49.35],[35.4,48.85],[35.4,48.55],[35.15,47.85],[34.8,47.4],[35.0,47.0],[35.15,46.75],[35.25,46.4],[34.9,46.15],[34.5,46.05],[33.75,46.08],[33.4,46.0],[32.5,45.5]]}},{"type":"Feature","properties":{"side":"soviet"},"geometry":{"type":"Polygon","coordinates":[[[30.28,59.75],[27.0,59.95],[27.0,90.0],[180.0,90.0],[180.0,0.0],[32.5,0.0],[32.5,45.5],[33.4,46.0],[33.75,46.08],[34.5,46.05],[34.9,46.15],[35.25,46.4],[35.15,46.75],[35.0,47.0],[34.8,47.4],[35.15,47.85],[35.4,48.55],[35.4,48.85],[35.5,49.35],[35.3,49.8],[34.9,50.35],[34.6,50.8],[34.4,51.3],[33.9,51.7],[33.4,52.1],[33.5,52.6],[33.8,53.2],[33.5,53.6],[33.2,54.1],[33.4,54.45],[33.05,54.85],[32.8,55.1],[32.3,55.5],[31.95,55.9],[32.3,56.2],[32.3,56.5],[32.6,56.75],[33.1,57.0],[33.0,57.35],[32.6,57.75],[32.15,57.95],[31.85,58.05],[31.55,58.1],[31.5,58.35],[31.6,58.55],[31.65,58.85],[31.75,59.1],[32.0,59.35],[31.85,59.5],[31.31,59.9],[31.1,59.91],[30.92,59.83],[30.63,59.71],[30.28,59.75]]]}},{"type":"Feature","properties":{"side":"axis"},"geometry":{"type":"Polygon","coordinates":[[[-30.0,0.0],[-30.0,90.0],[27.0,90.0],[27.0,59.95],[30.28,59.75],[30.63,59.71],[30.92,59.83],[31.1,59.91],[31.31,59.9],[31.85,59.5],[32.0,59.35],[31.75,59.1],[31.65,58.85],[31.6,58.55],[31.5,58.35],[31.55,58.1],[31.85,58.05],[32.15,57.95],[32.6,57.75],[33.0,57.35],[33.1,57.0],[32.6,56.75],[32.3,56.5],[32.3,56.2],[31.95,55.9],[32.3,55.5],[32.8,55.1],[33.05,54.85],[33.4,54.45],[33.2,54.1],[33.5,53.6],[33.8,53.2],[33.5,52.6],[33.4,52.1],[33.9,51.7],[34.4,51.3],[34.6,50.8],[34.9,50.35],[35.3,49.8],[35.5,49.35],[35.4,48.85],[35.4,48.55],[35.15,47.85],[34.8,47.4],[35.0,47.0],[35.15,46.75],[35.25,46.4],[34.9,46.15],[34.5,46.05],[33.75,46.08],[33.4,46.0],[32.5,45.5],[32.5,0.0],[-30.0,0.0]]]}},{"type":"Feature","properties":{"side":"soviet_pocket","name":"Oranienbaum bridgehead","note":"Coastal bridgehead west of Leningrad, held throughout the siege"},"geometry":{"type":"Polygon","coordinates":[[[29.2,59.95],[29.95,59.92],[29.95,59.8],[29.5,59.7],[29.15,59.78],[29.2,59.95]]]}},{"type":"Feature","properties":{"side":"soviet_pocket","name":"Moonsund islands","note":"Saaremaa, Muhu and Hiiumaa held by the Red Army until 5 and 21 October 1941 (Operation Beowulf)"},"geometry":{"type":"Polygon","coordinates":[[[21.75,58.0],[22.0,58.55],[22.3,59.05],[23.0,59.1],[23.2,58.65],[23.4,58.55],[23.15,58.3],[22.6,58.2],[22.15,57.85],[21.75,58.0]]]}},{"type":"Feature","properties":{"side":"soviet_pocket","name":"Odessa","note":"Separate Coastal Army besieged by the Romanian 4th Army from 8 August 1941; evacuated by sea, the city fell on 16 October"},"geometry":{"type":"Polygon","coordinates":[[[30.35,46.45],[30.45,46.68],[30.75,46.75],[30.95,46.6],[30.85,46.38],[30.55,46.3],[30.35,46.45]]]}}]}