{"type":"FeatureCollection","source":{"archive":"CAMO, Bestand 500, Findbuch 12457, Akte 10","map_date":"1941-06-30","url":"https://wwii.germandocsinrussia.org/de/nodes/15907-akte-10-unterlagen-der-operationsabteilung-iiib-des-generalstabs-des-heeres-im-okh-karte-lage-ost-lagekarte-der-truppen-der-wehrmacht-im-rahmen-des-angriffes-auf-die-sowjetunion-einschlie-lich-der-lage-der-verb-nde-der-roten-armee-stand-30-6-1941","residuals_km":{"1024489":{"Riga":5.1,"Wilna":1.1,"Minsk":0.9,"Borissow":10.6,"Wilejka":13.7,"Disna":4.2,"Orscha":4.9,"Kauen":3.7,"Dünaburg":3.3,"Pleskau":6.0,"Smolensk":2.0,"Leningrad":2.3,"Königsberg":5.3,"Brest":5.7,"Gomel":4.3,"Bobruisk":4.9,"Bialystok":3.1,"Kiew":9.9,"Welikije Luki":14.2,"Novgorod":12.3,"Moskau":6.6,"Kalinin":6.2,"Wologda":6.8,"Jaroslawl":6.6,"Kursk":13.3,"Charkow":8.0,"Woronesch":5.6},"1024490":{"Kiew":3.8,"Lemberg":3.4,"Botosani":5.1,"Shitomir":8.2,"Kischinew":3.2,"Krakau":0.2,"Czernowitz":8.0,"Galatz":3.1,"Bukarest":1.5,"Winniza":1.7,"Luzk":4.2}}},"features":[{"type":"Feature","properties":{"side":"front"},"geometry":{"type":"LineString","coordinates":[[23.5,57.6],[24.1,56.95],[24.6,56.85],[25.3,56.6],[25.86,56.5],[26.3,56.2],[26.53,55.9],[27.0,55.6],[27.5,55.2],[27.8,54.9],[28.2,54.5],[28.3,54.1],[28.0,53.8],[28.6,53.5],[29.25,53.15],[28.7,52.85],[28.0,52.6],[27.0,52.35],[26.2,52.1],[25.9,51.7],[26.1,51.2],[26.5,50.7],[26.6,50.3],[26.0,50.1],[25.3,49.95],[24.6,49.75],[24.0,49.4],[23.5,49.2],[23.2,48.9],[23.9,48.3],[24.6,47.95],[25.3,47.85],[26.2,47.95],[26.65,48.2],[27.25,47.7],[27.8,47.3],[28.1,46.8],[28.2,46.2],[28.2,45.5],[28.7,45.3],[29.7,45.2],[30.0,45.0]]}},{"type":"Feature","properties":{"side":"soviet"},"geometry":{"type":"Polygon","coordinates":[[[23.5,57.6],[23.5,60.0],[32.6,60.0],[33.0,60.6],[60.0,60.6],[60.0,40.0],[30.0,40.0],[30.0,45.0],[29.7,45.2],[28.7,45.3],[28.2,45.5],[28.2,46.2],[28.1,46.8],[27.8,47.3],[27.25,47.7],[26.65,48.2],[26.2,47.95],[25.3,47.85],[24.6,47.95],[23.9,48.3],[23.2,48.9],[23.5,49.2],[24.0,49.4],[24.6,49.75],[25.3,49.95],[26.0,50.1],[26.6,50.3],[26.5,50.7],[26.1,51.2],[25.9,51.7],[26.2,52.1],[27.0,52.35],[28.0,52.6],[28.7,52.85],[29.25,53.15],[28.6,53.5],[28.0,53.8],[28.3,54.1],[28.2,54.5],[27.8,54.9],[27.5,55.2],[27.0,55.6],[26.53,55.9],[26.3,56.2],[25.86,56.5],[25.3,56.6],[24.6,56.85],[24.1,56.95],[23.5,57.6]]]}},{"type":"Feature","properties":{"side":"axis"},"geometry":{"type":"Polygon","coordinates":[[[23.46807420695916,52.27942811214395],[23.54004378248995,52.524988879583034],[23.636738037934432,52.761906441767415],[23.75714393139903,52.98769867176293],[23.900000000000002,53.20000000000001],[24.200000000000003,53.60000000000001],[24.366641427960765,53.79964594734617],[24.553120637491908,53.98090094511778],[24.756640405941386,54.14118986283929],[24.72997117012598,54.16789043275268],[24.657621404496414,54.18393921019383],[24.45915900750461,54.24564522101291],[23.930893057660544,54.434311631671505],[23.609709662154536,54.498548310772705],[23.35628319982819,54.56318510957758],[23.110996317768063,54.6539443132773],[22.876533548936578,54.76983261121485],[22.65546096220015,54.909581668315965],[22.45019807808592,55.071662006334165],[22.262991388431285,55.25429974316734],[21.662991388431283,55.904299743167336],[21.505629396970676,56.09252333425275],[21.36747428465111,56.29526474969988],[21.249856560727494,56.51057147884825],[21.153908948177598,56.73637000019751],[21.080555474960576,56.97048575055305],[21.030502575122597,57.210664067258264],[21.0042322854508,57.454591901828444],[21.001997603195527,57.69992009587217],[21.023820049568492,57.944286004770774],[21.06948946248177,58.18533625123755],[21.13856602052355,58.420749389627574],[21.230384478678822,58.64825826272823],[21.34406057500246,58.865671835722544],[21.4784995465452,59.07089629705226],[21.632406672519263,59.26195522296764],[21.80429974316733,59.437008611568714],[21.99252333425275,59.594370603029326],[22.195264749699884,59.73252571534889],[22.410571478848247,59.85014343927251],[22.63637000019751,59.94609105182241],[22.808426390985385,60.0],[23.5,60.0],[23.5,57.6],[24.1,56.95],[24.6,56.85],[25.3,56.6],[25.86,56.5],[26.3,56.2],[26.53,55.9],[27.0,55.6],[27.5,55.2],[27.8,54.9],[28.2,54.5],[28.3,54.1],[28.0,53.8],[28.6,53.5],[29.25,53.15],[28.7,52.85],[28.0,52.6],[27.0,52.35],[26.2,52.1],[25.9,51.7],[26.1,51.2],[26.5,50.7],[26.6,50.3],[26.0,50.1],[25.3,49.95],[24.6,49.75],[24.0,49.4],[23.5,49.2],[23.2,48.9],[23.9,48.3],[24.6,47.95],[25.3,47.85],[26.2,47.95],[26.65,48.2],[27.25,47.7],[27.8,47.3],[28.1,46.8],[28.2,46.2],[28.2,45.5],[28.7,45.3],[29.7,45.2],[30.0,45.0],[30.0,42.50012709486618],[29.757559738091825,42.51178322499709],[29.51483926141275,42.54752797004054],[29.276791147862106,42.60689136139008],[29.045707930903728,42.6893016971357],[28.8744378067888,42.77008731404089],[28.451240702447517,42.81240702447502],[28.21979987076498,42.846551847728854],[27.99256411147134,42.90218131135366],[27.771523309114727,42.97880827278685],[27.271523309114727,43.17880827278685],[27.04622355534979,43.282163235093634],[26.83226629671165,43.4073212102931],[26.63175489488246,43.55305180082395],[26.44666052860196,43.71792236475577],[26.27880281548956,43.90031209974284],[26.129831923826814,44.09842797673705],[26.001212350155104,44.31032236681967],[25.89420852216694,44.533912187866726],[25.809872368425385,44.76699938282187],[25.749032977110602,45.00729252825974],[25.712288445455997,45.2524293608114],[25.705970082057185,45.37972302630152],[25.57607881518712,45.36529066331595],[25.36617342686103,45.350875937937964],[25.155799339496618,45.35416223093119],[24.94644660940672,45.375126265847086],[24.24644660940672,45.47512626584709],[23.983555952341565,45.52719238565947],[23.727749211701383,45.60710039431639],[23.481966011250126,45.7139320225002],[22.781966011250123,46.0639320225002],[22.51713273420103,46.217290676742984],[22.273021566360075,46.40185849408676],[21.573021566360076,47.00185849408676],[21.396984405514612,47.16819898197209],[21.237869120077153,47.35079297379169],[21.097169057661503,47.54792676679708],[20.976204733150276,47.7577501975764],[20.876111435242272,47.97829400642706],[20.797828571406605,48.20748831948511],[20.742090851244484,48.443182075150354],[20.70942139100571,48.68316321248445],[20.700126803976097,48.92517943210704],[20.71429432281418,49.16695933474254],[20.75179098084493,49.406233739025545],[20.81226485999435,49.64075697849038],[20.89514839365262,49.86832797786592],[20.99966369346745,50.08681091086773],[21.124829850073944,50.29415524560784],[21.269472139241273,50.488414989489314],[21.43223304703362,50.66776695296636],[21.73223304703362,50.96776695296636],[21.919914828510215,51.137351504203124],[22.123772478134484,51.28710273059567],[22.341719035962296,51.41548757801706],[22.57152330911476,51.52119172721316],[22.899944940537505,51.65256037978225],[23.340322436189783,51.90944725224608],[23.415248194789374,51.94907029867111],[23.42158331885514,52.02779681911652],[23.46807420695916,52.27942811214395]]]}},{"type":"Feature","properties":{"side":"soviet_pocket","name":"Bialystok–Minsk pocket","note":"3rd, 10th and 13th Armies encircled between Bialystok and Minsk (closed 28 June; the remnants surrendered by 9 July); the map marks them \"Feindreste\" and \"Versprengte\""},"geometry":{"type":"Polygon","coordinates":[[[23.9,53.25],[24.4,53.75],[25.2,53.95],[26.6,53.95],[27.3,53.65],[26.8,53.1],[25.6,53.0],[24.4,52.95],[23.9,53.25]]]}}]}