{"type":"FeatureCollection","source":{"archive":"CAMO, Bestand 500, Findbuch 12457, Akte 72","map_date":"1941-08-31","url":"https://wwii.germandocsinrussia.org/de/nodes/15969-akte-72-unterlagen-der-operationsabteilung-iiib-des-generalstabs-des-heeres-im-okh-karte-lage-ost-lagekarte-der-truppen-der-wehrmacht-im-rahmen-des-angriffes-auf-die-sowjetunion-einschlie-lich-der-lage-der-verb-nde-der-roten-armee-stand-31-8-1941","residuals_km":{"1024690":{"Riga":5.1,"Wilna":1.1,"Minsk":0.9,"Borissow":10.6,"Wilejka":13.7,"Disna":4.2,"Orscha":4.9,"Kauen":3.7,"Dünaburg":3.3,"Pleskau":6.0,"Smolensk":1.9,"Leningrad":2.3,"Königsberg":5.3,"Brest":5.7,"Gomel":4.3,"Bobruisk":4.8,"Bialystok":3.1,"Kiew":9.9,"Welikije Luki":14.2,"Novgorod":12.3,"Moskau":6.6,"Kalinin":6.1,"Wologda":6.8,"Jaroslawl":6.6,"Kursk":13.3,"Charkow":8.0,"Woronesch":5.6},"1024691":{"Kiew":3.8,"Lemberg":3.4,"Botosani":5.2,"Shitomir":8.2,"Kischinew":3.2,"Krakau":0.1,"Czernowitz":8.0,"Galatz":3.1,"Bukarest":1.5,"Winniza":1.7,"Luzk":4.2}}},"features":[{"type":"Feature","properties":{"side":"front"},"geometry":{"type":"LineString","coordinates":[[28.95,59.75],[29.05,59.62],[29.4,59.55],[29.9,59.5],[30.4,59.58],[30.88,59.6],[31.0,59.78],[31.25,59.72],[31.75,59.5],[32.0,59.35],[31.75,59.1],[31.65,58.85],[31.6,58.55],[31.5,58.35],[31.55,58.1],[31.6,57.9],[31.8,57.6],[31.85,57.3],[31.69,57.1],[31.4,56.9],[31.75,56.55],[32.0,56.2],[31.9,55.9],[32.2,55.5],[32.75,55.1],[32.95,54.9],[33.6,54.7],[33.5,54.4],[33.2,54.3],[33.35,53.9],[33.55,53.5],[33.6,52.95],[33.4,52.4],[33.3,52.0],[32.5,51.8],[31.6,51.6],[31.0,51.3],[30.6,51.0],[30.3,50.65],[30.2,50.45],[30.4,50.2],[30.8,50.0],[31.45,49.75],[32.05,49.45],[32.9,49.2],[33.4,49.15],[33.7,49.05],[34.2,48.75],[35.05,48.55],[35.15,48.4],[35.1,47.85],[34.4,47.6],[33.9,47.25],[33.4,46.8],[32.6,46.6],[32.0,46.55],[31.8,46.3],[31.5,45.8]]}},{"type":"Feature","properties":{"side":"soviet"},"geometry":{"type":"Polygon","coordinates":[[[28.95,59.75],[28.95,60.0],[32.6,60.0],[33.0,60.6],[60.0,60.6],[60.0,40.0],[31.5,40.0],[31.5,45.8],[31.8,46.3],[32.0,46.55],[32.6,46.6],[33.4,46.8],[33.9,47.25],[34.4,47.6],[35.1,47.85],[35.15,48.4],[35.05,48.55],[34.2,48.75],[33.7,49.05],[33.4,49.15],[32.9,49.2],[32.05,49.45],[31.45,49.75],[30.8,50.0],[30.4,50.2],[30.2,50.45],[30.3,50.65],[30.6,51.0],[31.0,51.3],[31.6,51.6],[32.5,51.8],[33.3,52.0],[33.4,52.4],[33.6,52.95],[33.55,53.5],[33.35,53.9],[33.2,54.3],[33.5,54.4],[33.6,54.7],[32.95,54.9],[32.75,55.1],[32.2,55.5],[31.9,55.9],[32.0,56.2],[31.75,56.55],[31.4,56.9],[31.69,57.1],[31.85,57.3],[31.8,57.6],[31.6,57.9],[31.55,58.1],[31.5,58.35],[31.6,58.55],[31.65,58.85],[31.75,59.1],[32.0,59.35],[31.75,59.5],[31.25,59.72],[31.0,59.78],[30.88,59.6],[30.4,59.58],[29.9,59.5],[29.4,59.55],[29.05,59.62],[28.95,59.75]]]}},{"type":"Feature","properties":{"side":"axis"},"geometry":{"type":"Polygon","coordinates":[[[28.311378931862137,57.231603274641564],[28.070805977656573,57.31974369545328],[27.84051754998104,57.43204382971319],[27.62293238035345,57.56732418318032],[27.420335777301545,57.72416389915777],[27.234855623646745,57.900915681825595],[27.068440027238495,58.09572309787577],[26.968440027238493,58.22572309787577],[26.828576517106157,58.427289749708365],[26.70914347480213,58.64159482431823],[26.611291105812537,58.866574446685824],[26.535961781942298,59.100061940061366],[26.483880965759482,59.33980869224639],[26.455550223994194,59.58350581095847],[26.451242397176802,59.828806359726],[26.465073172648513,60.0],[28.95,60.0],[28.95,59.75],[29.05,59.62],[29.4,59.55],[29.9,59.5],[30.4,59.58],[30.88,59.6],[31.0,59.78],[31.25,59.72],[31.75,59.5],[32.0,59.35],[31.75,59.1],[31.65,58.85],[31.6,58.55],[31.5,58.35],[31.55,58.1],[31.6,57.9],[31.8,57.6],[31.85,57.3],[31.69,57.1],[31.4,56.9],[31.75,56.55],[32.0,56.2],[31.9,55.9],[32.2,55.5],[32.75,55.1],[32.95,54.9],[33.6,54.7],[33.5,54.4],[33.2,54.3],[33.35,53.9],[33.55,53.5],[33.6,52.95],[33.4,52.4],[33.3,52.0],[32.5,51.8],[31.6,51.6],[31.0,51.3],[30.6,51.0],[30.3,50.65],[30.2,50.45],[30.4,50.2],[30.8,50.0],[31.45,49.75],[32.05,49.45],[32.9,49.2],[33.4,49.15],[33.7,49.05],[34.2,48.75],[35.05,48.55],[35.15,48.4],[35.1,47.85],[34.4,47.6],[33.9,47.25],[33.4,46.8],[32.6,46.6],[32.0,46.55],[31.8,46.3],[31.5,45.8],[31.5,43.303011097297095],[31.37618654975941,43.30306783641615],[31.132040595092583,43.32722708759171],[30.89143829064209,43.375200493668935],[30.65669676812638,43.44652604452237],[30.430076716730056,43.54051683610679],[30.21376061143118,43.65626768571864],[30.009831694574196,43.792663849400306],[29.820253913107322,43.948391757533805],[29.64685300469984,44.121951665234285],[29.491298914890287,44.311672095713085],[29.355089714598055,44.51572593751296],[29.239537172881477,44.732148040590204],[29.145754123884725,44.958854141783824],[29.07464374963667,45.19366093740917],[29.026890881914206,45.43430710966591],[29.002955406937872,45.67847510436463],[29.00306783641615,45.92381345024059],[29.027227087591708,46.167959404907414],[29.075200493668934,46.408561709357905],[29.14652604452237,46.64330323187362],[29.240516836106792,46.86992328326994],[29.35626768571864,47.08623938856881],[29.656267685718642,47.58623938856881],[29.756853916290055,47.73090052068151],[29.681966011250097,47.763932022500214],[29.281966011250095,47.96393202250022],[29.047239569048916,48.097611069175585],[28.828306137405875,48.25583478009611],[28.627721688478612,48.43675594811413],[28.44782797639242,48.63826238111395],[28.247827976392422,48.88826238111395],[28.108672448604644,49.08020108308748],[27.988323719613945,49.28445805275928],[27.887864056198712,49.49919645699959],[27.80819686761964,49.72248520569304],[27.750038581480492,49.95231631756116],[27.713912201069334,50.18662297744852],[27.700142602117474,50.423298122687484],[27.70885361127121,50.66021339139912],[27.739966892549,50.89523826233262],[27.793202651797824,51.126259214123536],[27.868082152813823,51.351198731676085],[27.963932022500224,51.56803398874993],[28.063932022500225,51.76803398874993],[28.217290676743,52.03286726579899],[28.401858494086756,52.27697843363992],[28.701858494086757,52.62697843363992],[28.89072304883176,52.824382718676375],[29.10000000000001,53.00000000000001],[29.500000000000007,53.300000000000004],[29.685672219702166,53.4266270208801],[29.881966011250096,53.53606797749978],[30.38192968576608,53.78604981475778],[30.35889533562197,53.8087479150625],[30.200000000000017,53.999999999999986],[29.900000000000013,54.399999999999984],[29.764746855585916,54.599733100755934],[29.649372653042192,54.81157152502993],[29.554951511880954,55.033543083373104],[29.48236248121232,55.26358124811556],[29.47297732408579,55.30780052578596],[29.468769793210136,55.31243901270459],[29.323597429375926,55.507680940047955],[29.1980908986771,55.71610967167081],[29.093438887028935,55.935751156531836],[29.01063256494309,56.164525146392094],[28.95045620004461,56.40026489807087],[28.913479729188484,56.64073769490451],[28.900053360526094,56.8836659930472],[28.909119997198772,57.09866624376385],[28.559709662154535,57.1685483107727],[28.311378931862137,57.231603274641564]]]}},{"type":"Feature","properties":{"side":"soviet_pocket","name":"Moonsund islands","note":"Saaremaa, Muhu and Hiiumaa held by the Red Army until 5 and 21 October 1941 (Operation Beowulf)"},"geometry":{"type":"Polygon","coordinates":[[[21.75,58.0],[22.0,58.55],[22.3,59.05],[23.0,59.1],[23.2,58.65],[23.4,58.55],[23.15,58.3],[22.6,58.2],[22.15,57.85],[21.75,58.0]]]}},{"type":"Feature","properties":{"side":"soviet_pocket","name":"Odessa","note":"Separate Coastal Army besieged by the Romanian 4th Army from 8 August 1941; evacuated by sea, the city fell on 16 October"},"geometry":{"type":"Polygon","coordinates":[[[30.35,46.45],[30.45,46.68],[30.75,46.75],[30.95,46.6],[30.85,46.38],[30.55,46.3],[30.35,46.45]]]}}]}