{"type":"FeatureCollection","source":{"map":"中國軍全般図（昭和十六年八月下旬における）, Senshi Sōsho vol. 55, appendix 2 (NIDS)","map_date":"1941-08 (late August)","url":"https://www.nids.mod.go.jp/military_history_search/SoshoAppendixView?no=055&f=055_294.jpg","original":"JACAR Ref. C11110508500 (支那派遣軍, 16 September 1941)","residuals_km":{"Baotou":19.9,"Guisui":10.4,"Zhangjiakou":9.8,"Datong":6.9,"Beijing":8.9,"Tianjin":1.9,"Taiyuan":8.1,"Shimen":5.9,"Wuzhai":26.0,"Nangong":13.3,"Jinan":4.7,"Jixian":19.8,"Yanan":10.2,"Luoyang":23.5,"Zhengzhou":9.2,"Kaifeng":16.0,"Xuzhou":10.4,"Yancheng":22.7,"Zhenping":4.1,"Laohekou":13.7,"Xinyang":8.0,"Nanzhang":4.9,"Lihuang":17.8,"Xingshan":31.1,"Yichang":10.8,"Hankou":17.1,"Wuchang":3.7,"Haizhou":3.3,"Nanjing":10.9,"Shanghai":3.4,"Hangzhou":2.7,"Ningbo":4.4,"Ningguo":4.0,"Shexian":6.1,"Jinhua":10.1,"Changde":14.4,"Pingjiang":11.3,"Xiushui":3.2,"Nanchang":2.5,"Changsha":14.3,"Yifeng":12.3,"Shanggao":7.9,"Hengyang":4.7,"Guilin":8.3,"Shaoguan":29.8,"Guangzhou":12.6,"Deqing":15.0,"Shangrao":8.6,"Nanping":5.5,"Fuzhou":9.8,"Shantou":6.1,"Xian":8.7,"Chengdu":16.6,"Chongqing":5.9,"Wanxian":10.6,"Qianjiang":34.1,"Hongkong":18.8},"changes":["Hainan: the map marks the north of the island; the Japanese held its coasts, with the naval base at Sanya (Yulin), from February 1939 (the interior a guerrilla area)","Western Yunnan west of the Salween, occupied from the Burma Road (Wanding 3 May, Longling 4 May, Tengchong 10 May 1942) and held until 1944; not on these maps, drawn along the Salween after the histories; approximate","Zhejiang-Jiangxi campaign, third phase: Wenzhou (11 July) and Lishui (24 July 1942) taken, the railway held from Hangzhou to Nanchang; after the operation maps of the 1942 Zhejiang-Jiangxi campaign in Senshi Sōsho vol. 55 (appendices 4–6: 13th Army phases 1–2, 15 May–15 June; phase 3, 16 June–14 August; 11th Army) and the dates of capture, drawn as a corridor about 30 km either side of the railway and roads the columns took; approximate"]},"features":[{"type":"Feature","properties":{"side":"front"},"geometry":{"type":"LineString","coordinates":[[109.2,43.0],[109.1963,41.5347],[109.2276,41.1257],[109.2631,41.0212],[109.2385,41.0212],[109.2752,41.0117],[109.3831,40.8312],[109.5158,40.7076],[109.4912,40.6982],[109.6618,40.6693],[109.8422,40.5263],[109.9763,40.5257],[110.0122,40.497],[110.402,40.4944],[110.7665,40.4719],[110.8375,40.4142],[111.1909,40.1252],[111.2869,40.1048],[111.4389,39.9793],[111.4727,39.9219],[111.4229,39.8847],[111.4727,39.9219],[111.5181,39.8548],[111.5178,39.5612],[111.7264,39.3966],[111.7192,39.2359],[111.8796,39.3464],[112.0839,39.1246],[112.1383,39.0194],[112.1319,38.651],[112.0713,38.624],[112.0659,38.5109],[111.6501,38.1893],[111.6724,38.1606],[111.6481,38.1422],[111.6939,38.1131],[112.0455,38.087],[112.1132,38.0289],[112.1779,37.9144],[112.1767,37.6508],[111.9106,37.4499],[111.8391,37.4138],[111.6633,37.3893],[111.3141,37.3957],[111.142,37.4737],[111.017,37.579],[110.97,37.5703],[110.8622,37.4872],[110.8468,37.3654],[110.8699,37.3557],[110.8684,37.3087],[110.9365,37.2515],[110.9449,37.1481],[111.0583,37.062],[111.209,37.0596],[111.2806,37.1147],[111.3151,37.1047],[111.3042,37.1236],[111.3752,37.1599],[111.6532,37.1453],[111.6868,37.1164],[111.6825,37.0133],[111.7328,37.1061],[111.7907,37.1049],[111.8904,36.9995],[111.8796,36.7558],[111.9022,36.7459],[111.8508,36.6252],[111.9182,36.5862],[111.9145,36.5019],[111.8435,36.4567],[111.8935,36.5493],[111.8266,36.5976],[111.7576,36.5991],[111.6863,36.5444],[111.5939,36.5369],[111.4517,36.4273],[111.4245,36.3155],[111.4579,36.2868],[111.5954,36.2841],[111.4894,36.2113],[111.483,36.0431],[111.4242,35.9975],[111.3786,35.9984],[111.4121,35.9791],[111.4101,35.923],[111.2229,35.7864],[111.1195,35.7602],[111.0728,35.7236],[110.9476,35.7257],[110.808,35.6158],[110.8967,35.5398],[110.7721,35.551],[110.7435,35.3277],[110.6273,35.2082],[110.6122,35.0501],[110.6343,35.0312],[110.6007,35.041],[110.5068,34.8747],[110.4683,34.6521],[110.5235,34.6142],[110.6128,34.5944],[110.8816,34.5903],[110.9279,34.6453],[110.9386,34.6266],[111.129,34.6232],[111.4469,34.7473],[111.4908,34.7185],[111.4924,34.7649],[111.7782,34.8983],[111.8792,34.8959],[111.9008,34.8767],[111.9261,34.9413],[112.2097,34.9993],[112.8241,34.9347],[112.8267,34.9812],[112.8347,34.925],[112.9787,34.8923],[113.2024,34.8847],[113.5657,34.9555],[113.6471,34.9991],[114.061,34.9824],[114.1685,34.9217],[114.2027,34.9296],[114.1963,34.8457],[114.4046,34.6496],[114.4935,34.6455],[114.5869,34.6973],[114.4335,34.5922],[114.4254,34.4899],[114.5425,34.2883],[114.7172,34.1213],[114.7612,34.1191],[114.8439,34.1803],[114.7369,34.0923],[114.7314,34.0273],[114.9048,33.86],[115.0636,33.7865],[115.1033,33.7377],[115.2094,33.6947],[115.439,33.6821],[115.4844,33.6982],[115.5045,33.6784],[115.529,33.705],[115.7076,33.7321],[116.0582,33.7204],[116.1176,33.7635],[116.6091,33.7321],[116.6517,33.7199],[116.7403,33.6297],[116.8166,33.6245],[116.9342,33.5041],[116.931,33.4762],[117.0773,33.3255],[117.0988,33.2304],[117.2043,33.1105],[117.1897,32.99],[117.2198,32.9691],[117.1875,32.9714],[117.0687,32.8866],[117.0149,32.8905],[116.8846,32.797],[116.9801,32.6875],[116.8599,32.7708],[116.8116,32.7275],[116.7764,32.5154],[116.8246,32.4653],[116.8118,32.4476],[116.9294,32.4392],[117.0411,32.2911],[117.0438,32.1324],[116.8735,32.1449],[117.0533,32.1224],[117.0614,32.0099],[117.1106,31.8851],[117.0299,31.8353],[117.1307,31.8743],[117.4336,31.5621],[117.4909,31.5948],[117.4441,31.5612],[117.436,31.4967],[117.5564,31.3566],[117.5761,31.2619],[117.563,31.0768],[117.5537,31.0032],[117.4841,30.953],[117.4736,30.8702],[117.2542,30.7114],[117.2715,30.6822],[117.2426,30.7031],[117.1688,30.6996],[116.8923,30.4894],[116.7831,30.3588],[116.848,30.289],[116.7696,30.332],[116.668,30.1731],[116.6185,30.1029],[116.5392,30.0441],[116.5361,30.0166],[116.495,30.0197],[116.3624,29.9463],[116.192,29.9033],[115.9742,29.9003],[115.9574,29.9383],[115.8442,29.9461],[115.8254,29.9659],[115.7636,29.9701],[115.6978,30.039],[115.6359,30.0431],[115.3985,30.1691],[115.3113,30.2392],[115.2777,30.2136],[115.301,30.2398],[115.2973,30.3138],[115.0693,30.5674],[115.0269,30.5607],[115.0605,30.5864],[115.0735,30.7333],[115.0244,30.8931],[115.0252,31.0223],[114.9767,31.0713],[114.9854,31.1725],[114.9563,31.2019],[114.9594,31.2387],[114.7739,31.4247],[114.8192,31.4592],[114.7421,31.4264],[114.5849,31.5828],[114.5582,31.6489],[114.5716,31.8147],[114.6057,31.8407],[114.6374,32.0983],[114.4866,32.2265],[114.3588,32.2422],[114.3359,32.2248],[114.2288,32.23],[114.1945,32.2038],[114.0446,32.0629],[114.0412,32.0168],[113.9838,31.9639],[113.9805,31.9179],[113.811,31.787],[113.5747,31.7697],[113.4788,31.7738],[113.4114,31.7212],[113.3698,31.5661],[113.416,31.4535],[113.4069,31.3064],[113.34,31.2539],[113.3094,31.2736],[113.3289,31.2452],[113.231,31.2031],[112.9662,31.2044],[112.617,31.2173],[112.5728,31.182],[112.5411,31.1831],[112.3101,30.9978],[112.2793,31.0171],[112.2992,30.9889],[112.2229,30.9363],[112.0405,30.8685],[111.9554,30.8526],[111.8942,30.9095],[111.8918,30.8453],[111.87,30.8276],[111.5738,30.8082],[111.5536,30.8362],[111.5738,30.8082],[111.4547,30.7103],[111.4538,30.6828],[111.5562,30.5885],[111.555,30.5519],[111.6162,30.4953],[111.594,30.4592],[111.6261,30.4767],[111.6751,30.3746],[111.7769,30.2893],[112.2053,30.2762],[112.2451,30.2291],[112.3185,30.2358],[112.3786,30.1788],[112.7847,30.1641],[112.8183,30.2086],[113.026,30.1913],[113.1956,30.2393],[113.2383,30.2559],[113.4152,30.2482],[113.4591,30.283],[113.5632,30.2783],[113.5724,30.2595],[113.6348,30.2566],[113.7223,30.1607],[113.7644,30.1679],[113.7309,30.1327],[113.7042,29.8862],[113.5949,29.7996],[113.4294,29.6331],[113.4169,29.597],[113.4374,29.5961],[113.406,29.5884],[113.3713,29.5258],[113.3522,29.3802],[113.3814,29.3515],[113.6148,29.304],[113.6455,29.3025],[113.7539,29.3888],[113.8461,29.3843],[113.9972,29.4866],[114.1101,29.4807],[114.1428,29.5065],[114.3815,29.5304],[114.4686,29.5898],[114.9294,29.5539],[114.942,29.5807],[114.9602,29.5521],[115.1225,29.5237],[115.2693,29.4409],[115.3017,29.4572],[115.2787,29.4311],[115.2848,29.3848],[115.4623,29.1986],[115.5539,29.1924],[115.4792,29.1607],[115.4672,29.0329],[115.4991,28.9389],[115.5824,28.8506],[115.7138,28.8415],[115.6157,28.7749],[115.6096,28.711],[115.7775,28.5616],[115.8205,28.5861],[115.826,28.5398],[115.9868,28.5281],[115.995,28.5091],[115.9978,28.5365],[116.1079,28.6202],[116.1165,28.7022],[116.1616,28.7448],[116.2494,29.2813],[116.2747,29.3255],[116.3894,29.4368],[116.3964,29.5008],[116.5967,29.7256],[116.611,29.7615],[116.7127,29.8368],[116.7179,29.8826],[116.9448,30.05],[117.0043,30.0267],[116.9686,30.0759],[116.9752,30.1309],[117.5136,30.5232],[117.54,30.4838],[117.5251,30.5315],[117.9291,30.8135],[117.8752,30.8832],[117.9407,30.8218],[118.0339,30.8882],[118.1539,31.0734],[118.2384,31.1499],[118.2017,31.1905],[118.2384,31.1499],[118.322,31.1426],[118.4421,31.1692],[118.6614,31.1492],[118.6708,31.2138],[118.6944,31.2303],[118.6705,31.1391],[118.8153,31.1163],[118.9597,31.2336],[119.0543,31.4399],[119.1151,31.4903],[119.1466,31.4873],[119.2657,31.5696],[119.4126,31.5553],[119.4709,31.5872],[119.5115,31.5738],[119.5927,31.4813],[119.6975,31.4708],[119.832,31.3164],[119.8664,31.3316],[119.832,31.3164],[119.8362,31.147],[120.0788,30.8871],[120.0665,30.8133],[120.0883,30.7547],[120.0528,30.5428],[120.0111,30.4817],[120.0596,30.4577],[120.0111,30.4817],[119.9325,30.3871],[119.8857,30.1674],[119.9119,30.1365],[119.8982,30.0538],[120.0173,29.9566],[120.1297,29.9443],[120.165,29.9685],[120.3827,29.9629],[120.626,29.9258],[121.0593,29.903],[121.1358,29.9221],[121.2107,29.9883],[121.4197,29.9346],[121.4703,29.8718],[121.549,29.7396],[121.5366,29.6753],[121.5719,29.6426],[121.5767,29.6138],[121.6626,29.5747],[121.8651,29.5487],[121.8908,29.5737],[122.0104,29.5487],[122.1696,29.5655],[123.0,29.4]]}},{"type":"Feature","properties":{"side":"japanese"},"geometry":{"type":"MultiPolygon","coordinates":[[[[122.0,41.0],[124.0,38.5],[124.5,33.0],[123.0,29.4],[122.1696,29.5655],[122.0104,29.5487],[121.8908,29.5737],[121.8651,29.5487],[121.6626,29.5747],[121.5767,29.6138],[121.5719,29.6426],[121.5366,29.6753],[121.549,29.7396],[121.4703,29.8718],[121.4197,29.9346],[121.2107,29.9883],[121.1358,29.9221],[121.0593,29.903],[120.626,29.9258],[120.5550835098336,29.93661381744831],[120.539,29.69],[120.516,29.593],[120.346,29.193],[120.292,29.109],[120.181,29.029],[120.213,28.99],[120.237,28.924],[120.277,28.694],[120.274,28.613],[120.195,28.481],[120.39,28.317],[120.765,28.189],[120.832,28.15],[120.88,28.088],[120.9,28.013],[120.889,27.935],[120.85,27.868],[120.788,27.82],[120.713,27.8],[120.635,27.811],[120.225,27.951],[120.162,27.987],[119.792,28.297],[119.744,28.355],[119.721,28.428],[119.727,28.503],[119.851,28.69],[119.738,28.707],[119.646,28.785],[119.581,28.788],[119.452,28.852],[119.256,28.743],[119.012,28.669],[118.807,28.506],[118.667,28.444],[118.37,28.397],[118.165,28.222],[118.089,28.174],[117.514,28.09],[117.171,27.957],[117.076,27.94],[116.556,27.94],[116.528,27.841],[116.474,27.785],[116.402,27.754],[116.324,27.753],[116.251,27.782],[116.195,27.836],[116.164,27.908],[116.12,28.113],[115.7,28.448],[115.626,28.538],[115.592,28.65],[115.603,28.766],[115.64543185492126,28.84623478021474],[115.5824,28.8506],[115.4991,28.9389],[115.4672,29.0329],[115.4792,29.1607],[115.5539,29.1924],[115.4623,29.1986],[115.2848,29.3848],[115.2787,29.4311],[115.3017,29.4572],[115.2693,29.4409],[115.1225,29.5237],[114.9602,29.5521],[114.942,29.5807],[114.9294,29.5539],[114.4686,29.5898],[114.3815,29.5304],[114.1428,29.5065],[114.1101,29.4807],[113.9972,29.4866],[113.8461,29.3843],[113.7539,29.3888],[113.6455,29.3025],[113.6148,29.304],[113.3814,29.3515],[113.3522,29.3802],[113.3713,29.5258],[113.406,29.5884],[113.4374,29.5961],[113.4169,29.597],[113.4294,29.6331],[113.5949,29.7996],[113.7042,29.8862],[113.7309,30.1327],[113.7644,30.1679],[113.7223,30.1607],[113.6348,30.2566],[113.5724,30.2595],[113.5632,30.2783],[113.4591,30.283],[113.4152,30.2482],[113.2383,30.2559],[113.1956,30.2393],[113.026,30.1913],[112.8183,30.2086],[112.7847,30.1641],[112.3786,30.1788],[112.3185,30.2358],[112.2451,30.2291],[112.2053,30.2762],[111.7769,30.2893],[111.6751,30.3746],[111.6261,30.4767],[111.594,30.4592],[111.6162,30.4953],[111.555,30.5519],[111.5562,30.5885],[111.4538,30.6828],[111.4547,30.7103],[111.5738,30.8082],[111.87,30.8276],[111.8918,30.8453],[111.8942,30.9095],[111.9554,30.8526],[112.0405,30.8685],[112.2229,30.9363],[112.2992,30.9889],[112.2793,31.0171],[112.3101,30.9978],[112.5411,31.1831],[112.5728,31.182],[112.617,31.2173],[112.9662,31.2044],[113.231,31.2031],[113.3289,31.2452],[113.3094,31.2736],[113.34,31.2539],[113.4069,31.3064],[113.416,31.4535],[113.3698,31.5661],[113.4114,31.7212],[113.4788,31.7738],[113.5747,31.7697],[113.811,31.787],[113.9805,31.9179],[113.9838,31.9639],[114.0412,32.0168],[114.0446,32.0629],[114.1945,32.2038],[114.2288,32.23],[114.3359,32.2248],[114.3588,32.2422],[114.4866,32.2265],[114.6374,32.0983],[114.6057,31.8407],[114.5716,31.8147],[114.5582,31.6489],[114.5849,31.5828],[114.7421,31.4264],[114.8192,31.4592],[114.7739,31.4247],[114.9594,31.2387],[114.9563,31.2019],[114.9854,31.1725],[114.9767,31.0713],[115.0252,31.0223],[115.0244,30.8931],[115.0735,30.7333],[115.0605,30.5864],[115.0269,30.5607],[115.0693,30.5674],[115.2973,30.3138],[115.301,30.2398],[115.2777,30.2136],[115.3113,30.2392],[115.3985,30.1691],[115.6359,30.0431],[115.6978,30.039],[115.7636,29.9701],[115.8254,29.9659],[115.8442,29.9461],[115.9574,29.9383],[115.9742,29.9003],[116.192,29.9033],[116.3624,29.9463],[116.495,30.0197],[116.5361,30.0166],[116.5392,30.0441],[116.6185,30.1029],[116.668,30.1731],[116.7696,30.332],[116.848,30.289],[116.7831,30.3588],[116.8923,30.4894],[117.1688,30.6996],[117.2426,30.7031],[117.2715,30.6822],[117.2542,30.7114],[117.4736,30.8702],[117.4841,30.953],[117.5537,31.0032],[117.563,31.0768],[117.5761,31.2619],[117.5564,31.3566],[117.436,31.4967],[117.4441,31.5612],[117.4909,31.5948],[117.4336,31.5621],[117.1307,31.8743],[117.0299,31.8353],[117.1106,31.8851],[117.0614,32.0099],[117.0533,32.1224],[116.8735,32.1449],[117.0438,32.1324],[117.0411,32.2911],[116.9294,32.4392],[116.8118,32.4476],[116.8246,32.4653],[116.7764,32.5154],[116.8116,32.7275],[116.8599,32.7708],[116.9801,32.6875],[116.8846,32.797],[117.0149,32.8905],[117.0687,32.8866],[117.1875,32.9714],[117.2198,32.9691],[117.1897,32.99],[117.2043,33.1105],[117.0988,33.2304],[117.0773,33.3255],[116.931,33.4762],[116.9342,33.5041],[116.8166,33.6245],[116.7403,33.6297],[116.6517,33.7199],[116.6091,33.7321],[116.1176,33.7635],[116.0582,33.7204],[115.7076,33.7321],[115.529,33.705],[115.5045,33.6784],[115.4844,33.6982],[115.439,33.6821],[115.2094,33.6947],[115.1033,33.7377],[115.0636,33.7865],[114.9048,33.86],[114.7314,34.0273],[114.7369,34.0923],[114.8439,34.1803],[114.7612,34.1191],[114.7172,34.1213],[114.5425,34.2883],[114.4254,34.4899],[114.4335,34.5922],[114.5869,34.6973],[114.4935,34.6455],[114.4046,34.6496],[114.1963,34.8457],[114.2027,34.9296],[114.1685,34.9217],[114.061,34.9824],[113.6471,34.9991],[113.5657,34.9555],[113.2024,34.8847],[112.9787,34.8923],[112.8347,34.925],[112.8267,34.9812],[112.8241,34.9347],[112.2097,34.9993],[111.9261,34.9413],[111.9008,34.8767],[111.8792,34.8959],[111.7782,34.8983],[111.4924,34.7649],[111.4908,34.7185],[111.4469,34.7473],[111.129,34.6232],[110.9386,34.6266],[110.9279,34.6453],[110.8816,34.5903],[110.6128,34.5944],[110.5235,34.6142],[110.4683,34.6521],[110.5068,34.8747],[110.6007,35.041],[110.6343,35.0312],[110.6122,35.0501],[110.6273,35.2082],[110.7435,35.3277],[110.7721,35.551],[110.8967,35.5398],[110.808,35.6158],[110.9476,35.7257],[111.0728,35.7236],[111.1195,35.7602],[111.2229,35.7864],[111.4101,35.923],[111.4121,35.9791],[111.3786,35.9984],[111.4242,35.9975],[111.483,36.0431],[111.4894,36.2113],[111.5954,36.2841],[111.4579,36.2868],[111.4245,36.3155],[111.4517,36.4273],[111.5939,36.5369],[111.6863,36.5444],[111.7576,36.5991],[111.8266,36.5976],[111.8935,36.5493],[111.8435,36.4567],[111.9145,36.5019],[111.9182,36.5862],[111.8508,36.6252],[111.9022,36.7459],[111.8796,36.7558],[111.8904,36.9995],[111.7907,37.1049],[111.7328,37.1061],[111.6825,37.0133],[111.6868,37.1164],[111.6532,37.1453],[111.3752,37.1599],[111.3042,37.1236],[111.3151,37.1047],[111.2806,37.1147],[111.209,37.0596],[111.0583,37.062],[110.9449,37.1481],[110.9365,37.2515],[110.8684,37.3087],[110.8699,37.3557],[110.8468,37.3654],[110.8622,37.4872],[110.97,37.5703],[111.017,37.579],[111.142,37.4737],[111.3141,37.3957],[111.6633,37.3893],[111.8391,37.4138],[111.9106,37.4499],[112.1767,37.6508],[112.1779,37.9144],[112.1132,38.0289],[112.0455,38.087],[111.6939,38.1131],[111.6481,38.1422],[111.6724,38.1606],[111.6501,38.1893],[112.0659,38.5109],[112.0713,38.624],[112.1319,38.651],[112.1383,39.0194],[112.0839,39.1246],[111.8796,39.3464],[111.7192,39.2359],[111.7264,39.3966],[111.5178,39.5612],[111.5181,39.8548],[111.4727,39.9219],[111.4389,39.9793],[111.2869,40.1048],[111.1909,40.1252],[110.8375,40.4142],[110.7665,40.4719],[110.402,40.4944],[110.0122,40.497],[109.9763,40.5257],[109.8422,40.5263],[109.6618,40.6693],[109.4912,40.6982],[109.5158,40.7076],[109.3831,40.8312],[109.2752,41.0117],[109.2385,41.0212],[109.2631,41.0212],[109.2276,41.1257],[109.1963,41.5347],[109.2,43.0],[112.0,43.0],[118.0,42.5],[122.0,41.0]],[[119.8982,30.0538],[119.9119,30.1365],[119.8857,30.1674],[119.9325,30.3871],[120.0111,30.4817],[120.0528,30.5428],[120.0883,30.7547],[120.0665,30.8133],[120.0788,30.8871],[119.8362,31.147],[119.832,31.3164],[119.6975,31.4708],[119.5927,31.4813],[119.5115,31.5738],[119.4709,31.5872],[119.4126,31.5553],[119.2657,31.5696],[119.1466,31.4873],[119.1151,31.4903],[119.0543,31.4399],[118.9597,31.2336],[118.8153,31.1163],[118.6705,31.1391],[118.6944,31.2303],[118.6708,31.2138],[118.6614,31.1492],[118.4421,31.1692],[118.322,31.1426],[118.2384,31.1499],[118.1539,31.0734],[118.0339,30.8882],[117.9407,30.8218],[117.8752,30.8832],[117.9291,30.8135],[117.5251,30.5315],[117.54,30.4838],[117.5136,30.5232],[116.9752,30.1309],[116.9686,30.0759],[117.0043,30.0267],[116.9448,30.05],[116.7179,29.8826],[116.7127,29.8368],[116.611,29.7615],[116.5967,29.7256],[116.3964,29.5008],[116.3894,29.4368],[116.2747,29.3255],[116.2494,29.2813],[116.17613213372263,28.833598288635432],[116.427,28.629],[116.658,28.531],[117.015,28.539],[117.378,28.675],[117.846,28.738],[118.045,28.908],[118.193,28.976],[118.495,29.024],[118.683,29.174],[118.784,29.227],[119.046,29.306],[119.302,29.465],[119.409,29.506],[119.524,29.503],[119.667,29.432],[119.835,29.523],[119.944,29.78],[119.95877514779791,30.004363355449573],[119.8982,30.0538]],[[119.6273,34.0397],[119.4988,33.8529],[119.4263,33.8123],[119.3965,33.4753],[119.442,33.4146],[119.5673,33.3747],[119.742,33.5094],[119.7233,33.53],[119.8315,33.5198],[119.9349,33.5477],[120.1296,33.5289],[120.1621,33.5257],[120.3869,33.2954],[120.474,33.1636],[120.4581,33.0706],[120.4907,32.8782],[120.5892,32.7546],[120.5689,32.7],[120.6775,32.5752],[120.9244,32.3786],[121.0456,32.2708],[121.1197,32.2626],[121.45,32.0645],[121.4817,32.0609],[121.5696,31.956],[121.7889,31.9209],[121.9464,31.8452],[122.3,31.9],[121.5,33.5],[120.6,34.7],[120.2992,34.5546],[120.2945,34.5266],[119.9947,34.3274],[119.9569,34.3688],[119.9932,34.3181],[119.6404,34.1236],[119.6273,34.0397]],[[117.9341,36.2582],[117.9207,36.155],[117.9509,36.1245],[117.9453,35.9073],[117.889,35.9113],[117.9316,35.8893],[117.8901,35.5709],[118.1745,35.3326],[118.2637,35.3258],[118.3229,35.2646],[118.4453,35.2551],[118.5141,35.1836],[118.5012,34.9295],[118.412,34.8515],[118.3668,34.6852],[118.3324,34.6785],[118.4071,34.6537],[118.4752,34.5822],[118.8153,34.5451],[118.9389,34.6292],[118.943,34.6572],[119.067,34.7413],[119.0794,34.8254],[119.1305,34.8684],[119.1347,34.8964],[119.2996,35.0244],[119.3992,35.0158],[119.4618,35.0577],[119.7,34.9],[120.4,35.4],[120.0178,35.6542],[120.0238,35.6917],[119.8881,35.8369],[119.8351,35.8606],[119.7118,35.8714],[119.6864,35.8545],[119.6192,35.8603],[119.5306,35.8014],[119.441,35.809],[119.3652,35.7584],[119.3149,35.8006],[119.3526,35.75],[119.347,35.7125],[119.1708,35.5944],[119.0759,35.5643],[118.9309,35.5004],[118.8068,35.5009],[118.751,35.5054],[118.6031,35.6591],[118.58,35.7367],[118.636,35.7323],[118.5938,35.7545],[118.6017,35.8107],[118.79,35.9382],[118.9361,35.9265],[119.0188,35.9484],[119.145,36.033],[119.1912,36.1147],[119.2419,36.1486],[119.2559,36.2425],[119.2784,36.2406],[119.1412,36.3944],[119.1454,36.4225],[119.1299,36.3953],[118.9603,36.4088],[118.8278,36.3622],[118.7712,36.3666],[118.7313,36.4077],[118.6974,36.4103],[118.5973,36.5129],[118.5292,36.518],[118.4891,36.559],[118.455,36.5616],[118.3288,36.476],[118.2117,36.4562],[117.9341,36.2582]],[[114.7314,36.0306],[114.6548,35.9307],[114.6463,35.8279],[114.6658,35.5174],[114.9266,35.2707],[115.0204,35.313],[115.0303,35.425],[115.0881,35.4409],[115.1031,35.6091],[115.1261,35.7394],[115.0818,35.751],[115.0961,35.91],[115.0398,36.0443],[114.8933,36.0606],[114.7435,36.0394],[114.7111,36.0597],[114.7314,36.0306]],[[115.3343,36.152],[115.397,36.0923],[115.2074,35.8857],[115.2014,35.8202],[115.165,35.7938],[115.1557,35.691],[115.126,35.4859],[115.1417,35.4101],[115.248,35.2171],[115.4391,35.2165],[115.5321,35.2491],[115.7006,35.3619],[115.7772,35.3389],[115.7697,35.3769],[115.9324,35.537],[115.9665,35.7607],[115.7331,36.0371],[115.7405,36.112],[115.7093,36.1419],[115.6186,36.1467],[115.4772,36.0976],[115.3979,36.1017],[115.3343,36.152]],[[113.4842,36.1094],[113.5165,36.0802],[113.3709,35.9447],[113.2473,35.7898],[113.2258,35.8093],[113.2462,35.7711],[113.2093,35.7256],[113.2096,35.5478],[113.2394,35.4813],[113.2963,35.4887],[113.2489,35.4529],[113.3237,35.3848],[113.4363,35.3808],[113.5639,35.4322],[113.6877,35.4276],[114.0102,35.6677],[114.0738,35.6089],[114.1506,35.5776],[114.0229,35.6859],[114.0482,35.7223],[114.0573,35.8438],[114.1294,35.8971],[114.1351,35.972],[114.1329,36.094],[114.1116,36.1137],[113.8622,36.1329],[113.8301,36.1623],[113.6821,36.1679],[113.5506,36.0789],[113.4842,36.1094]]],[[[111.3,17.9],[108.4,17.9],[108.4,20.15],[109.0,20.15],[111.3,20.15],[111.3,17.9]]],[[[113.1797,22.8008],[113.0601,22.9769],[113.0642,23.2447],[113.1614,23.3377],[113.1891,23.3362],[113.2862,23.4203],[113.4356,23.4386],[113.8142,23.4159],[113.9282,23.3191],[113.9835,23.3155],[114.0779,23.2108],[114.0602,22.9523],[113.9885,22.8408],[113.9802,22.7161],[113.9608,22.6995],[113.9881,22.6977],[114.1412,22.5354],[114.3212,22.505],[114.4086,22.5792],[114.4594,22.6471],[114.4516,22.6656],[114.5145,22.6521],[114.6011,22.7084],[114.6646,22.7036],[114.6814,22.6845],[114.7725,22.5701],[114.7743,22.4804],[114.8143,22.4146],[114.8,22.0],[113.7,21.9],[113.737,22.1875],[113.4051,22.2438],[113.2336,22.4321],[113.1946,22.5591],[113.1797,22.8008]]],[[[116.6614,23.296],[116.6676,23.3496],[116.6333,23.4524],[116.655,23.5589],[116.8418,23.5678],[116.844,23.5857],[116.8548,23.5212],[117.0092,23.3427],[117.0048,23.3069],[117.1089,23.1785],[117.2,23.0],[116.85,22.85],[116.8178,22.9821],[116.821,23.0089],[116.7407,23.1073],[116.7502,23.1878],[116.6614,23.296]]],[[[98.75,26.2],[98.85,25.8],[98.95,25.3],[98.85,24.8],[99.05,24.3],[98.9,23.9],[97.0,23.6],[97.0,26.2],[98.75,26.2]]]]}},{"type":"Feature","properties":{"side":"chinese"},"geometry":{"type":"MultiPolygon","coordinates":[[[[70.0,15.0],[70.0,56.0],[140.0,56.0],[140.0,15.0],[70.0,15.0]],[[118.0,42.5],[112.0,43.0],[109.2,43.0],[109.1963,41.5347],[109.2276,41.1257],[109.2631,41.0212],[109.2385,41.0212],[109.2752,41.0117],[109.3831,40.8312],[109.5158,40.7076],[109.4912,40.6982],[109.6618,40.6693],[109.8422,40.5263],[109.9763,40.5257],[110.0122,40.497],[110.402,40.4944],[110.7665,40.4719],[110.8375,40.4142],[111.1909,40.1252],[111.2869,40.1048],[111.4389,39.9793],[111.4727,39.9219],[111.5181,39.8548],[111.5178,39.5612],[111.7264,39.3966],[111.7192,39.2359],[111.8796,39.3464],[112.0839,39.1246],[112.1383,39.0194],[112.1319,38.651],[112.0713,38.624],[112.0659,38.5109],[111.6501,38.1893],[111.6724,38.1606],[111.6481,38.1422],[111.6939,38.1131],[112.0455,38.087],[112.1132,38.0289],[112.1779,37.9144],[112.1767,37.6508],[111.9106,37.4499],[111.8391,37.4138],[111.6633,37.3893],[111.3141,37.3957],[111.142,37.4737],[111.017,37.579],[110.97,37.5703],[110.8622,37.4872],[110.8468,37.3654],[110.8699,37.3557],[110.8684,37.3087],[110.9365,37.2515],[110.9449,37.1481],[111.0583,37.062],[111.209,37.0596],[111.2806,37.1147],[111.3151,37.1047],[111.3042,37.1236],[111.3752,37.1599],[111.6532,37.1453],[111.6868,37.1164],[111.6825,37.0133],[111.7328,37.1061],[111.7907,37.1049],[111.8904,36.9995],[111.8796,36.7558],[111.9022,36.7459],[111.8508,36.6252],[111.9182,36.5862],[111.9145,36.5019],[111.8435,36.4567],[111.8935,36.5493],[111.8266,36.5976],[111.7576,36.5991],[111.6863,36.5444],[111.5939,36.5369],[111.4517,36.4273],[111.4245,36.3155],[111.4579,36.2868],[111.5954,36.2841],[111.4894,36.2113],[111.483,36.0431],[111.4242,35.9975],[111.3786,35.9984],[111.4121,35.9791],[111.4101,35.923],[111.2229,35.7864],[111.1195,35.7602],[111.0728,35.7236],[110.9476,35.7257],[110.808,35.6158],[110.8967,35.5398],[110.7721,35.551],[110.7435,35.3277],[110.6273,35.2082],[110.6122,35.0501],[110.6343,35.0312],[110.6007,35.041],[110.5068,34.8747],[110.4683,34.6521],[110.5235,34.6142],[110.6128,34.5944],[110.8816,34.5903],[110.9279,34.6453],[110.9386,34.6266],[111.129,34.6232],[111.4469,34.7473],[111.4908,34.7185],[111.4924,34.7649],[111.7782,34.8983],[111.8792,34.8959],[111.9008,34.8767],[111.9261,34.9413],[112.2097,34.9993],[112.8241,34.9347],[112.8267,34.9812],[112.8347,34.925],[112.9787,34.8923],[113.2024,34.8847],[113.5657,34.9555],[113.6471,34.9991],[114.061,34.9824],[114.1685,34.9217],[114.2027,34.9296],[114.1963,34.8457],[114.4046,34.6496],[114.4935,34.6455],[114.5869,34.6973],[114.4335,34.5922],[114.4254,34.4899],[114.5425,34.2883],[114.7172,34.1213],[114.7612,34.1191],[114.8439,34.1803],[114.7369,34.0923],[114.7314,34.0273],[114.9048,33.86],[115.0636,33.7865],[115.1033,33.7377],[115.2094,33.6947],[115.439,33.6821],[115.4844,33.6982],[115.5045,33.6784],[115.529,33.705],[115.7076,33.7321],[116.0582,33.7204],[116.1176,33.7635],[116.6091,33.7321],[116.6517,33.7199],[116.7403,33.6297],[116.8166,33.6245],[116.9342,33.5041],[116.931,33.4762],[117.0773,33.3255],[117.0988,33.2304],[117.2043,33.1105],[117.1897,32.99],[117.2198,32.9691],[117.1875,32.9714],[117.0687,32.8866],[117.0149,32.8905],[116.8846,32.797],[116.9801,32.6875],[116.8599,32.7708],[116.8116,32.7275],[116.7764,32.5154],[116.8246,32.4653],[116.8118,32.4476],[116.9294,32.4392],[117.0411,32.2911],[117.0438,32.1324],[116.8735,32.1449],[117.0533,32.1224],[117.0614,32.0099],[117.1106,31.8851],[117.0299,31.8353],[117.1307,31.8743],[117.4336,31.5621],[117.4909,31.5948],[117.4441,31.5612],[117.436,31.4967],[117.5564,31.3566],[117.5761,31.2619],[117.563,31.0768],[117.5537,31.0032],[117.4841,30.953],[117.4736,30.8702],[117.2542,30.7114],[117.2715,30.6822],[117.2426,30.7031],[117.1688,30.6996],[116.8923,30.4894],[116.7831,30.3588],[116.848,30.289],[116.7696,30.332],[116.668,30.1731],[116.6185,30.1029],[116.5392,30.0441],[116.5361,30.0166],[116.495,30.0197],[116.3624,29.9463],[116.192,29.9033],[115.9742,29.9003],[115.9574,29.9383],[115.8442,29.9461],[115.8254,29.9659],[115.7636,29.9701],[115.6978,30.039],[115.6359,30.0431],[115.3985,30.1691],[115.3113,30.2392],[115.2777,30.2136],[115.301,30.2398],[115.2973,30.3138],[115.0693,30.5674],[115.0269,30.5607],[115.0605,30.5864],[115.0735,30.7333],[115.0244,30.8931],[115.0252,31.0223],[114.9767,31.0713],[114.9854,31.1725],[114.9563,31.2019],[114.9594,31.2387],[114.7739,31.4247],[114.8192,31.4592],[114.7421,31.4264],[114.5849,31.5828],[114.5582,31.6489],[114.5716,31.8147],[114.6057,31.8407],[114.6374,32.0983],[114.4866,32.2265],[114.3588,32.2422],[114.3359,32.2248],[114.2288,32.23],[114.1945,32.2038],[114.0446,32.0629],[114.0412,32.0168],[113.9838,31.9639],[113.9805,31.9179],[113.811,31.787],[113.5747,31.7697],[113.4788,31.7738],[113.4114,31.7212],[113.3698,31.5661],[113.416,31.4535],[113.4069,31.3064],[113.34,31.2539],[113.3094,31.2736],[113.3289,31.2452],[113.231,31.2031],[112.9662,31.2044],[112.617,31.2173],[112.5728,31.182],[112.5411,31.1831],[112.3101,30.9978],[112.2793,31.0171],[112.2992,30.9889],[112.2229,30.9363],[112.0405,30.8685],[111.9554,30.8526],[111.8942,30.9095],[111.8918,30.8453],[111.87,30.8276],[111.5738,30.8082],[111.4547,30.7103],[111.4538,30.6828],[111.5562,30.5885],[111.555,30.5519],[111.6162,30.4953],[111.594,30.4592],[111.6261,30.4767],[111.6751,30.3746],[111.7769,30.2893],[112.2053,30.2762],[112.2451,30.2291],[112.3185,30.2358],[112.3786,30.1788],[112.7847,30.1641],[112.8183,30.2086],[113.026,30.1913],[113.1956,30.2393],[113.2383,30.2559],[113.4152,30.2482],[113.4591,30.283],[113.5632,30.2783],[113.5724,30.2595],[113.6348,30.2566],[113.7223,30.1607],[113.7644,30.1679],[113.7309,30.1327],[113.7042,29.8862],[113.5949,29.7996],[113.4294,29.6331],[113.4169,29.597],[113.4374,29.5961],[113.406,29.5884],[113.3713,29.5258],[113.3522,29.3802],[113.3814,29.3515],[113.6148,29.304],[113.6455,29.3025],[113.7539,29.3888],[113.8461,29.3843],[113.9972,29.4866],[114.1101,29.4807],[114.1428,29.5065],[114.3815,29.5304],[114.4686,29.5898],[114.9294,29.5539],[114.942,29.5807],[114.9602,29.5521],[115.1225,29.5237],[115.2693,29.4409],[115.3017,29.4572],[115.2787,29.4311],[115.2848,29.3848],[115.4623,29.1986],[115.5539,29.1924],[115.4792,29.1607],[115.4672,29.0329],[115.4991,28.9389],[115.5824,28.8506],[115.64543185492126,28.84623478021474],[115.603,28.766],[115.592,28.65],[115.626,28.538],[115.7,28.448],[116.12,28.113],[116.164,27.908],[116.195,27.836],[116.251,27.782],[116.324,27.753],[116.402,27.754],[116.474,27.785],[116.528,27.841],[116.556,27.94],[117.076,27.94],[117.171,27.957],[117.514,28.09],[118.089,28.174],[118.165,28.222],[118.37,28.397],[118.667,28.444],[118.807,28.506],[119.012,28.669],[119.256,28.743],[119.452,28.852],[119.581,28.788],[119.646,28.785],[119.738,28.707],[119.851,28.69],[119.727,28.503],[119.721,28.428],[119.744,28.355],[119.792,28.297],[120.162,27.987],[120.225,27.951],[120.635,27.811],[120.713,27.8],[120.788,27.82],[120.85,27.868],[120.889,27.935],[120.9,28.013],[120.88,28.088],[120.832,28.15],[120.765,28.189],[120.39,28.317],[120.195,28.481],[120.274,28.613],[120.277,28.694],[120.237,28.924],[120.213,28.99],[120.181,29.029],[120.292,29.109],[120.346,29.193],[120.516,29.593],[120.539,29.69],[120.5550835098336,29.93661381744831],[120.626,29.9258],[121.0593,29.903],[121.1358,29.9221],[121.2107,29.9883],[121.4197,29.9346],[121.4703,29.8718],[121.549,29.7396],[121.5366,29.6753],[121.5719,29.6426],[121.5767,29.6138],[121.6626,29.5747],[121.8651,29.5487],[121.8908,29.5737],[122.0104,29.5487],[122.1696,29.5655],[123.0,29.4],[124.5,33.0],[124.0,38.5],[122.0,41.0],[118.0,42.5]],[[111.3,20.15],[109.0,20.15],[108.4,20.15],[108.4,17.9],[111.3,17.9],[111.3,20.15]],[[113.1946,22.5591],[113.2336,22.4321],[113.4051,22.2438],[113.737,22.1875],[113.7,21.9],[114.8,22.0],[114.8143,22.4146],[114.7743,22.4804],[114.7725,22.5701],[114.6814,22.6845],[114.6646,22.7036],[114.6011,22.7084],[114.5145,22.6521],[114.4516,22.6656],[114.4594,22.6471],[114.4086,22.5792],[114.3212,22.505],[114.1412,22.5354],[113.9881,22.6977],[113.9608,22.6995],[113.9802,22.7161],[113.9885,22.8408],[114.0602,22.9523],[114.0779,23.2108],[113.9835,23.3155],[113.9282,23.3191],[113.8142,23.4159],[113.4356,23.4386],[113.2862,23.4203],[113.1891,23.3362],[113.1614,23.3377],[113.0642,23.2447],[113.0601,22.9769],[113.1797,22.8008],[113.1946,22.5591]],[[116.7502,23.1878],[116.7407,23.1073],[116.821,23.0089],[116.8178,22.9821],[116.85,22.85],[117.2,23.0],[117.1089,23.1785],[117.0048,23.3069],[117.0092,23.3427],[116.8548,23.5212],[116.844,23.5857],[116.8418,23.5678],[116.655,23.5589],[116.6333,23.4524],[116.6676,23.3496],[116.6614,23.296],[116.7502,23.1878]],[[97.0,26.2],[97.0,23.6],[98.9,23.9],[99.05,24.3],[98.85,24.8],[98.95,25.3],[98.85,25.8],[98.75,26.2],[97.0,26.2]]],[[[119.95877514779791,30.004363355449573],[119.944,29.78],[119.835,29.523],[119.667,29.432],[119.524,29.503],[119.409,29.506],[119.302,29.465],[119.046,29.306],[118.784,29.227],[118.683,29.174],[118.495,29.024],[118.193,28.976],[118.045,28.908],[117.846,28.738],[117.378,28.675],[117.015,28.539],[116.658,28.531],[116.427,28.629],[116.17613213372263,28.833598288635432],[116.2494,29.2813],[116.2747,29.3255],[116.3894,29.4368],[116.3964,29.5008],[116.5967,29.7256],[116.611,29.7615],[116.7127,29.8368],[116.7179,29.8826],[116.9448,30.05],[117.0043,30.0267],[116.9686,30.0759],[116.9752,30.1309],[117.5136,30.5232],[117.54,30.4838],[117.5251,30.5315],[117.9291,30.8135],[117.8752,30.8832],[117.9407,30.8218],[118.0339,30.8882],[118.1539,31.0734],[118.2384,31.1499],[118.322,31.1426],[118.4421,31.1692],[118.6614,31.1492],[118.6708,31.2138],[118.6944,31.2303],[118.6705,31.1391],[118.8153,31.1163],[118.9597,31.2336],[119.0543,31.4399],[119.1151,31.4903],[119.1466,31.4873],[119.2657,31.5696],[119.4126,31.5553],[119.4709,31.5872],[119.5115,31.5738],[119.5927,31.4813],[119.6975,31.4708],[119.832,31.3164],[119.8362,31.147],[120.0788,30.8871],[120.0665,30.8133],[120.0883,30.7547],[120.0528,30.5428],[120.0111,30.4817],[119.9325,30.3871],[119.8857,30.1674],[119.9119,30.1365],[119.8982,30.0538],[119.95877514779791,30.004363355449573]]],[[[119.6404,34.1236],[119.9932,34.3181],[119.9569,34.3688],[119.9947,34.3274],[120.2945,34.5266],[120.2992,34.5546],[120.6,34.7],[121.5,33.5],[122.3,31.9],[121.9464,31.8452],[121.7889,31.9209],[121.5696,31.956],[121.4817,32.0609],[121.45,32.0645],[121.1197,32.2626],[121.0456,32.2708],[120.9244,32.3786],[120.6775,32.5752],[120.5689,32.7],[120.5892,32.7546],[120.4907,32.8782],[120.4581,33.0706],[120.474,33.1636],[120.3869,33.2954],[120.1621,33.5257],[120.1296,33.5289],[119.9349,33.5477],[119.8315,33.5198],[119.7233,33.53],[119.742,33.5094],[119.5673,33.3747],[119.442,33.4146],[119.3965,33.4753],[119.4263,33.8123],[119.4988,33.8529],[119.6273,34.0397],[119.6404,34.1236]]],[[[118.2117,36.4562],[118.3288,36.476],[118.455,36.5616],[118.4891,36.559],[118.5292,36.518],[118.5973,36.5129],[118.6974,36.4103],[118.7313,36.4077],[118.7712,36.3666],[118.8278,36.3622],[118.9603,36.4088],[119.1299,36.3953],[119.1454,36.4225],[119.1412,36.3944],[119.2784,36.2406],[119.2559,36.2425],[119.2419,36.1486],[119.1912,36.1147],[119.145,36.033],[119.0188,35.9484],[118.9361,35.9265],[118.79,35.9382],[118.6017,35.8107],[118.5938,35.7545],[118.636,35.7323],[118.58,35.7367],[118.6031,35.6591],[118.751,35.5054],[118.8068,35.5009],[118.9309,35.5004],[119.0759,35.5643],[119.1708,35.5944],[119.347,35.7125],[119.3526,35.75],[119.3149,35.8006],[119.3652,35.7584],[119.441,35.809],[119.5306,35.8014],[119.6192,35.8603],[119.6864,35.8545],[119.7118,35.8714],[119.8351,35.8606],[119.8881,35.8369],[120.0238,35.6917],[120.0178,35.6542],[120.4,35.4],[119.7,34.9],[119.4618,35.0577],[119.3992,35.0158],[119.2996,35.0244],[119.1347,34.8964],[119.1305,34.8684],[119.0794,34.8254],[119.067,34.7413],[118.943,34.6572],[118.9389,34.6292],[118.8153,34.5451],[118.4752,34.5822],[118.4071,34.6537],[118.3324,34.6785],[118.3668,34.6852],[118.412,34.8515],[118.5012,34.9295],[118.5141,35.1836],[118.4453,35.2551],[118.3229,35.2646],[118.2637,35.3258],[118.1745,35.3326],[117.8901,35.5709],[117.9316,35.8893],[117.889,35.9113],[117.9453,35.9073],[117.9509,36.1245],[117.9207,36.155],[117.9341,36.2582],[118.2117,36.4562]]],[[[114.7111,36.0597],[114.7435,36.0394],[114.8933,36.0606],[115.0398,36.0443],[115.0961,35.91],[115.0818,35.751],[115.1261,35.7394],[115.1031,35.6091],[115.0881,35.4409],[115.0303,35.425],[115.0204,35.313],[114.9266,35.2707],[114.6658,35.5174],[114.6463,35.8279],[114.6548,35.9307],[114.7314,36.0306],[114.7111,36.0597]]],[[[115.3979,36.1017],[115.4772,36.0976],[115.6186,36.1467],[115.7093,36.1419],[115.7405,36.112],[115.7331,36.0371],[115.9665,35.7607],[115.9324,35.537],[115.7697,35.3769],[115.7772,35.3389],[115.7006,35.3619],[115.5321,35.2491],[115.4391,35.2165],[115.248,35.2171],[115.1417,35.4101],[115.126,35.4859],[115.1557,35.691],[115.165,35.7938],[115.2014,35.8202],[115.2074,35.8857],[115.397,36.0923],[115.3343,36.152],[115.3979,36.1017]]],[[[113.5506,36.0789],[113.6821,36.1679],[113.8301,36.1623],[113.8622,36.1329],[114.1116,36.1137],[114.1329,36.094],[114.1351,35.972],[114.1294,35.8971],[114.0573,35.8438],[114.0482,35.7223],[114.0229,35.6859],[114.1506,35.5776],[114.0738,35.6089],[114.0102,35.6677],[113.6877,35.4276],[113.5639,35.4322],[113.4363,35.3808],[113.3237,35.3848],[113.2489,35.4529],[113.2963,35.4887],[113.2394,35.4813],[113.2096,35.5478],[113.2093,35.7256],[113.2462,35.7711],[113.2258,35.8093],[113.2473,35.7898],[113.3709,35.9447],[113.5165,36.0802],[113.4842,36.1094],[113.5506,36.0789]]]]}},{"type":"Feature","properties":{"side":"added"},"geometry":{"type":"MultiPolygon","coordinates":[[[[98.85,25.8],[98.95,25.3],[98.85,24.8],[99.05,24.3],[98.9,23.9],[97.0,23.6],[97.0,26.2],[98.75,26.2],[98.85,25.8]]],[[[116.474,27.785],[116.402,27.754],[116.324,27.753],[116.251,27.782],[116.195,27.836],[116.164,27.908],[116.12,28.113],[115.7,28.448],[115.626,28.538],[115.592,28.65],[115.603,28.766],[115.658,28.87],[115.748,28.944],[115.86,28.978],[115.976,28.967],[116.08,28.912],[116.17613213372263,28.833598288635432],[116.427,28.629],[116.658,28.531],[117.015,28.539],[117.378,28.675],[117.846,28.738],[118.045,28.908],[118.193,28.976],[118.495,29.024],[118.683,29.174],[118.784,29.227],[119.046,29.306],[119.302,29.465],[119.409,29.506],[119.524,29.503],[119.667,29.432],[119.835,29.523],[119.944,29.78],[119.95877514779791,30.004363355449573],[119.95877514779791,30.004363355449577],[119.971,30.19],[120.001,30.303],[120.072,30.395],[120.173,30.454],[120.29,30.469],[120.403,30.439],[120.495,30.368],[120.554,30.267],[120.569,30.15],[120.539,29.69],[120.516,29.593],[120.346,29.193],[120.292,29.109],[120.181,29.029],[120.213,28.99],[120.237,28.924],[120.277,28.694],[120.274,28.613],[120.195,28.481],[120.39,28.317],[120.765,28.189],[120.832,28.15],[120.88,28.088],[120.9,28.013],[120.889,27.935],[120.85,27.868],[120.788,27.82],[120.713,27.8],[120.635,27.811],[120.225,27.951],[120.162,27.987],[119.792,28.297],[119.744,28.355],[119.721,28.428],[119.727,28.503],[119.851,28.69],[119.738,28.707],[119.646,28.785],[119.581,28.788],[119.452,28.852],[119.256,28.743],[119.012,28.669],[118.807,28.506],[118.667,28.444],[118.37,28.397],[118.165,28.222],[118.089,28.174],[117.514,28.09],[117.171,27.957],[117.076,27.94],[116.556,27.94],[116.528,27.841],[116.474,27.785]]]]}}]}