{"type":"FeatureCollection","source":{"map":"中國軍全般図（昭和十六年八月下旬における）, Senshi Sōsho vol. 55, appendix 2 (NIDS)","map_date":"1941-08 (late August)","url":"https://www.nids.mod.go.jp/military_history_search/SoshoAppendixView?no=055&f=055_294.jpg","original":"JACAR Ref. C11110508500 (支那派遣軍, 16 September 1941)","residuals_km":{"Baotou":19.9,"Guisui":10.4,"Zhangjiakou":9.8,"Datong":6.9,"Beijing":8.9,"Tianjin":1.9,"Taiyuan":8.1,"Shimen":5.9,"Wuzhai":26.0,"Nangong":13.3,"Jinan":4.7,"Jixian":19.8,"Yanan":10.2,"Luoyang":23.5,"Zhengzhou":9.2,"Kaifeng":16.0,"Xuzhou":10.4,"Yancheng":22.7,"Zhenping":4.1,"Laohekou":13.7,"Xinyang":8.0,"Nanzhang":4.9,"Lihuang":17.8,"Xingshan":31.1,"Yichang":10.8,"Hankou":17.1,"Wuchang":3.7,"Haizhou":3.3,"Nanjing":10.9,"Shanghai":3.4,"Hangzhou":2.7,"Ningbo":4.4,"Ningguo":4.0,"Shexian":6.1,"Jinhua":10.1,"Changde":14.4,"Pingjiang":11.3,"Xiushui":3.2,"Nanchang":2.5,"Changsha":14.3,"Yifeng":12.3,"Shanggao":7.9,"Hengyang":4.7,"Guilin":8.3,"Shaoguan":29.8,"Guangzhou":12.6,"Deqing":15.0,"Shangrao":8.6,"Nanping":5.5,"Fuzhou":9.8,"Shantou":6.1,"Xian":8.7,"Chengdu":16.6,"Chongqing":5.9,"Wanxian":10.6,"Qianjiang":34.1,"Hongkong":18.8},"changes":["East Hebei Autonomous Council (冀東防共自治政府, Tongzhou), the Japanese client set up in November 1935 in the 22 counties east of Peiping (no occupation of China proper before the Marco Polo Bridge incident)"]},"features":[{"type":"Feature","properties":{"side":"front"},"geometry":{"type":"LineString","coordinates":[[109.2,43.0],[109.1963,41.5347],[109.2276,41.1257],[109.2631,41.0212],[109.2385,41.0212],[109.2752,41.0117],[109.3831,40.8312],[109.5158,40.7076],[109.4912,40.6982],[109.6618,40.6693],[109.8422,40.5263],[109.9763,40.5257],[110.0122,40.497],[110.402,40.4944],[110.7665,40.4719],[110.8375,40.4142],[111.1909,40.1252],[111.2869,40.1048],[111.4389,39.9793],[111.4727,39.9219],[111.4229,39.8847],[111.4727,39.9219],[111.5181,39.8548],[111.5178,39.5612],[111.7264,39.3966],[111.7192,39.2359],[111.8796,39.3464],[112.0839,39.1246],[112.1383,39.0194],[112.1319,38.651],[112.0713,38.624],[112.0659,38.5109],[111.6501,38.1893],[111.6724,38.1606],[111.6481,38.1422],[111.6939,38.1131],[112.0455,38.087],[112.1132,38.0289],[112.1779,37.9144],[112.1767,37.6508],[111.9106,37.4499],[111.8391,37.4138],[111.6633,37.3893],[111.3141,37.3957],[111.142,37.4737],[111.017,37.579],[110.97,37.5703],[110.8622,37.4872],[110.8468,37.3654],[110.8699,37.3557],[110.8684,37.3087],[110.9365,37.2515],[110.9449,37.1481],[111.0583,37.062],[111.209,37.0596],[111.2806,37.1147],[111.3151,37.1047],[111.3042,37.1236],[111.3752,37.1599],[111.6532,37.1453],[111.6868,37.1164],[111.6825,37.0133],[111.7328,37.1061],[111.7907,37.1049],[111.8904,36.9995],[111.8796,36.7558],[111.9022,36.7459],[111.8508,36.6252],[111.9182,36.5862],[111.9145,36.5019],[111.8435,36.4567],[111.8935,36.5493],[111.8266,36.5976],[111.7576,36.5991],[111.6863,36.5444],[111.5939,36.5369],[111.4517,36.4273],[111.4245,36.3155],[111.4579,36.2868],[111.5954,36.2841],[111.4894,36.2113],[111.483,36.0431],[111.4242,35.9975],[111.3786,35.9984],[111.4121,35.9791],[111.4101,35.923],[111.2229,35.7864],[111.1195,35.7602],[111.0728,35.7236],[110.9476,35.7257],[110.808,35.6158],[110.8967,35.5398],[110.7721,35.551],[110.7435,35.3277],[110.6273,35.2082],[110.6122,35.0501],[110.6343,35.0312],[110.6007,35.041],[110.5068,34.8747],[110.4683,34.6521],[110.5235,34.6142],[110.6128,34.5944],[110.8816,34.5903],[110.9279,34.6453],[110.9386,34.6266],[111.129,34.6232],[111.4469,34.7473],[111.4908,34.7185],[111.4924,34.7649],[111.7782,34.8983],[111.8792,34.8959],[111.9008,34.8767],[111.9261,34.9413],[112.2097,34.9993],[112.8241,34.9347],[112.8267,34.9812],[112.8347,34.925],[112.9787,34.8923],[113.2024,34.8847],[113.5657,34.9555],[113.6471,34.9991],[114.061,34.9824],[114.1685,34.9217],[114.2027,34.9296],[114.1963,34.8457],[114.4046,34.6496],[114.4935,34.6455],[114.5869,34.6973],[114.4335,34.5922],[114.4254,34.4899],[114.5425,34.2883],[114.7172,34.1213],[114.7612,34.1191],[114.8439,34.1803],[114.7369,34.0923],[114.7314,34.0273],[114.9048,33.86],[115.0636,33.7865],[115.1033,33.7377],[115.2094,33.6947],[115.439,33.6821],[115.4844,33.6982],[115.5045,33.6784],[115.529,33.705],[115.7076,33.7321],[116.0582,33.7204],[116.1176,33.7635],[116.6091,33.7321],[116.6517,33.7199],[116.7403,33.6297],[116.8166,33.6245],[116.9342,33.5041],[116.931,33.4762],[117.0773,33.3255],[117.0988,33.2304],[117.2043,33.1105],[117.1897,32.99],[117.2198,32.9691],[117.1875,32.9714],[117.0687,32.8866],[117.0149,32.8905],[116.8846,32.797],[116.9801,32.6875],[116.8599,32.7708],[116.8116,32.7275],[116.7764,32.5154],[116.8246,32.4653],[116.8118,32.4476],[116.9294,32.4392],[117.0411,32.2911],[117.0438,32.1324],[116.8735,32.1449],[117.0533,32.1224],[117.0614,32.0099],[117.1106,31.8851],[117.0299,31.8353],[117.1307,31.8743],[117.4336,31.5621],[117.4909,31.5948],[117.4441,31.5612],[117.436,31.4967],[117.5564,31.3566],[117.5761,31.2619],[117.563,31.0768],[117.5537,31.0032],[117.4841,30.953],[117.4736,30.8702],[117.2542,30.7114],[117.2715,30.6822],[117.2426,30.7031],[117.1688,30.6996],[116.8923,30.4894],[116.7831,30.3588],[116.848,30.289],[116.7696,30.332],[116.668,30.1731],[116.6185,30.1029],[116.5392,30.0441],[116.5361,30.0166],[116.495,30.0197],[116.3624,29.9463],[116.192,29.9033],[115.9742,29.9003],[115.9574,29.9383],[115.8442,29.9461],[115.8254,29.9659],[115.7636,29.9701],[115.6978,30.039],[115.6359,30.0431],[115.3985,30.1691],[115.3113,30.2392],[115.2777,30.2136],[115.301,30.2398],[115.2973,30.3138],[115.0693,30.5674],[115.0269,30.5607],[115.0605,30.5864],[115.0735,30.7333],[115.0244,30.8931],[115.0252,31.0223],[114.9767,31.0713],[114.9854,31.1725],[114.9563,31.2019],[114.9594,31.2387],[114.7739,31.4247],[114.8192,31.4592],[114.7421,31.4264],[114.5849,31.5828],[114.5582,31.6489],[114.5716,31.8147],[114.6057,31.8407],[114.6374,32.0983],[114.4866,32.2265],[114.3588,32.2422],[114.3359,32.2248],[114.2288,32.23],[114.1945,32.2038],[114.0446,32.0629],[114.0412,32.0168],[113.9838,31.9639],[113.9805,31.9179],[113.811,31.787],[113.5747,31.7697],[113.4788,31.7738],[113.4114,31.7212],[113.3698,31.5661],[113.416,31.4535],[113.4069,31.3064],[113.34,31.2539],[113.3094,31.2736],[113.3289,31.2452],[113.231,31.2031],[112.9662,31.2044],[112.617,31.2173],[112.5728,31.182],[112.5411,31.1831],[112.3101,30.9978],[112.2793,31.0171],[112.2992,30.9889],[112.2229,30.9363],[112.0405,30.8685],[111.9554,30.8526],[111.8942,30.9095],[111.8918,30.8453],[111.87,30.8276],[111.5738,30.8082],[111.5536,30.8362],[111.5738,30.8082],[111.4547,30.7103],[111.4538,30.6828],[111.5562,30.5885],[111.555,30.5519],[111.6162,30.4953],[111.594,30.4592],[111.6261,30.4767],[111.6751,30.3746],[111.7769,30.2893],[112.2053,30.2762],[112.2451,30.2291],[112.3185,30.2358],[112.3786,30.1788],[112.7847,30.1641],[112.8183,30.2086],[113.026,30.1913],[113.1956,30.2393],[113.2383,30.2559],[113.4152,30.2482],[113.4591,30.283],[113.5632,30.2783],[113.5724,30.2595],[113.6348,30.2566],[113.7223,30.1607],[113.7644,30.1679],[113.7309,30.1327],[113.7042,29.8862],[113.5949,29.7996],[113.4294,29.6331],[113.4169,29.597],[113.4374,29.5961],[113.406,29.5884],[113.3713,29.5258],[113.3522,29.3802],[113.3814,29.3515],[113.6148,29.304],[113.6455,29.3025],[113.7539,29.3888],[113.8461,29.3843],[113.9972,29.4866],[114.1101,29.4807],[114.1428,29.5065],[114.3815,29.5304],[114.4686,29.5898],[114.9294,29.5539],[114.942,29.5807],[114.9602,29.5521],[115.1225,29.5237],[115.2693,29.4409],[115.3017,29.4572],[115.2787,29.4311],[115.2848,29.3848],[115.4623,29.1986],[115.5539,29.1924],[115.4792,29.1607],[115.4672,29.0329],[115.4991,28.9389],[115.5824,28.8506],[115.7138,28.8415],[115.6157,28.7749],[115.6096,28.711],[115.7775,28.5616],[115.8205,28.5861],[115.826,28.5398],[115.9868,28.5281],[115.995,28.5091],[115.9978,28.5365],[116.1079,28.6202],[116.1165,28.7022],[116.1616,28.7448],[116.2494,29.2813],[116.2747,29.3255],[116.3894,29.4368],[116.3964,29.5008],[116.5967,29.7256],[116.611,29.7615],[116.7127,29.8368],[116.7179,29.8826],[116.9448,30.05],[117.0043,30.0267],[116.9686,30.0759],[116.9752,30.1309],[117.5136,30.5232],[117.54,30.4838],[117.5251,30.5315],[117.9291,30.8135],[117.8752,30.8832],[117.9407,30.8218],[118.0339,30.8882],[118.1539,31.0734],[118.2384,31.1499],[118.2017,31.1905],[118.2384,31.1499],[118.322,31.1426],[118.4421,31.1692],[118.6614,31.1492],[118.6708,31.2138],[118.6944,31.2303],[118.6705,31.1391],[118.8153,31.1163],[118.9597,31.2336],[119.0543,31.4399],[119.1151,31.4903],[119.1466,31.4873],[119.2657,31.5696],[119.4126,31.5553],[119.4709,31.5872],[119.5115,31.5738],[119.5927,31.4813],[119.6975,31.4708],[119.832,31.3164],[119.8664,31.3316],[119.832,31.3164],[119.8362,31.147],[120.0788,30.8871],[120.0665,30.8133],[120.0883,30.7547],[120.0528,30.5428],[120.0111,30.4817],[120.0596,30.4577],[120.0111,30.4817],[119.9325,30.3871],[119.8857,30.1674],[119.9119,30.1365],[119.8982,30.0538],[120.0173,29.9566],[120.1297,29.9443],[120.165,29.9685],[120.3827,29.9629],[120.626,29.9258],[121.0593,29.903],[121.1358,29.9221],[121.2107,29.9883],[121.4197,29.9346],[121.4703,29.8718],[121.549,29.7396],[121.5366,29.6753],[121.5719,29.6426],[121.5767,29.6138],[121.6626,29.5747],[121.8651,29.5487],[121.8908,29.5737],[122.0104,29.5487],[122.1696,29.5655],[123.0,29.4]]}},{"type":"Feature","properties":{"side":"japanese"},"geometry":{"type":"Polygon","coordinates":[[[116.4,40.7],[116.9,40.8],[117.5,40.6],[118.2,40.4],[119.0,40.35],[119.6,40.2],[119.9,39.95],[119.55,39.65],[119.1,39.25],[118.6,39.1],[118.1,39.12],[117.65,39.22],[117.35,39.5],[117.0,39.68],[116.75,39.78],[116.5,39.95],[116.2,40.15],[116.1,40.45],[116.4,40.7]]]}},{"type":"Feature","properties":{"side":"chinese"},"geometry":{"type":"Polygon","coordinates":[[[70.0,15.0],[70.0,56.0],[140.0,56.0],[140.0,15.0],[70.0,15.0]],[[116.1,40.45],[116.2,40.15],[116.5,39.95],[116.75,39.78],[117.0,39.68],[117.35,39.5],[117.65,39.22],[118.1,39.12],[118.6,39.1],[119.1,39.25],[119.55,39.65],[119.9,39.95],[119.6,40.2],[119.0,40.35],[118.2,40.4],[117.5,40.6],[116.9,40.8],[116.4,40.7],[116.1,40.45]]]}},{"type":"Feature","properties":{"side":"mmg"},"geometry":{"type":"Polygon","coordinates":[[[111.4,43.0],[111.4,46.9],[120.2,46.9],[120.2,44.6],[119.0,43.5],[117.5,42.45],[116.5,42.05],[115.7,41.85],[114.8,41.5],[113.4,41.45],[112.0,41.65],[111.4,43.0]]]}},{"type":"Feature","properties":{"side":"added"},"geometry":{"type":"Polygon","coordinates":[[[116.4,40.7],[116.9,40.8],[117.5,40.6],[118.2,40.4],[119.0,40.35],[119.6,40.2],[119.9,39.95],[119.55,39.65],[119.1,39.25],[118.6,39.1],[118.1,39.12],[117.65,39.22],[117.35,39.5],[117.0,39.68],[116.75,39.78],[116.5,39.95],[116.2,40.15],[116.1,40.45],[116.4,40.7]]]}}]}