{"type":"FeatureCollection","source":{"archive":"CAMO, Bestand 500, Findbuch 12457, Akte 1164","map_date":"1944-09-01","url":"https://wwii.germandocsinrussia.org/de/nodes/23685-akte-1164-unterlagen-der-operationsabteilung-iiib-des-generalstabs-des-heeres-im-okh-karte-lage-ost-karte-zur-lage-der-truppen-der-wehrmacht-an-der-deutsch-sowjetischen-front-einschlie-lich-der-lage-der-verb-nde-der-roten-armee-stand-01-09-1944","residuals_km":{"1613693":{"Moskau":0.4,"Leningrad":6.5,"Riga":5.8,"Smolensk":3.6,"Kalinin":6.4,"Tschernigow":3.0,"Borissow":2.6,"Minsk":2.6,"Kiew":0.6,"Nowgorod":1.6,"Brjansk":7.8,"Gomel":1.7,"Kauen":5.3,"Tula":5.4,"Witebsk":5.7,"Orel":1.1,"Kursk":0.7,"Charkow":1.6,"Shitomir":4.2,"Reval":3.0},"1613694":{"Debrecen":7.8,"Bukarest":11.3,"Odessa":3.8,"Czernowitz":6.0,"Kronstadt":7.1,"Jassy":2.2,"Galatz":16.9,"Szeged":12.9,"Kirowograd":6.8,"Nikolajew":10.3,"Uman":13.0,"Komorn":4.9,"Przemysl":4.4,"Kischinew":1.0,"Temeschburg":11.4,"Budapest":13.3,"Belgrad":12.4}}},"features":[{"type":"Feature","properties":{"side":"front"},"geometry":{"type":"LineString","coordinates":[[28.0,59.35],[27.6,58.95],[27.3,58.45],[26.9,57.9],[26.4,57.5],[25.7,57.2],[25.0,56.9],[24.4,56.72],[23.9,56.6],[23.4,56.55],[23.0,56.4],[22.6,55.9],[22.9,55.4],[23.0,55.0],[22.7,54.6],[22.6,54.2],[22.4,53.7],[21.8,53.3],[21.2,52.85],[21.0,52.35],[21.4,51.8],[21.8,51.4],[21.7,51.0],[21.4,50.6],[21.6,50.2],[22.3,49.8],[22.4,49.4],[23.0,49.1],[23.7,48.75],[24.3,48.35],[24.6,47.95],[25.0,47.6],[25.5,47.3],[25.9,47.0],[26.0,46.5],[26.2,46.0],[26.4,45.6],[26.0,45.3],[25.3,45.25],[24.4,45.25],[23.5,45.3],[22.9,45.1],[22.5,44.7]]}},{"type":"Feature","properties":{"side":"soviet"},"geometry":{"type":"Polygon","coordinates":[[[28.0,59.35],[27.0,59.95],[27.0,90.0],[180.0,90.0],[180.0,0.0],[22.5,0.0],[22.5,44.7],[22.9,45.1],[23.5,45.3],[24.4,45.25],[25.3,45.25],[26.0,45.3],[26.4,45.6],[26.2,46.0],[26.0,46.5],[25.9,47.0],[25.5,47.3],[25.0,47.6],[24.6,47.95],[24.3,48.35],[23.7,48.75],[23.0,49.1],[22.4,49.4],[22.3,49.8],[21.6,50.2],[21.4,50.6],[21.7,51.0],[21.8,51.4],[21.4,51.8],[21.0,52.35],[21.2,52.85],[21.8,53.3],[22.4,53.7],[22.6,54.2],[22.7,54.6],[23.0,55.0],[22.9,55.4],[22.6,55.9],[23.0,56.4],[23.4,56.55],[23.9,56.6],[24.4,56.72],[25.0,56.9],[25.7,57.2],[26.4,57.5],[26.9,57.9],[27.3,58.45],[27.6,58.95],[28.0,59.35]]]}},{"type":"Feature","properties":{"side":"axis"},"geometry":{"type":"Polygon","coordinates":[[[-30.0,0.0],[-30.0,90.0],[27.0,90.0],[27.0,59.95],[28.0,59.35],[27.6,58.95],[27.3,58.45],[26.9,57.9],[26.4,57.5],[25.7,57.2],[25.0,56.9],[24.4,56.72],[23.9,56.6],[23.4,56.55],[23.0,56.4],[22.6,55.9],[22.9,55.4],[23.0,55.0],[22.7,54.6],[22.6,54.2],[22.4,53.7],[21.8,53.3],[21.2,52.85],[21.0,52.35],[21.4,51.8],[21.8,51.4],[21.7,51.0],[21.4,50.6],[21.6,50.2],[22.3,49.8],[22.4,49.4],[23.0,49.1],[23.7,48.75],[24.3,48.35],[24.6,47.95],[25.0,47.6],[25.5,47.3],[25.9,47.0],[26.0,46.5],[26.2,46.0],[26.4,45.6],[26.0,45.3],[25.3,45.25],[24.4,45.25],[23.5,45.3],[22.9,45.1],[22.5,44.7],[22.5,0.0],[-30.0,0.0]]]}}]}