{"type":"FeatureCollection","source":{"archive":"CAMO, Bestand 500, Findbuch 12457, Akte 1194","map_date":"1944-10-01","url":"https://wwii.germandocsinrussia.org/de/nodes/23715-akte-1194-unterlagen-der-operationsabteilung-iiib-des-generalstabs-des-heeres-im-okh-karte-lage-ost-karte-zur-lage-der-truppen-der-wehrmacht-an-der-deutsch-sowjetischen-front-einschlie-lich-der-lage-der-verb-nde-der-roten-armee-stand-01-10-1944","residuals_km":{"1613753":{"Riga":9.4,"Minsk":4.8,"Warschau":7.8,"Königsberg":16.7,"Kauen":6.5,"Krakau":3.5,"Reval":2.0,"Smolensk":1.7,"Kiew":0.9,"Danzig":4.9,"Memel":7.7,"Pleskau":2.4,"Lublin":1.3},"1613754":{"Debrecen":6.5,"Bukarest":15.3,"Odessa":4.0,"Czernowitz":7.0,"Kronstadt":8.9,"Jassy":2.5,"Galatz":16.0,"Szeged":10.8,"Kirowograd":6.9,"Nikolajew":11.5,"Uman":13.7,"Komorn":4.2,"Przemysl":12.2,"Kischinew":2.6,"Temeschburg":8.8,"Oppeln":5.1,"Budapest":11.7,"Belgrad":13.3}}},"features":[{"type":"Feature","properties":{"side":"front"},"geometry":{"type":"LineString","coordinates":[[24.35,57.87],[24.75,57.5],[24.6,57.15],[24.4,56.85],[23.9,56.6],[23.3,56.55],[22.6,56.3],[22.0,56.0],[21.5,55.6],[22.0,55.2],[22.6,54.9],[22.7,54.4],[22.4,53.9],[21.8,53.3],[21.2,52.85],[21.0,52.25],[21.4,51.8],[21.8,51.4],[21.7,51.0],[21.4,50.6],[21.6,50.2],[21.9,49.6],[22.4,49.15],[22.9,48.7],[23.6,48.3],[24.5,47.9],[25.0,47.5],[24.6,47.0],[23.9,46.6],[23.0,46.35],[22.3,46.0],[21.9,45.6],[21.6,45.1],[22.3,44.65],[22.6,44.3]]}},{"type":"Feature","properties":{"side":"soviet"},"geometry":{"type":"Polygon","coordinates":[[[24.35,57.87],[24.35,57.9],[23.6,58.05],[23.45,58.5],[23.2,59.3],[22.0,59.6],[22.0,90.0],[180.0,90.0],[180.0,0.0],[22.6,0.0],[22.6,44.3],[22.3,44.65],[21.6,45.1],[21.9,45.6],[22.3,46.0],[23.0,46.35],[23.9,46.6],[24.6,47.0],[25.0,47.5],[24.5,47.9],[23.6,48.3],[22.9,48.7],[22.4,49.15],[21.9,49.6],[21.6,50.2],[21.4,50.6],[21.7,51.0],[21.8,51.4],[21.4,51.8],[21.0,52.25],[21.2,52.85],[21.8,53.3],[22.4,53.9],[22.7,54.4],[22.6,54.9],[22.0,55.2],[21.5,55.6],[22.0,56.0],[22.6,56.3],[23.3,56.55],[23.9,56.6],[24.4,56.85],[24.6,57.15],[24.75,57.5],[24.35,57.87]]]}},{"type":"Feature","properties":{"side":"axis"},"geometry":{"type":"Polygon","coordinates":[[[-30.0,0.0],[-30.0,90.0],[22.0,90.0],[22.0,59.6],[23.2,59.3],[23.45,58.5],[23.6,58.05],[24.35,57.9],[24.35,57.87],[24.75,57.5],[24.6,57.15],[24.4,56.85],[23.9,56.6],[23.3,56.55],[22.6,56.3],[22.0,56.0],[21.5,55.6],[22.0,55.2],[22.6,54.9],[22.7,54.4],[22.4,53.9],[21.8,53.3],[21.2,52.85],[21.0,52.25],[21.4,51.8],[21.8,51.4],[21.7,51.0],[21.4,50.6],[21.6,50.2],[21.9,49.6],[22.4,49.15],[22.9,48.7],[23.6,48.3],[24.5,47.9],[25.0,47.5],[24.6,47.0],[23.9,46.6],[23.0,46.35],[22.3,46.0],[21.9,45.6],[21.6,45.1],[22.3,44.65],[22.6,44.3],[22.6,0.0],[-30.0,0.0]]]}}]}