{"type":"FeatureCollection","source":{"archive":"CAMO, Bestand 500, Findbuch 12457, Akte 1072","map_date":"1944-06-01","url":"https://wwii.germandocsinrussia.org/de/nodes/23593-akte-1072-unterlagen-der-operationsabteilung-iiib-des-generalstabs-des-heeres-im-okh-karte-lage-ost-karte-zur-lage-der-truppen-der-wehrmacht-an-der-deutsch-sowjetischen-front-einschlie-lich-der-lage-der-verb-nde-der-roten-armee-stand-01-06-1944","residuals_km":{"1613508":{"Moskau":0.3,"Leningrad":6.3,"Riga":5.7,"Smolensk":3.7,"Kalinin":6.2,"Tschernigow":3.1,"Borissow":2.6,"Minsk":2.5,"Kiew":0.4,"Nowgorod":1.8,"Brjansk":7.8,"Gomel":1.8,"Kauen":5.0,"Tula":5.1,"Witebsk":5.8,"Orel":1.0,"Kursk":0.7,"Charkow":1.7,"Shitomir":4.2,"Reval":3.3},"1613509":{"Debrecen":7.9,"Bukarest":11.4,"Odessa":3.8,"Czernowitz":6.1,"Kronstadt":7.2,"Jassy":2.2,"Galatz":17.0,"Szeged":12.9,"Kirowograd":6.8,"Nikolajew":10.3,"Uman":13.0,"Komorn":4.9,"Przemysl":4.3,"Kischinew":1.0,"Temeschburg":11.4,"Budapest":13.3,"Belgrad":12.4}}},"features":[{"type":"Feature","properties":{"side":"front"},"geometry":{"type":"LineString","coordinates":[[28.25,59.62],[28.2,59.35],[28.0,59.12],[27.75,58.95],[27.75,58.7],[27.6,58.3],[28.0,58.0],[28.5,57.85],[28.55,57.6],[28.7,57.35],[29.0,57.1],[29.95,55.95],[30.15,55.7],[30.6,55.5],[30.9,55.3],[31.0,55.05],[31.2,54.75],[31.4,54.45],[31.5,54.0],[30.9,53.6],[30.4,53.25],[30.0,52.9],[29.7,52.6],[29.2,52.3],[28.6,52.1],[27.6,51.8],[26.6,51.7],[25.5,51.8],[25.1,51.5],[24.8,51.15],[25.0,50.4],[25.2,50.0],[25.0,49.6],[25.2,49.1],[24.9,48.7],[25.1,48.3],[25.8,47.95],[26.3,47.75],[26.8,47.45],[27.3,47.3],[27.75,47.2],[28.1,47.05],[28.7,46.9],[29.3,46.75],[29.6,46.5],[29.75,46.2],[29.95,45.8],[30.2,45.75],[30.4,45.6]]}},{"type":"Feature","properties":{"side":"soviet"},"geometry":{"type":"Polygon","coordinates":[[[28.25,59.62],[27.0,59.95],[27.0,90.0],[180.0,90.0],[180.0,0.0],[30.4,0.0],[30.4,45.6],[30.2,45.75],[29.95,45.8],[29.75,46.2],[29.6,46.5],[29.3,46.75],[28.7,46.9],[28.1,47.05],[27.75,47.2],[27.3,47.3],[26.8,47.45],[26.3,47.75],[25.8,47.95],[25.1,48.3],[24.9,48.7],[25.2,49.1],[25.0,49.6],[25.2,50.0],[25.0,50.4],[24.8,51.15],[25.1,51.5],[25.5,51.8],[26.6,51.7],[27.6,51.8],[28.6,52.1],[29.2,52.3],[29.7,52.6],[30.0,52.9],[30.4,53.25],[30.9,53.6],[31.5,54.0],[31.4,54.45],[31.2,54.75],[31.0,55.05],[30.9,55.3],[30.6,55.5],[30.15,55.7],[29.95,55.95],[29.0,57.1],[28.7,57.35],[28.55,57.6],[28.5,57.85],[28.0,58.0],[27.6,58.3],[27.75,58.7],[27.75,58.95],[28.0,59.12],[28.2,59.35],[28.25,59.62]]]}},{"type":"Feature","properties":{"side":"axis"},"geometry":{"type":"Polygon","coordinates":[[[-30.0,0.0],[-30.0,90.0],[27.0,90.0],[27.0,59.95],[28.25,59.62],[28.2,59.35],[28.0,59.12],[27.75,58.95],[27.75,58.7],[27.6,58.3],[28.0,58.0],[28.5,57.85],[28.55,57.6],[28.7,57.35],[29.0,57.1],[29.95,55.95],[30.15,55.7],[30.6,55.5],[30.9,55.3],[31.0,55.05],[31.2,54.75],[31.4,54.45],[31.5,54.0],[30.9,53.6],[30.4,53.25],[30.0,52.9],[29.7,52.6],[29.2,52.3],[28.6,52.1],[27.6,51.8],[26.6,51.7],[25.5,51.8],[25.1,51.5],[24.8,51.15],[25.0,50.4],[25.2,50.0],[25.0,49.6],[25.2,49.1],[24.9,48.7],[25.1,48.3],[25.8,47.95],[26.3,47.75],[26.8,47.45],[27.3,47.3],[27.75,47.2],[28.1,47.05],[28.7,46.9],[29.3,46.75],[29.6,46.5],[29.75,46.2],[29.95,45.8],[30.2,45.75],[30.4,45.6],[30.4,0.0],[-30.0,0.0]]]}}]}