{"type":"FeatureCollection","source":{"archive":"CAMO, Bestand 500, Findbuch 12457, Akte 1133","map_date":"1944-08-01","url":"https://wwii.germandocsinrussia.org/de/nodes/23654-akte-1133-unterlagen-der-operationsabteilung-iiib-des-generalstabs-des-heeres-im-okh-karte-lage-ost-karte-zur-lage-der-truppen-der-wehrmacht-an-der-deutsch-sowjetischen-front-einschlie-lich-der-lage-der-verb-nde-der-roten-armee-stand-01-08-1944","residuals_km":{"1613630":{"Moskau":0.3,"Leningrad":6.4,"Riga":5.7,"Smolensk":3.7,"Kalinin":6.3,"Tschernigow":3.1,"Borissow":2.6,"Minsk":2.5,"Kiew":0.5,"Nowgorod":1.7,"Brjansk":7.9,"Gomel":1.8,"Kauen":5.2,"Tula":5.3,"Witebsk":5.8,"Orel":1.1,"Kursk":0.6,"Charkow":1.6,"Shitomir":4.2,"Reval":3.2},"1613631":{"Debrecen":7.9,"Bukarest":11.3,"Odessa":3.8,"Czernowitz":6.1,"Kronstadt":7.1,"Jassy":2.2,"Galatz":16.9,"Szeged":12.9,"Kirowograd":6.8,"Nikolajew":10.3,"Uman":13.0,"Komorn":4.9,"Przemysl":4.3,"Kischinew":0.9,"Temeschburg":11.4,"Budapest":13.3,"Belgrad":12.4}}},"features":[{"type":"Feature","properties":{"side":"front"},"geometry":{"type":"LineString","coordinates":[[28.0,59.35],[27.6,58.95],[27.3,58.45],[26.9,57.9],[26.4,57.5],[25.7,57.2],[25.0,56.9],[24.4,56.72],[23.9,56.6],[23.5,56.75],[23.25,57.0],[23.0,56.75],[22.8,56.4],[22.8,55.9],[23.0,55.45],[23.5,55.1],[23.9,54.9],[23.4,54.6],[23.1,54.1],[22.9,53.6],[22.3,53.2],[21.8,52.75],[21.2,52.35],[21.4,51.8],[21.8,51.4],[21.7,51.0],[21.4,50.6],[21.6,50.2],[22.3,49.9],[22.8,49.6],[23.5,49.3],[24.3,48.95],[24.8,48.65],[25.1,48.3],[25.8,47.95],[26.3,47.75],[26.8,47.45],[27.3,47.3],[27.75,47.2],[28.1,47.05],[28.7,46.9],[29.3,46.75],[29.6,46.5],[29.75,46.2],[29.95,45.8],[30.2,45.75],[30.4,45.6]]}},{"type":"Feature","properties":{"side":"soviet"},"geometry":{"type":"Polygon","coordinates":[[[28.0,59.35],[27.0,59.95],[27.0,90.0],[180.0,90.0],[180.0,0.0],[30.4,0.0],[30.4,45.6],[30.2,45.75],[29.95,45.8],[29.75,46.2],[29.6,46.5],[29.3,46.75],[28.7,46.9],[28.1,47.05],[27.75,47.2],[27.3,47.3],[26.8,47.45],[26.3,47.75],[25.8,47.95],[25.1,48.3],[24.8,48.65],[24.3,48.95],[23.5,49.3],[22.8,49.6],[22.3,49.9],[21.6,50.2],[21.4,50.6],[21.7,51.0],[21.8,51.4],[21.4,51.8],[21.2,52.35],[21.8,52.75],[22.3,53.2],[22.9,53.6],[23.1,54.1],[23.4,54.6],[23.9,54.9],[23.5,55.1],[23.0,55.45],[22.8,55.9],[22.8,56.4],[23.0,56.75],[23.25,57.0],[23.5,56.75],[23.9,56.6],[24.4,56.72],[25.0,56.9],[25.7,57.2],[26.4,57.5],[26.9,57.9],[27.3,58.45],[27.6,58.95],[28.0,59.35]]]}},{"type":"Feature","properties":{"side":"axis"},"geometry":{"type":"Polygon","coordinates":[[[-30.0,0.0],[-30.0,90.0],[27.0,90.0],[27.0,59.95],[28.0,59.35],[27.6,58.95],[27.3,58.45],[26.9,57.9],[26.4,57.5],[25.7,57.2],[25.0,56.9],[24.4,56.72],[23.9,56.6],[23.5,56.75],[23.25,57.0],[23.0,56.75],[22.8,56.4],[22.8,55.9],[23.0,55.45],[23.5,55.1],[23.9,54.9],[23.4,54.6],[23.1,54.1],[22.9,53.6],[22.3,53.2],[21.8,52.75],[21.2,52.35],[21.4,51.8],[21.8,51.4],[21.7,51.0],[21.4,50.6],[21.6,50.2],[22.3,49.9],[22.8,49.6],[23.5,49.3],[24.3,48.95],[24.8,48.65],[25.1,48.3],[25.8,47.95],[26.3,47.75],[26.8,47.45],[27.3,47.3],[27.75,47.2],[28.1,47.05],[28.7,46.9],[29.3,46.75],[29.6,46.5],[29.75,46.2],[29.95,45.8],[30.2,45.75],[30.4,45.6],[30.4,0.0],[-30.0,0.0]]]}}]}