{"type":"FeatureCollection","source":{"archive":"CAMO, Bestand 500, Findbuch 12457, Akte 1102","map_date":"1944-07-01","url":"https://wwii.germandocsinrussia.org/de/nodes/23623-akte-1102-unterlagen-der-operationsabteilung-iiib-des-generalstabs-des-heeres-im-okh-karte-lage-ost-karte-zur-lage-der-truppen-der-wehrmacht-an-der-deutsch-sowjetischen-front-einschlie-lich-der-lage-der-verb-nde-der-roten-armee-stand-01-07-1944","residuals_km":{"1613568":{"Moskau":0.4,"Leningrad":6.3,"Riga":5.7,"Smolensk":3.7,"Kalinin":6.2,"Tschernigow":3.1,"Borissow":2.6,"Minsk":2.5,"Kiew":0.5,"Nowgorod":1.8,"Brjansk":7.9,"Gomel":1.8,"Kauen":5.0,"Tula":5.1,"Witebsk":5.8,"Orel":1.0,"Kursk":0.7,"Charkow":1.6,"Shitomir":4.2,"Reval":3.2},"1613569":{"Debrecen":7.9,"Bukarest":11.3,"Odessa":3.8,"Czernowitz":6.0,"Kronstadt":7.3,"Jassy":2.3,"Galatz":17.0,"Szeged":12.8,"Kirowograd":6.7,"Nikolajew":10.4,"Uman":13.0,"Komorn":4.9,"Przemysl":4.4,"Kischinew":0.9,"Temeschburg":11.3,"Budapest":13.3,"Belgrad":12.2}}},"features":[{"type":"Feature","properties":{"side":"front"},"geometry":{"type":"LineString","coordinates":[[28.25,59.62],[28.2,59.35],[28.0,59.12],[27.75,58.95],[27.75,58.7],[27.6,58.3],[28.0,58.0],[28.5,57.85],[28.55,57.6],[28.7,57.35],[29.0,57.1],[29.4,56.85],[29.4,56.3],[28.7,55.9],[28.4,55.6],[28.6,55.2],[29.0,54.8],[28.9,54.4],[28.6,54.0],[28.3,53.6],[28.4,53.1],[28.0,52.6],[27.6,52.1],[26.6,51.8],[25.5,51.8],[25.1,51.5],[24.8,51.15],[25.0,50.4],[25.2,50.0],[25.0,49.6],[25.2,49.1],[24.9,48.7],[25.1,48.3],[25.8,47.95],[26.3,47.75],[26.8,47.45],[27.3,47.3],[27.75,47.2],[28.1,47.05],[28.7,46.9],[29.3,46.75],[29.6,46.5],[29.75,46.2],[29.95,45.8],[30.2,45.75],[30.4,45.6]]}},{"type":"Feature","properties":{"side":"soviet"},"geometry":{"type":"Polygon","coordinates":[[[28.25,59.62],[27.0,59.95],[27.0,90.0],[180.0,90.0],[180.0,0.0],[30.4,0.0],[30.4,45.6],[30.2,45.75],[29.95,45.8],[29.75,46.2],[29.6,46.5],[29.3,46.75],[28.7,46.9],[28.1,47.05],[27.75,47.2],[27.3,47.3],[26.8,47.45],[26.3,47.75],[25.8,47.95],[25.1,48.3],[24.9,48.7],[25.2,49.1],[25.0,49.6],[25.2,50.0],[25.0,50.4],[24.8,51.15],[25.1,51.5],[25.5,51.8],[26.6,51.8],[27.6,52.1],[28.0,52.6],[28.4,53.1],[28.3,53.6],[28.6,54.0],[28.9,54.4],[29.0,54.8],[28.6,55.2],[28.4,55.6],[28.7,55.9],[29.4,56.3],[29.4,56.85],[29.0,57.1],[28.7,57.35],[28.55,57.6],[28.5,57.85],[28.0,58.0],[27.6,58.3],[27.75,58.7],[27.75,58.95],[28.0,59.12],[28.2,59.35],[28.25,59.62]]]}},{"type":"Feature","properties":{"side":"axis"},"geometry":{"type":"Polygon","coordinates":[[[-30.0,0.0],[-30.0,90.0],[27.0,90.0],[27.0,59.95],[28.25,59.62],[28.2,59.35],[28.0,59.12],[27.75,58.95],[27.75,58.7],[27.6,58.3],[28.0,58.0],[28.5,57.85],[28.55,57.6],[28.7,57.35],[29.0,57.1],[29.4,56.85],[29.4,56.3],[28.7,55.9],[28.4,55.6],[28.6,55.2],[29.0,54.8],[28.9,54.4],[28.6,54.0],[28.3,53.6],[28.4,53.1],[28.0,52.6],[27.6,52.1],[26.6,51.8],[25.5,51.8],[25.1,51.5],[24.8,51.15],[25.0,50.4],[25.2,50.0],[25.0,49.6],[25.2,49.1],[24.9,48.7],[25.1,48.3],[25.8,47.95],[26.3,47.75],[26.8,47.45],[27.3,47.3],[27.75,47.2],[28.1,47.05],[28.7,46.9],[29.3,46.75],[29.6,46.5],[29.75,46.2],[29.95,45.8],[30.2,45.75],[30.4,45.6],[30.4,0.0],[-30.0,0.0]]]}}]}