{"type":"FeatureCollection","source":{"archive":"CAMO, Bestand 500, Findbuch 12457, Akte 983","map_date":"1944-03-01","url":"https://wwii.germandocsinrussia.org/de/nodes/23504-akte-983-unterlagen-der-operationsabteilung-iiib-des-generalstabs-des-heeres-im-okh-karte-lage-ost-karte-zur-lage-der-truppen-der-wehrmacht-an-der-deutsch-sowjetischen-front-einschlie-lich-der-lage-der-verb-nde-der-roten-armee-stand-01-03-1944","residuals_km":{"1613330":{"Moskau":0.2,"Leningrad":6.3,"Riga":5.7,"Smolensk":3.7,"Kalinin":6.1,"Tschernigow":3.2,"Borissow":2.6,"Minsk":2.5,"Kiew":0.4,"Nowgorod":1.8,"Brjansk":7.9,"Gomel":1.9,"Kauen":5.0,"Tula":5.0,"Witebsk":5.8,"Orel":1.0,"Kursk":0.6,"Charkow":1.8,"Shitomir":4.2,"Reval":3.4},"1613331":{"Sewastopol":7.7,"Kertsch":8.8,"Simferopol":0.9,"Odessa":12.1,"Krementschug":12.4,"Rostow":5.0,"Taganrog":2.1,"Makejewka":4.5,"Dnjepropetrowsk":2.7,"Saporoshje":3.8,"Melitopol":5.8,"Kirowograd":21.3,"Poltawa":5.0,"Nikolajew":8.6,"Charkow":3.7,"Uman":6.8}}},"features":[{"type":"Feature","properties":{"side":"front"},"geometry":{"type":"LineString","coordinates":[[28.25,59.62],[28.2,59.35],[28.0,59.12],[27.75,58.95],[27.75,58.7],[27.6,58.3],[28.0,58.0],[28.5,57.85],[28.55,57.6],[28.7,57.35],[29.0,57.1],[29.4,56.85],[29.7,56.5],[29.9,56.2],[29.95,55.95],[30.15,55.7],[30.6,55.5],[30.9,55.3],[31.0,55.05],[31.2,54.75],[31.4,54.45],[31.5,54.0],[30.9,53.6],[30.4,53.25],[30.0,52.9],[29.7,52.6],[29.2,52.3],[28.6,52.1],[27.6,51.8],[26.8,51.5],[26.0,51.4],[25.6,51.2],[25.3,51.0],[25.9,50.6],[26.6,50.25],[27.2,50.1],[27.8,49.95],[28.4,49.8],[29.0,49.5],[29.6,49.25],[30.2,49.0],[30.8,48.8],[31.4,48.55],[32.0,48.3],[32.6,48.0],[33.1,47.75],[33.3,47.4],[33.1,47.0],[32.8,46.75],[32.6,46.6],[32.4,46.5],[32.0,46.3]]}},{"type":"Feature","properties":{"side":"soviet"},"geometry":{"type":"Polygon","coordinates":[[[28.25,59.62],[27.0,59.95],[27.0,90.0],[180.0,90.0],[180.0,0.0],[32.0,0.0],[32.0,46.3],[32.4,46.5],[32.6,46.6],[32.8,46.75],[33.1,47.0],[33.3,47.4],[33.1,47.75],[32.6,48.0],[32.0,48.3],[31.4,48.55],[30.8,48.8],[30.2,49.0],[29.6,49.25],[29.0,49.5],[28.4,49.8],[27.8,49.95],[27.2,50.1],[26.6,50.25],[25.9,50.6],[25.3,51.0],[25.6,51.2],[26.0,51.4],[26.8,51.5],[27.6,51.8],[28.6,52.1],[29.2,52.3],[29.7,52.6],[30.0,52.9],[30.4,53.25],[30.9,53.6],[31.5,54.0],[31.4,54.45],[31.2,54.75],[31.0,55.05],[30.9,55.3],[30.6,55.5],[30.15,55.7],[29.95,55.95],[29.9,56.2],[29.7,56.5],[29.4,56.85],[29.0,57.1],[28.7,57.35],[28.55,57.6],[28.5,57.85],[28.0,58.0],[27.6,58.3],[27.75,58.7],[27.75,58.95],[28.0,59.12],[28.2,59.35],[28.25,59.62]]]}},{"type":"Feature","properties":{"side":"axis"},"geometry":{"type":"Polygon","coordinates":[[[-30.0,0.0],[-30.0,90.0],[27.0,90.0],[27.0,59.95],[28.25,59.62],[28.2,59.35],[28.0,59.12],[27.75,58.95],[27.75,58.7],[27.6,58.3],[28.0,58.0],[28.5,57.85],[28.55,57.6],[28.7,57.35],[29.0,57.1],[29.4,56.85],[29.7,56.5],[29.9,56.2],[29.95,55.95],[30.15,55.7],[30.6,55.5],[30.9,55.3],[31.0,55.05],[31.2,54.75],[31.4,54.45],[31.5,54.0],[30.9,53.6],[30.4,53.25],[30.0,52.9],[29.7,52.6],[29.2,52.3],[28.6,52.1],[27.6,51.8],[26.8,51.5],[26.0,51.4],[25.6,51.2],[25.3,51.0],[25.9,50.6],[26.6,50.25],[27.2,50.1],[27.8,49.95],[28.4,49.8],[29.0,49.5],[29.6,49.25],[30.2,49.0],[30.8,48.8],[31.4,48.55],[32.0,48.3],[32.6,48.0],[33.1,47.75],[33.3,47.4],[33.1,47.0],[32.8,46.75],[32.6,46.6],[32.4,46.5],[32.0,46.3],[32.0,0.0],[-30.0,0.0]]]}},{"type":"Feature","properties":{"side":"axis_pocket","name":"Crimea","note":"The 17th Army in the Crimea (cut off by land since 1 November 1943; Sevastopol fell on 9 May 1944)"},"geometry":{"type":"Polygon","coordinates":[[[33.55,46.15],[34.1,46.0],[34.6,45.75],[35.5,45.45],[36.3,45.48],[36.47,45.45],[36.53,45.38],[36.68,45.32],[36.65,45.15],[35.5,44.95],[34.4,44.45],[33.5,44.4],[33.3,44.6],[32.5,45.35],[33.0,45.95],[33.55,46.15]]]}},{"type":"Feature","properties":{"side":"soviet_pocket","name":"Kerch bridgehead","note":"Red Army bridgehead north-east of Kerch (November 1943 – April 1944)"},"geometry":{"type":"Polygon","coordinates":[[[36.48,45.45],[36.66,45.45],[36.66,45.33],[36.53,45.38],[36.48,45.45]]]}}]}