{"type":"FeatureCollection","source":{"archive":"CAMO, Bestand 500, Findbuch 12457, Akte 954","map_date":"1944-02-01","url":"https://wwii.germandocsinrussia.org/de/nodes/23475-akte-954-unterlagen-der-operationsabteilung-iiib-des-generalstabs-des-heeres-im-okh-karte-lage-ost-karte-zur-lage-der-truppen-der-wehrmacht-an-der-deutsch-sowjetischen-front-einschlie-lich-der-lage-der-verb-nde-der-roten-armee-stand-01-02-1944","residuals_km":{"1557452":{"Moskau":0.3,"Leningrad":6.3,"Riga":5.7,"Smolensk":3.7,"Kalinin":6.1,"Tschernigow":3.2,"Borissow":2.6,"Minsk":2.5,"Kiew":0.4,"Nowgorod":1.8,"Brjansk":7.9,"Gomel":1.9,"Kauen":5.0,"Tula":5.1,"Witebsk":5.7,"Orel":1.0,"Kursk":0.6,"Charkow":1.8,"Shitomir":4.2,"Reval":3.3},"1557453":{"Sewastopol":7.7,"Kertsch":8.8,"Simferopol":0.9,"Odessa":12.1,"Krementschug":12.4,"Rostow":5.0,"Taganrog":2.1,"Makejewka":4.5,"Dnjepropetrowsk":2.7,"Saporoshje":3.8,"Melitopol":5.8,"Kirowograd":21.2,"Poltawa":5.0,"Nikolajew":8.6,"Charkow":3.7,"Uman":6.8}}},"features":[{"type":"Feature","properties":{"side":"front"},"geometry":{"type":"LineString","coordinates":[[28.25,59.62],[28.2,59.35],[28.0,59.12],[27.75,58.95],[28.6,58.95],[29.1,58.75],[29.6,58.6],[30.1,58.5],[30.6,58.3],[31.0,58.2],[31.5,58.05],[31.5,57.8],[31.3,57.5],[31.6,57.25],[31.8,57.0],[31.4,56.9],[30.75,56.6],[30.35,56.55],[30.05,56.15],[29.95,55.95],[30.15,55.7],[30.6,55.5],[30.9,55.3],[31.0,55.05],[31.2,54.75],[31.4,54.45],[31.5,54.0],[30.9,53.6],[30.4,53.25],[30.0,52.9],[29.7,52.6],[29.2,52.3],[28.6,52.1],[28.0,51.8],[27.4,51.4],[27.3,50.9],[27.6,50.5],[28.2,50.1],[28.8,49.8],[29.4,49.5],[30.0,49.45],[30.5,49.3],[30.9,49.45],[31.4,49.45],[31.7,49.35],[31.6,49.15],[31.3,49.0],[31.4,48.8],[31.8,48.6],[32.3,48.45],[33.0,48.15],[33.5,47.95],[34.2,47.75],[34.4,47.6],[34.0,47.45],[33.5,47.2],[33.1,46.9],[32.8,46.7],[32.6,46.6],[32.4,46.5],[32.0,46.3]]}},{"type":"Feature","properties":{"side":"soviet"},"geometry":{"type":"Polygon","coordinates":[[[28.25,59.62],[27.0,59.95],[27.0,90.0],[180.0,90.0],[180.0,0.0],[32.0,0.0],[32.0,46.3],[32.4,46.5],[32.6,46.6],[32.8,46.7],[33.1,46.9],[33.5,47.2],[34.0,47.45],[34.4,47.6],[34.2,47.75],[33.5,47.95],[33.0,48.15],[32.3,48.45],[31.8,48.6],[31.4,48.8],[31.3,49.0],[31.6,49.15],[31.7,49.35],[31.4,49.45],[30.9,49.45],[30.5,49.3],[30.0,49.45],[29.4,49.5],[28.8,49.8],[28.2,50.1],[27.6,50.5],[27.3,50.9],[27.4,51.4],[28.0,51.8],[28.6,52.1],[29.2,52.3],[29.7,52.6],[30.0,52.9],[30.4,53.25],[30.9,53.6],[31.5,54.0],[31.4,54.45],[31.2,54.75],[31.0,55.05],[30.9,55.3],[30.6,55.5],[30.15,55.7],[29.95,55.95],[30.05,56.15],[30.35,56.55],[30.75,56.6],[31.4,56.9],[31.8,57.0],[31.6,57.25],[31.3,57.5],[31.5,57.8],[31.5,58.05],[31.0,58.2],[30.6,58.3],[30.1,58.5],[29.6,58.6],[29.1,58.75],[28.6,58.95],[27.75,58.95],[28.0,59.12],[28.2,59.35],[28.25,59.62]]]}},{"type":"Feature","properties":{"side":"axis"},"geometry":{"type":"Polygon","coordinates":[[[-30.0,0.0],[-30.0,90.0],[27.0,90.0],[27.0,59.95],[28.25,59.62],[28.2,59.35],[28.0,59.12],[27.75,58.95],[28.6,58.95],[29.1,58.75],[29.6,58.6],[30.1,58.5],[30.6,58.3],[31.0,58.2],[31.5,58.05],[31.5,57.8],[31.3,57.5],[31.6,57.25],[31.8,57.0],[31.4,56.9],[30.75,56.6],[30.35,56.55],[30.05,56.15],[29.95,55.95],[30.15,55.7],[30.6,55.5],[30.9,55.3],[31.0,55.05],[31.2,54.75],[31.4,54.45],[31.5,54.0],[30.9,53.6],[30.4,53.25],[30.0,52.9],[29.7,52.6],[29.2,52.3],[28.6,52.1],[28.0,51.8],[27.4,51.4],[27.3,50.9],[27.6,50.5],[28.2,50.1],[28.8,49.8],[29.4,49.5],[30.0,49.45],[30.5,49.3],[30.9,49.45],[31.4,49.45],[31.7,49.35],[31.6,49.15],[31.3,49.0],[31.4,48.8],[31.8,48.6],[32.3,48.45],[33.0,48.15],[33.5,47.95],[34.2,47.75],[34.4,47.6],[34.0,47.45],[33.5,47.2],[33.1,46.9],[32.8,46.7],[32.6,46.6],[32.4,46.5],[32.0,46.3],[32.0,0.0],[-30.0,0.0]]]}},{"type":"Feature","properties":{"side":"axis_pocket","name":"Crimea","note":"The 17th Army in the Crimea (cut off by land since 1 November 1943; Sevastopol fell on 9 May 1944)"},"geometry":{"type":"Polygon","coordinates":[[[33.55,46.15],[34.1,46.0],[34.6,45.75],[35.5,45.45],[36.3,45.48],[36.47,45.45],[36.53,45.38],[36.68,45.32],[36.65,45.15],[35.5,44.95],[34.4,44.45],[33.5,44.4],[33.3,44.6],[32.5,45.35],[33.0,45.95],[33.55,46.15]]]}},{"type":"Feature","properties":{"side":"soviet_pocket","name":"Kerch bridgehead","note":"Red Army bridgehead north-east of Kerch (November 1943 – April 1944)"},"geometry":{"type":"Polygon","coordinates":[[[36.48,45.45],[36.66,45.45],[36.66,45.33],[36.53,45.38],[36.48,45.45]]]}},{"type":"Feature","properties":{"side":"axis_pocket","name":"Kholm","note":"German-held town at the tip of a salient on the Lovat, held until 21 February 1944"},"geometry":{"type":"Polygon","coordinates":[[[31.5,57.22],[31.75,57.21],[31.78,57.1],[31.6,57.06],[31.5,57.12],[31.5,57.22]]]}},{"type":"Feature","properties":{"side":"axis_pocket","name":"Korsun–Shevchenkovsky pocket","note":"XI and XXXXII Army Corps encircled 28 January 1944; the break-out on 16–17 February"},"geometry":{"type":"Polygon","coordinates":[[[30.95,49.6],[31.4,49.65],[31.75,49.45],[31.6,49.2],[31.2,49.15],[30.95,49.3],[30.95,49.6]]]}}]}