{"type":"FeatureCollection","source":{"archive":"CAMO, Bestand 500, Findbuch 12457, Akte 923","map_date":"1944-01-01","url":"https://wwii.germandocsinrussia.org/de/nodes/23444-akte-923-unterlagen-der-operationsabteilung-iiib-des-generalstabs-des-heeres-im-okh-karte-lage-ost-karte-zur-lage-der-truppen-der-wehrmacht-an-der-deutsch-sowjetischen-front-einschlie-lich-der-lage-der-verb-nde-der-roten-armee-stand-01-01-1944","residuals_km":{"1557390":{"Moskau":0.3,"Leningrad":6.3,"Riga":5.7,"Smolensk":3.8,"Kalinin":6.1,"Tschernigow":3.3,"Borissow":2.6,"Minsk":2.5,"Kiew":0.3,"Nowgorod":1.8,"Brjansk":7.8,"Gomel":1.9,"Kauen":5.0,"Tula":5.0,"Witebsk":5.8,"Orel":0.9,"Kursk":0.6,"Charkow":1.8,"Shitomir":4.2,"Reval":3.4},"1557391":{"Sewastopol":7.7,"Kertsch":8.8,"Simferopol":0.9,"Odessa":12.1,"Krementschug":12.4,"Rostow":5.0,"Taganrog":2.1,"Makejewka":4.5,"Dnjepropetrowsk":2.7,"Saporoshje":3.8,"Melitopol":5.9,"Kirowograd":21.2,"Poltawa":5.0,"Nikolajew":8.6,"Charkow":3.7,"Uman":6.8}}},"features":[{"type":"Feature","properties":{"side":"front"},"geometry":{"type":"LineString","coordinates":[[30.21,59.81],[30.37,59.76],[30.74,59.72],[31.0,59.8],[31.05,59.84],[31.2,59.86],[31.4,59.84],[31.55,59.8],[31.75,59.6],[32.0,59.45],[31.85,59.2],[31.75,59.05],[31.65,58.85],[31.55,58.7],[31.55,58.55],[31.4,58.45],[31.45,58.25],[31.5,58.05],[31.45,57.8],[31.3,57.5],[31.6,57.25],[31.8,57.0],[31.4,56.9],[30.75,56.6],[30.35,56.55],[30.05,56.15],[29.95,55.95],[30.15,55.7],[30.6,55.5],[30.9,55.3],[31.0,55.05],[31.2,54.75],[31.4,54.45],[31.5,54.0],[30.9,53.6],[30.4,53.25],[30.2,52.8],[29.6,52.4],[28.6,52.1],[28.3,51.6],[28.2,51.1],[28.0,50.8],[28.4,50.4],[28.7,50.1],[29.2,49.75],[29.8,49.6],[30.4,49.55],[31.0,49.45],[31.5,49.4],[32.0,49.3],[32.4,48.95],[32.9,48.65],[33.4,48.3],[33.6,48.0],[34.2,47.85],[34.6,47.75],[34.3,47.55],[33.7,47.3],[33.3,46.9],[33.0,46.7],[32.6,46.6],[32.4,46.5],[32.0,46.3]]}},{"type":"Feature","properties":{"side":"soviet"},"geometry":{"type":"Polygon","coordinates":[[[30.21,59.81],[27.0,59.95],[27.0,90.0],[180.0,90.0],[180.0,0.0],[32.0,0.0],[32.0,46.3],[32.4,46.5],[32.6,46.6],[33.0,46.7],[33.3,46.9],[33.7,47.3],[34.3,47.55],[34.6,47.75],[34.2,47.85],[33.6,48.0],[33.4,48.3],[32.9,48.65],[32.4,48.95],[32.0,49.3],[31.5,49.4],[31.0,49.45],[30.4,49.55],[29.8,49.6],[29.2,49.75],[28.7,50.1],[28.4,50.4],[28.0,50.8],[28.2,51.1],[28.3,51.6],[28.6,52.1],[29.6,52.4],[30.2,52.8],[30.4,53.25],[30.9,53.6],[31.5,54.0],[31.4,54.45],[31.2,54.75],[31.0,55.05],[30.9,55.3],[30.6,55.5],[30.15,55.7],[29.95,55.95],[30.05,56.15],[30.35,56.55],[30.75,56.6],[31.4,56.9],[31.8,57.0],[31.6,57.25],[31.3,57.5],[31.45,57.8],[31.5,58.05],[31.45,58.25],[31.4,58.45],[31.55,58.55],[31.55,58.7],[31.65,58.85],[31.75,59.05],[31.85,59.2],[32.0,59.45],[31.75,59.6],[31.55,59.8],[31.4,59.84],[31.2,59.86],[31.05,59.84],[31.0,59.8],[30.74,59.72],[30.37,59.76],[30.21,59.81]]]}},{"type":"Feature","properties":{"side":"axis"},"geometry":{"type":"Polygon","coordinates":[[[-30.0,0.0],[-30.0,90.0],[27.0,90.0],[27.0,59.95],[30.21,59.81],[30.37,59.76],[30.74,59.72],[31.0,59.8],[31.05,59.84],[31.2,59.86],[31.4,59.84],[31.55,59.8],[31.75,59.6],[32.0,59.45],[31.85,59.2],[31.75,59.05],[31.65,58.85],[31.55,58.7],[31.55,58.55],[31.4,58.45],[31.45,58.25],[31.5,58.05],[31.45,57.8],[31.3,57.5],[31.6,57.25],[31.8,57.0],[31.4,56.9],[30.75,56.6],[30.35,56.55],[30.05,56.15],[29.95,55.95],[30.15,55.7],[30.6,55.5],[30.9,55.3],[31.0,55.05],[31.2,54.75],[31.4,54.45],[31.5,54.0],[30.9,53.6],[30.4,53.25],[30.2,52.8],[29.6,52.4],[28.6,52.1],[28.3,51.6],[28.2,51.1],[28.0,50.8],[28.4,50.4],[28.7,50.1],[29.2,49.75],[29.8,49.6],[30.4,49.55],[31.0,49.45],[31.5,49.4],[32.0,49.3],[32.4,48.95],[32.9,48.65],[33.4,48.3],[33.6,48.0],[34.2,47.85],[34.6,47.75],[34.3,47.55],[33.7,47.3],[33.3,46.9],[33.0,46.7],[32.6,46.6],[32.4,46.5],[32.0,46.3],[32.0,0.0],[-30.0,0.0]]]}},{"type":"Feature","properties":{"side":"soviet_pocket","name":"Oranienbaum bridgehead","note":"Coastal bridgehead west of Leningrad (the starting point of the January 1944 offensive)"},"geometry":{"type":"Polygon","coordinates":[[[29.2,59.95],[29.95,59.92],[29.95,59.8],[29.5,59.7],[29.15,59.78],[29.2,59.95]]]}},{"type":"Feature","properties":{"side":"axis_pocket","name":"Crimea","note":"The 17th Army in the Crimea (cut off by land since 1 November 1943; Sevastopol fell on 9 May 1944)"},"geometry":{"type":"Polygon","coordinates":[[[33.55,46.15],[34.1,46.0],[34.6,45.75],[35.5,45.45],[36.3,45.48],[36.47,45.45],[36.53,45.38],[36.68,45.32],[36.65,45.15],[35.5,44.95],[34.4,44.45],[33.5,44.4],[33.3,44.6],[32.5,45.35],[33.0,45.95],[33.55,46.15]]]}},{"type":"Feature","properties":{"side":"soviet_pocket","name":"Kerch bridgehead","note":"Red Army bridgehead north-east of Kerch (November 1943 – April 1944)"},"geometry":{"type":"Polygon","coordinates":[[[36.48,45.45],[36.66,45.45],[36.66,45.33],[36.53,45.38],[36.48,45.45]]]}},{"type":"Feature","properties":{"side":"axis_pocket","name":"Kholm","note":"German-held town at the tip of a salient on the Lovat, held until 21 February 1944"},"geometry":{"type":"Polygon","coordinates":[[[31.5,57.22],[31.75,57.21],[31.78,57.1],[31.6,57.06],[31.5,57.12],[31.5,57.22]]]}}]}