{"type":"FeatureCollection","source":{"archive":"CAMO, Bestand 500, Findbuch 12457, Akte 1011","map_date":"1944-04-01","url":"https://wwii.germandocsinrussia.org/de/nodes/23532-akte-1011-unterlagen-der-operationsabteilung-iiib-des-generalstabs-des-heeres-im-okh-karte-lage-ost-karte-zur-lage-der-truppen-der-wehrmacht-an-der-deutsch-sowjetischen-front-einschlie-lich-der-lage-der-verb-nde-der-roten-armee-stand-01-04-1944","residuals_km":{"1613386":{"Moskau":0.2,"Leningrad":6.3,"Riga":5.7,"Smolensk":3.8,"Kalinin":6.1,"Tschernigow":3.2,"Borissow":2.6,"Minsk":2.5,"Kiew":0.4,"Nowgorod":1.8,"Brjansk":7.9,"Gomel":1.9,"Kauen":5.0,"Tula":5.1,"Witebsk":5.8,"Orel":1.0,"Kursk":0.6,"Charkow":1.8,"Shitomir":4.2,"Reval":3.4},"1613387":{"Sewastopol":7.7,"Kertsch":8.8,"Simferopol":0.9,"Odessa":12.1,"Krementschug":12.3,"Rostow":5.0,"Taganrog":2.0,"Makejewka":4.5,"Dnjepropetrowsk":2.7,"Saporoshje":3.8,"Melitopol":5.8,"Kirowograd":21.2,"Poltawa":5.1,"Nikolajew":8.6,"Charkow":3.7,"Uman":6.8}}},"features":[{"type":"Feature","properties":{"side":"front"},"geometry":{"type":"LineString","coordinates":[[28.25,59.62],[28.2,59.35],[28.0,59.12],[27.75,58.95],[27.75,58.7],[27.6,58.3],[28.0,58.0],[28.5,57.85],[28.55,57.6],[28.7,57.35],[29.0,57.1],[29.95,55.95],[30.15,55.7],[30.6,55.5],[30.9,55.3],[31.0,55.05],[31.2,54.75],[31.4,54.45],[31.5,54.0],[30.9,53.6],[30.4,53.25],[30.0,52.9],[29.7,52.6],[29.2,52.3],[28.6,52.1],[27.6,51.8],[26.6,51.6],[25.5,51.6],[25.1,51.35],[24.8,51.0],[25.0,50.4],[25.2,50.0],[25.0,49.6],[25.5,49.2],[26.0,48.6],[26.6,48.1],[27.2,47.75],[27.7,47.45],[28.3,47.25],[29.0,47.0],[29.6,46.75],[30.2,46.55],[30.6,46.6],[31.0,46.8],[31.6,46.95],[32.0,46.97],[32.0,46.6],[31.5,46.4]]}},{"type":"Feature","properties":{"side":"soviet"},"geometry":{"type":"Polygon","coordinates":[[[28.25,59.62],[27.0,59.95],[27.0,90.0],[180.0,90.0],[180.0,0.0],[31.5,0.0],[31.5,46.4],[32.0,46.6],[32.0,46.97],[31.6,46.95],[31.0,46.8],[30.6,46.6],[30.2,46.55],[29.6,46.75],[29.0,47.0],[28.3,47.25],[27.7,47.45],[27.2,47.75],[26.6,48.1],[26.0,48.6],[25.5,49.2],[25.0,49.6],[25.2,50.0],[25.0,50.4],[24.8,51.0],[25.1,51.35],[25.5,51.6],[26.6,51.6],[27.6,51.8],[28.6,52.1],[29.2,52.3],[29.7,52.6],[30.0,52.9],[30.4,53.25],[30.9,53.6],[31.5,54.0],[31.4,54.45],[31.2,54.75],[31.0,55.05],[30.9,55.3],[30.6,55.5],[30.15,55.7],[29.95,55.95],[29.0,57.1],[28.7,57.35],[28.55,57.6],[28.5,57.85],[28.0,58.0],[27.6,58.3],[27.75,58.7],[27.75,58.95],[28.0,59.12],[28.2,59.35],[28.25,59.62]]]}},{"type":"Feature","properties":{"side":"axis"},"geometry":{"type":"Polygon","coordinates":[[[-30.0,0.0],[-30.0,90.0],[27.0,90.0],[27.0,59.95],[28.25,59.62],[28.2,59.35],[28.0,59.12],[27.75,58.95],[27.75,58.7],[27.6,58.3],[28.0,58.0],[28.5,57.85],[28.55,57.6],[28.7,57.35],[29.0,57.1],[29.95,55.95],[30.15,55.7],[30.6,55.5],[30.9,55.3],[31.0,55.05],[31.2,54.75],[31.4,54.45],[31.5,54.0],[30.9,53.6],[30.4,53.25],[30.0,52.9],[29.7,52.6],[29.2,52.3],[28.6,52.1],[27.6,51.8],[26.6,51.6],[25.5,51.6],[25.1,51.35],[24.8,51.0],[25.0,50.4],[25.2,50.0],[25.0,49.6],[25.5,49.2],[26.0,48.6],[26.6,48.1],[27.2,47.75],[27.7,47.45],[28.3,47.25],[29.0,47.0],[29.6,46.75],[30.2,46.55],[30.6,46.6],[31.0,46.8],[31.6,46.95],[32.0,46.97],[32.0,46.6],[31.5,46.4],[31.5,0.0],[-30.0,0.0]]]}},{"type":"Feature","properties":{"side":"axis_pocket","name":"Crimea","note":"The 17th Army in the Crimea (cut off by land since 1 November 1943; Sevastopol fell on 9 May 1944)"},"geometry":{"type":"Polygon","coordinates":[[[33.55,46.15],[34.1,46.0],[34.6,45.75],[35.5,45.45],[36.3,45.48],[36.47,45.45],[36.53,45.38],[36.68,45.32],[36.65,45.15],[35.5,44.95],[34.4,44.45],[33.5,44.4],[33.3,44.6],[32.5,45.35],[33.0,45.95],[33.55,46.15]]]}},{"type":"Feature","properties":{"side":"soviet_pocket","name":"Kerch bridgehead","note":"Red Army bridgehead north-east of Kerch (November 1943 – April 1944)"},"geometry":{"type":"Polygon","coordinates":[[[36.48,45.45],[36.66,45.45],[36.66,45.33],[36.53,45.38],[36.48,45.45]]]}},{"type":"Feature","properties":{"side":"axis_pocket","name":"Tarnopol","note":"Fortress Tarnopol, encircled 23 March, fell 15 April 1944"},"geometry":{"type":"Polygon","coordinates":[[[25.5,49.6],[25.7,49.6],[25.72,49.5],[25.52,49.48],[25.5,49.6]]]}},{"type":"Feature","properties":{"side":"axis_pocket","name":"1st Panzer Army (Hube pocket)","note":"The 1st Panzer Army encircled at Kamenets-Podolsky (25 March); it broke out westward and reached the 4th Panzer Army at Buchach on 6 April 1944"},"geometry":{"type":"Polygon","coordinates":[[[26.2,49.1],[27.0,49.2],[27.3,48.9],[27.0,48.55],[26.4,48.55],[26.1,48.8],[26.2,49.1]]]}}]}