{"type":"FeatureCollection","source":{"archive":"CAMO, Bestand 500, Findbuch 12457, Akte 1224","map_date":"1944-10-31","url":"https://wwii.germandocsinrussia.org/de/nodes/23745-akte-1224-unterlagen-der-operationsabteilung-iiib-des-generalstabs-des-heeres-im-okh-karte-lage-ost-karte-zur-lage-der-truppen-der-wehrmacht-an-der-deutsch-sowjetischen-front-einschlie-lich-der-lage-der-verb-nde-der-roten-armee-stand-31-10-1944","residuals_km":{"1613272":{"Riga":9.4,"Minsk":4.7,"Warschau":7.8,"Königsberg":16.7,"Kauen":6.4,"Krakau":3.5,"Reval":2.0,"Smolensk":1.7,"Kiew":0.9,"Danzig":4.9,"Memel":7.6,"Pleskau":2.4,"Lublin":1.4},"1613273":{"Debrecen":6.5,"Bukarest":15.4,"Odessa":4.0,"Czernowitz":7.1,"Kronstadt":8.9,"Jassy":2.5,"Galatz":16.0,"Szeged":10.8,"Kirowograd":7.0,"Nikolajew":11.4,"Uman":13.7,"Komorn":4.2,"Przemysl":12.2,"Kischinew":2.7,"Temeschburg":8.8,"Oppeln":5.1,"Budapest":11.7,"Belgrad":13.4}}},"features":[{"type":"Feature","properties":{"side":"front"},"geometry":{"type":"LineString","coordinates":[[21.0,57.7],[22.2,57.2],[22.9,56.95],[23.2,56.6],[22.6,56.3],[22.0,56.0],[21.3,55.75],[21.4,55.3],[22.0,54.95],[22.4,54.6],[22.6,54.2],[22.4,53.9],[21.8,53.3],[21.2,52.85],[21.0,52.25],[21.4,51.8],[21.8,51.4],[21.7,51.0],[21.4,50.6],[21.6,50.2],[21.7,49.5],[22.0,49.1],[22.3,48.7],[21.7,48.3],[21.3,47.8],[20.8,47.4],[20.3,47.0],[20.1,46.5],[20.3,46.0],[20.5,45.5],[20.4,45.0],[20.2,44.7],[20.4,44.3],[21.0,43.9]]}},{"type":"Feature","properties":{"side":"soviet"},"geometry":{"type":"Polygon","coordinates":[[[21.0,57.7],[21.0,57.75],[21.0,90.0],[180.0,90.0],[180.0,0.0],[21.0,0.0],[21.0,43.9],[20.4,44.3],[20.2,44.7],[20.4,45.0],[20.5,45.5],[20.3,46.0],[20.1,46.5],[20.3,47.0],[20.8,47.4],[21.3,47.8],[21.7,48.3],[22.3,48.7],[22.0,49.1],[21.7,49.5],[21.6,50.2],[21.4,50.6],[21.7,51.0],[21.8,51.4],[21.4,51.8],[21.0,52.25],[21.2,52.85],[21.8,53.3],[22.4,53.9],[22.6,54.2],[22.4,54.6],[22.0,54.95],[21.4,55.3],[21.3,55.75],[22.0,56.0],[22.6,56.3],[23.2,56.6],[22.9,56.95],[22.2,57.2],[21.0,57.7]]]}},{"type":"Feature","properties":{"side":"axis"},"geometry":{"type":"Polygon","coordinates":[[[-30.0,0.0],[-30.0,90.0],[21.0,90.0],[21.0,57.75],[21.0,57.7],[22.2,57.2],[22.9,56.95],[23.2,56.6],[22.6,56.3],[22.0,56.0],[21.3,55.75],[21.4,55.3],[22.0,54.95],[22.4,54.6],[22.6,54.2],[22.4,53.9],[21.8,53.3],[21.2,52.85],[21.0,52.25],[21.4,51.8],[21.8,51.4],[21.7,51.0],[21.4,50.6],[21.6,50.2],[21.7,49.5],[22.0,49.1],[22.3,48.7],[21.7,48.3],[21.3,47.8],[20.8,47.4],[20.3,47.0],[20.1,46.5],[20.3,46.0],[20.5,45.5],[20.4,45.0],[20.2,44.7],[20.4,44.3],[21.0,43.9],[21.0,0.0],[-30.0,0.0]]]}},{"type":"Feature","properties":{"side":"axis_pocket","name":"Memel","note":"Memel encircled from 10 October 1944 (until 28 January 1945)"},"geometry":{"type":"Polygon","coordinates":[[[21.05,55.85],[21.35,55.85],[21.4,55.6],[21.1,55.55],[21.05,55.85]]]}},{"type":"Feature","properties":{"side":"axis_pocket","name":"Saaremaa (Sworbe)","note":"The Sworbe peninsula held until 24 November 1944"},"geometry":{"type":"Polygon","coordinates":[[[21.85,57.95],[22.25,58.15],[22.4,57.95],[22.1,57.85],[21.85,57.95]]]}}]}