{"type":"FeatureCollection","source":{"archive":"CAMO, Bestand 500, Findbuch 12457, Akte 558","map_date":"1943-01-01","url":"https://wwii.germandocsinrussia.org/de/nodes/20964-akte-558-unterlagen-der-operationsabteilung-iiib-des-generalstabs-des-heeres-im-okh-karte-lage-ost-karte-zur-lage-der-truppen-der-wehrmacht-an-der-deutsch-sowjetischen-front-einschlie-lich-der-lage-der-verb-nde-der-roten-armee-stand-1-1-1943","residuals_km":{"1258919":{"Leningrad":0.6,"Kronstadt":1.0,"Moskau":2.4,"Kalinin":2.5,"Smolensk":4.5,"Kursk":12.2,"Isjum":3.0,"Kupjansk":3.3,"Gorki":4.0,"Dserschinsk":12.1,"Pawlowo":8.8,"Tula":7.5,"Orel":5.1},"1258920":{"Sewastopol":4.5,"Simferopol":5.5,"Jalta":2.3,"Kertsch":4.5,"Rostow":19.0,"Nowotscherkassk":18.6,"Schachty":10.7,"Stalingrad":3.5,"Astrachan":3.8,"Kanewskaja":18.8,"Primorsko-Achtarsk":2.7,"Brjuchowezkaja":1.8,"Slawjanskaja":18.5,"Naltschik":10.6,"Signachi":11.2,"Nucha":9.9}}},"features":[{"type":"Feature","properties":{"side":"front"},"geometry":{"type":"LineString","coordinates":[[30.209,59.811],[30.373,59.755],[30.742,59.717],[31.108,59.789],[31.475,59.721],[31.638,59.628],[31.25,59.9],[31.75,59.6],[32.0,59.45],[31.85,59.2],[31.75,59.05],[31.65,58.85],[31.55,58.7],[31.4,58.45],[31.45,58.25],[31.5,58.05],[31.45,57.8],[31.3,57.5],[31.6,57.25],[31.8,57.0],[31.4,56.9],[30.75,56.6],[30.35,56.55],[30.25,56.35],[30.4,56.15],[30.85,56.05],[31.0,56.0],[31.0,56.0],[31.3,55.6],[31.75,55.5],[32.0,55.7],[32.1,55.95],[32.45,56.05],[32.85,56.15],[32.985,56.254],[33.202,56.308],[33.562,56.345],[33.743,56.368],[33.836,56.269],[34.047,56.255],[34.121,56.318],[34.262,56.31],[34.392,56.286],[34.506,56.045],[34.481,55.938],[34.553,55.812],[34.747,55.744],[34.885,55.725],[35.063,55.735],[35.206,55.691],[35.269,55.589],[35.202,55.455],[35.405,55.259],[35.306,55.072],[35.0,55.0],[34.5,54.85],[34.2,54.75],[34.217,54.466],[33.98,54.308],[34.067,54.121],[34.578,54.008],[35.02,53.919],[35.156,53.768],[35.297,53.58],[35.719,53.557],[36.07,53.626],[36.205,53.536],[36.404,53.379],[36.865,53.33],[36.868,53.029],[37.007,52.863],[37.168,52.737],[37.335,52.508],[37.445,52.379],[37.543,52.282],[37.645,52.222],[37.789,52.21],[38.021,52.221],[38.164,52.208],[38.281,52.2],[38.468,52.22],[38.71,52.191],[38.898,52.135],[39.129,52.036],[39.23,51.783],[39.256,51.647],[39.303,51.553],[39.281,51.487],[39.332,51.372],[39.331,51.282],[39.334,51.169],[39.371,51.055],[39.432,50.984],[39.536,50.968],[39.663,50.936],[39.776,50.918],[39.835,50.876],[39.891,50.717],[39.991,50.577],[40.061,50.463],[40.2,49.8],[40.35,49.45],[40.45,49.15],[40.4,48.92],[40.8,48.65],[41.3,48.42],[41.82,48.35],[42.3,48.3],[42.6,48.1],[42.3,47.8],[42.1,47.62],[42.3,47.3],[42.4,47.12],[43.0,46.85],[43.6,46.55],[43.95,46.25],[44.1,45.8],[44.4,45.3],[44.7,44.9],[45.1,44.45],[45.5,44.15],[46.1,44.09],[44.109,43.261],[43.888,43.327],[43.671,43.291],[43.364,43.304],[42.83,43.6],[41.94,43.86],[41.21,43.93],[40.74,43.88],[40.29,44.26],[39.833,44.225],[39.692,44.275],[39.546,44.376],[39.402,44.443],[39.207,44.561],[39.144,44.752],[38.951,44.835],[38.719,44.847],[38.49,44.805],[38.263,44.764],[38.076,44.776],[37.895,44.736],[37.85,44.66],[37.6,44.3],[37.6,44.3]]}},{"type":"Feature","properties":{"side":"soviet"},"geometry":{"type":"Polygon","coordinates":[[[30.209,59.811],[27.0,59.95],[27.0,90.0],[180.0,90.0],[180.0,0.0],[37.6,0.0],[37.6,44.3],[37.85,44.66],[37.895,44.736],[38.076,44.776],[38.263,44.764],[38.49,44.805],[38.719,44.847],[38.951,44.835],[39.144,44.752],[39.207,44.561],[39.402,44.443],[39.546,44.376],[39.692,44.275],[39.833,44.225],[40.29,44.26],[40.74,43.88],[41.21,43.93],[41.94,43.86],[42.83,43.6],[43.364,43.304],[43.671,43.291],[43.888,43.327],[44.109,43.261],[46.1,44.09],[45.5,44.15],[45.1,44.45],[44.7,44.9],[44.4,45.3],[44.1,45.8],[43.95,46.25],[43.6,46.55],[43.0,46.85],[42.4,47.12],[42.3,47.3],[42.1,47.62],[42.3,47.8],[42.6,48.1],[42.3,48.3],[41.82,48.35],[41.3,48.42],[40.8,48.65],[40.4,48.92],[40.45,49.15],[40.35,49.45],[40.2,49.8],[40.061,50.463],[39.991,50.577],[39.891,50.717],[39.835,50.876],[39.776,50.918],[39.663,50.936],[39.536,50.968],[39.432,50.984],[39.371,51.055],[39.334,51.169],[39.331,51.282],[39.332,51.372],[39.281,51.487],[39.303,51.553],[39.256,51.647],[39.23,51.783],[39.129,52.036],[38.898,52.135],[38.71,52.191],[38.468,52.22],[38.281,52.2],[38.164,52.208],[38.021,52.221],[37.789,52.21],[37.645,52.222],[37.543,52.282],[37.445,52.379],[37.335,52.508],[37.168,52.737],[37.007,52.863],[36.868,53.029],[36.865,53.33],[36.404,53.379],[36.205,53.536],[36.07,53.626],[35.719,53.557],[35.297,53.58],[35.156,53.768],[35.02,53.919],[34.578,54.008],[34.067,54.121],[33.98,54.308],[34.217,54.466],[34.2,54.75],[34.5,54.85],[35.0,55.0],[35.306,55.072],[35.405,55.259],[35.202,55.455],[35.269,55.589],[35.206,55.691],[35.063,55.735],[34.885,55.725],[34.747,55.744],[34.553,55.812],[34.481,55.938],[34.506,56.045],[34.392,56.286],[34.262,56.31],[34.121,56.318],[34.047,56.255],[33.836,56.269],[33.743,56.368],[33.562,56.345],[33.202,56.308],[32.985,56.254],[32.85,56.15],[32.45,56.05],[32.1,55.95],[32.0,55.7],[31.75,55.5],[31.3,55.6],[31.0,56.0],[30.85,56.05],[30.4,56.15],[30.25,56.35],[30.35,56.55],[30.75,56.6],[31.4,56.9],[31.8,57.0],[31.6,57.25],[31.3,57.5],[31.45,57.8],[31.5,58.05],[31.45,58.25],[31.4,58.45],[31.55,58.7],[31.65,58.85],[31.75,59.05],[31.85,59.2],[32.0,59.45],[31.75,59.6],[31.25,59.9],[31.638,59.628],[31.475,59.721],[31.108,59.789],[30.742,59.717],[30.373,59.755],[30.209,59.811]]]}},{"type":"Feature","properties":{"side":"axis"},"geometry":{"type":"Polygon","coordinates":[[[-30.0,0.0],[-30.0,90.0],[27.0,90.0],[27.0,59.95],[30.209,59.811],[30.373,59.755],[30.742,59.717],[31.108,59.789],[31.475,59.721],[31.638,59.628],[31.25,59.9],[31.75,59.6],[32.0,59.45],[31.85,59.2],[31.75,59.05],[31.65,58.85],[31.55,58.7],[31.4,58.45],[31.45,58.25],[31.5,58.05],[31.45,57.8],[31.3,57.5],[31.6,57.25],[31.8,57.0],[31.4,56.9],[30.75,56.6],[30.35,56.55],[30.25,56.35],[30.4,56.15],[30.85,56.05],[31.0,56.0],[31.3,55.6],[31.75,55.5],[32.0,55.7],[32.1,55.95],[32.45,56.05],[32.85,56.15],[32.985,56.254],[33.202,56.308],[33.562,56.345],[33.743,56.368],[33.836,56.269],[34.047,56.255],[34.121,56.318],[34.262,56.31],[34.392,56.286],[34.506,56.045],[34.481,55.938],[34.553,55.812],[34.747,55.744],[34.885,55.725],[35.063,55.735],[35.206,55.691],[35.269,55.589],[35.202,55.455],[35.405,55.259],[35.306,55.072],[35.0,55.0],[34.5,54.85],[34.2,54.75],[34.217,54.466],[33.98,54.308],[34.067,54.121],[34.578,54.008],[35.02,53.919],[35.156,53.768],[35.297,53.58],[35.719,53.557],[36.07,53.626],[36.205,53.536],[36.404,53.379],[36.865,53.33],[36.868,53.029],[37.007,52.863],[37.168,52.737],[37.335,52.508],[37.445,52.379],[37.543,52.282],[37.645,52.222],[37.789,52.21],[38.021,52.221],[38.164,52.208],[38.281,52.2],[38.468,52.22],[38.71,52.191],[38.898,52.135],[39.129,52.036],[39.23,51.783],[39.256,51.647],[39.303,51.553],[39.281,51.487],[39.332,51.372],[39.331,51.282],[39.334,51.169],[39.371,51.055],[39.432,50.984],[39.536,50.968],[39.663,50.936],[39.776,50.918],[39.835,50.876],[39.891,50.717],[39.991,50.577],[40.061,50.463],[40.2,49.8],[40.35,49.45],[40.45,49.15],[40.4,48.92],[40.8,48.65],[41.3,48.42],[41.82,48.35],[42.3,48.3],[42.6,48.1],[42.3,47.8],[42.1,47.62],[42.3,47.3],[42.4,47.12],[43.0,46.85],[43.6,46.55],[43.95,46.25],[44.1,45.8],[44.4,45.3],[44.7,44.9],[45.1,44.45],[45.5,44.15],[46.1,44.09],[44.109,43.261],[43.888,43.327],[43.671,43.291],[43.364,43.304],[42.83,43.6],[41.94,43.86],[41.21,43.93],[40.74,43.88],[40.29,44.26],[39.833,44.225],[39.692,44.275],[39.546,44.376],[39.402,44.443],[39.207,44.561],[39.144,44.752],[38.951,44.835],[38.719,44.847],[38.49,44.805],[38.263,44.764],[38.076,44.776],[37.895,44.736],[37.85,44.66],[37.6,44.3],[37.6,0.0],[-30.0,0.0]]]}},{"type":"Feature","properties":{"side":"soviet_pocket","name":"Oranienbaum bridgehead","note":"Coastal bridgehead west of Leningrad"},"geometry":{"type":"Polygon","coordinates":[[[29.2,59.95],[29.95,59.92],[29.95,59.8],[29.5,59.7],[29.15,59.78],[29.2,59.95]]]}},{"type":"Feature","properties":{"side":"axis_pocket","name":"Demyansk salient","note":"II Army Corps, linked to the main front on 21 April 1942 by the Ramushevo corridor along the Lovat (Lage Ost: 'Gr. Seydlitz' corridor)"},"geometry":{"type":"Polygon","coordinates":[[[31.45,57.95],[31.75,57.93],[32.35,57.95],[32.85,57.85],[33.05,57.6],[32.9,57.35],[32.3,57.3],[31.8,57.5],[31.7,57.8],[31.48,57.84],[31.45,57.95]]]}},{"type":"Feature","properties":{"side":"axis_pocket","name":"Kholm","note":"Kampfgruppe Scherer, relieved from the west on 5 May 1942; the town is a German salient tip (the strip on the map covers this sector)"},"geometry":{"type":"Polygon","coordinates":[[[31.5,57.22],[31.75,57.21],[31.78,57.1],[31.6,57.06],[31.5,57.12],[31.5,57.22]]]}},{"type":"Feature","properties":{"side":"axis_pocket","name":"Stalingrad pocket","note":"The 6th Army and part of the 4th Panzer Army encircled since 23 November 1942 (Lage Ost: ring round \"6.\" between the Don and the Volga)"},"geometry":{"type":"Polygon","coordinates":[[[43.643,48.7],[43.864,48.815],[44.17,48.833],[44.477,48.85],[44.673,48.811],[44.7,48.687],[44.623,48.536],[44.512,48.478],[44.213,48.491],[43.917,48.518],[43.72,48.541],[43.607,48.623],[43.643,48.7]]]}},{"type":"Feature","properties":{"side":"axis_pocket","name":"Velikiye Luki","note":"German garrison encircled since 28 November 1942"},"geometry":{"type":"Polygon","coordinates":[[[30.43,56.4],[30.62,56.4],[30.66,56.32],[30.56,56.27],[30.43,56.3],[30.43,56.4]]]}}]}