{"type":"FeatureCollection","source":{"archive":"CAMO, Bestand 500, Findbuch 12457, Akte 588","map_date":"1943-01-31","url":"https://wwii.germandocsinrussia.org/de/nodes/20994-akte-588-unterlagen-der-operationsabteilung-iiib-des-generalstabs-des-heeres-im-okh-karte-lage-ost-karte-zur-lage-der-truppen-der-wehrmacht-an-der-deutsch-sowjetischen-front-einschlie-lich-der-lage-der-verb-nde-der-roten-armee-stand-31-1-1943","residuals_km":{"1258962":{"Leningrad":0.7,"Kronstadt":1.0,"Moskau":2.4,"Kalinin":2.5,"Smolensk":4.5,"Kursk":12.2,"Isjum":3.0,"Kupjansk":3.2,"Gorki":4.1,"Dserschinsk":12.1,"Pawlowo":8.8,"Tula":7.5,"Orel":5.2},"1258963":{"Sewastopol":4.1,"Simferopol":3.9,"Jalta":3.4,"Kertsch":2.2,"Rostow":17.0,"Nowotscherkassk":19.6,"Schachty":7.5,"Stalingrad":1.4,"Astrachan":2.6,"Kanewskaja":18.2,"Primorsko-Achtarsk":2.7,"Brjuchowezkaja":5.0,"Slawjanskaja":16.0,"Naltschik":2.0}}},"features":[{"type":"Feature","properties":{"side":"front"},"geometry":{"type":"LineString","coordinates":[[30.209,59.811],[30.373,59.755],[30.742,59.717],[31.0,59.8],[31.05,59.84],[31.2,59.86],[31.4,59.84],[31.55,59.8],[31.75,59.6],[32.0,59.45],[31.85,59.2],[31.75,59.05],[31.65,58.85],[31.55,58.7],[31.4,58.45],[31.45,58.25],[31.5,58.05],[31.45,57.8],[31.3,57.5],[31.6,57.25],[31.8,57.0],[31.4,56.9],[30.75,56.6],[30.35,56.55],[30.25,56.35],[30.4,56.15],[30.85,56.05],[31.0,56.0],[31.0,56.0],[31.3,55.6],[31.75,55.5],[32.0,55.7],[32.1,55.95],[32.45,56.05],[32.85,56.15],[32.985,56.254],[33.202,56.308],[33.562,56.345],[33.743,56.368],[33.836,56.269],[34.047,56.255],[34.121,56.318],[34.262,56.31],[34.392,56.286],[34.506,56.045],[34.481,55.938],[34.553,55.812],[34.747,55.744],[34.885,55.725],[35.063,55.735],[35.206,55.691],[35.269,55.589],[35.202,55.455],[35.405,55.259],[35.306,55.072],[35.0,55.0],[34.5,54.85],[34.2,54.75],[34.217,54.466],[33.98,54.308],[34.067,54.121],[34.578,54.008],[35.02,53.919],[35.156,53.768],[35.297,53.58],[35.719,53.557],[36.07,53.626],[36.205,53.536],[36.404,53.379],[36.865,53.33],[36.868,53.029],[37.6,52.42],[37.5,52.15],[37.35,51.85],[37.25,51.55],[37.35,51.25],[37.55,50.95],[37.7,50.6],[37.6,50.3],[37.75,49.95],[38.1,49.55],[38.4,49.2],[38.7,48.95],[39.1,48.75],[39.5,48.6],[40.0,48.45],[40.3,48.33],[40.8,48.17],[40.95,47.85],[40.75,47.5],[40.3,47.3],[39.9,47.12],[39.75,46.95],[39.5,47.0],[39.3,47.1],[38.25,46.7],[38.6,46.35],[39.0,45.95],[39.3,45.5],[39.35,45.2],[39.15,45.0],[39.2,44.75],[39.0,44.55],[38.95,44.84],[38.951,44.835],[38.719,44.847],[38.49,44.805],[38.263,44.764],[38.076,44.776],[37.895,44.736],[37.85,44.66],[37.6,44.3],[37.6,44.3]]}},{"type":"Feature","properties":{"side":"soviet"},"geometry":{"type":"Polygon","coordinates":[[[30.209,59.811],[27.0,59.95],[27.0,90.0],[180.0,90.0],[180.0,0.0],[37.6,0.0],[37.6,44.3],[37.85,44.66],[37.895,44.736],[38.076,44.776],[38.263,44.764],[38.49,44.805],[38.719,44.847],[38.95086082783444,44.83500719856029],[39.0,44.55],[39.2,44.75],[39.15,45.0],[39.35,45.2],[39.3,45.5],[39.0,45.95],[38.6,46.35],[38.25,46.7],[39.3,47.1],[39.5,47.0],[39.75,46.95],[39.9,47.12],[40.3,47.3],[40.75,47.5],[40.95,47.85],[40.8,48.17],[40.3,48.33],[40.0,48.45],[39.5,48.6],[39.1,48.75],[38.7,48.95],[38.4,49.2],[38.1,49.55],[37.75,49.95],[37.6,50.3],[37.7,50.6],[37.55,50.95],[37.35,51.25],[37.25,51.55],[37.35,51.85],[37.5,52.15],[37.6,52.42],[36.868,53.029],[36.865,53.33],[36.404,53.379],[36.205,53.536],[36.07,53.626],[35.719,53.557],[35.297,53.58],[35.156,53.768],[35.02,53.919],[34.578,54.008],[34.067,54.121],[33.98,54.308],[34.217,54.466],[34.2,54.75],[34.5,54.85],[35.0,55.0],[35.306,55.072],[35.405,55.259],[35.202,55.455],[35.269,55.589],[35.206,55.691],[35.063,55.735],[34.885,55.725],[34.747,55.744],[34.553,55.812],[34.481,55.938],[34.506,56.045],[34.392,56.286],[34.262,56.31],[34.121,56.318],[34.047,56.255],[33.836,56.269],[33.743,56.368],[33.562,56.345],[33.202,56.308],[32.985,56.254],[32.85,56.15],[32.45,56.05],[32.1,55.95],[32.0,55.7],[31.75,55.5],[31.3,55.6],[31.0,56.0],[30.85,56.05],[30.4,56.15],[30.25,56.35],[30.35,56.55],[30.75,56.6],[31.4,56.9],[31.8,57.0],[31.6,57.25],[31.3,57.5],[31.45,57.8],[31.5,58.05],[31.45,58.25],[31.4,58.45],[31.55,58.7],[31.65,58.85],[31.75,59.05],[31.85,59.2],[32.0,59.45],[31.75,59.6],[31.55,59.8],[31.4,59.84],[31.2,59.86],[31.05,59.84],[31.0,59.8],[30.742,59.717],[30.373,59.755],[30.209,59.811]]]}},{"type":"Feature","properties":{"side":"axis"},"geometry":{"type":"Polygon","coordinates":[[[-30.0,0.0],[-30.0,90.0],[27.0,90.0],[27.0,59.95],[30.209,59.811],[30.373,59.755],[30.742,59.717],[31.0,59.8],[31.05,59.84],[31.2,59.86],[31.4,59.84],[31.55,59.8],[31.75,59.6],[32.0,59.45],[31.85,59.2],[31.75,59.05],[31.65,58.85],[31.55,58.7],[31.4,58.45],[31.45,58.25],[31.5,58.05],[31.45,57.8],[31.3,57.5],[31.6,57.25],[31.8,57.0],[31.4,56.9],[30.75,56.6],[30.35,56.55],[30.25,56.35],[30.4,56.15],[30.85,56.05],[31.0,56.0],[31.3,55.6],[31.75,55.5],[32.0,55.7],[32.1,55.95],[32.45,56.05],[32.85,56.15],[32.985,56.254],[33.202,56.308],[33.562,56.345],[33.743,56.368],[33.836,56.269],[34.047,56.255],[34.121,56.318],[34.262,56.31],[34.392,56.286],[34.506,56.045],[34.481,55.938],[34.553,55.812],[34.747,55.744],[34.885,55.725],[35.063,55.735],[35.206,55.691],[35.269,55.589],[35.202,55.455],[35.405,55.259],[35.306,55.072],[35.0,55.0],[34.5,54.85],[34.2,54.75],[34.217,54.466],[33.98,54.308],[34.067,54.121],[34.578,54.008],[35.02,53.919],[35.156,53.768],[35.297,53.58],[35.719,53.557],[36.07,53.626],[36.205,53.536],[36.404,53.379],[36.865,53.33],[36.868,53.029],[37.6,52.42],[37.5,52.15],[37.35,51.85],[37.25,51.55],[37.35,51.25],[37.55,50.95],[37.7,50.6],[37.6,50.3],[37.75,49.95],[38.1,49.55],[38.4,49.2],[38.7,48.95],[39.1,48.75],[39.5,48.6],[40.0,48.45],[40.3,48.33],[40.8,48.17],[40.95,47.85],[40.75,47.5],[40.3,47.3],[39.9,47.12],[39.75,46.95],[39.5,47.0],[39.3,47.1],[38.25,46.7],[38.6,46.35],[39.0,45.95],[39.3,45.5],[39.35,45.2],[39.15,45.0],[39.2,44.75],[39.0,44.55],[38.95086082783444,44.83500719856029],[38.719,44.847],[38.49,44.805],[38.263,44.764],[38.076,44.776],[37.895,44.736],[37.85,44.66],[37.6,44.3],[37.6,0.0],[-30.0,0.0]]]}},{"type":"Feature","properties":{"side":"soviet_pocket","name":"Oranienbaum bridgehead","note":"Coastal bridgehead west of Leningrad"},"geometry":{"type":"Polygon","coordinates":[[[29.2,59.95],[29.95,59.92],[29.95,59.8],[29.5,59.7],[29.15,59.78],[29.2,59.95]]]}},{"type":"Feature","properties":{"side":"axis_pocket","name":"Demyansk salient","note":"II Army Corps, linked to the main front on 21 April 1942 by the Ramushevo corridor along the Lovat (Lage Ost: 'Gr. Seydlitz' corridor)"},"geometry":{"type":"Polygon","coordinates":[[[31.45,57.95],[31.75,57.93],[32.35,57.95],[32.85,57.85],[33.05,57.6],[32.9,57.35],[32.3,57.3],[31.8,57.5],[31.7,57.8],[31.48,57.84],[31.45,57.95]]]}},{"type":"Feature","properties":{"side":"axis_pocket","name":"Kholm","note":"Kampfgruppe Scherer, relieved from the west on 5 May 1942; the town is a German salient tip (the strip on the map covers this sector)"},"geometry":{"type":"Polygon","coordinates":[[[31.5,57.22],[31.75,57.21],[31.78,57.1],[31.6,57.06],[31.5,57.12],[31.5,57.22]]]}},{"type":"Feature","properties":{"side":"axis_pocket","name":"Stalingrad (XI Army Corps)","note":"The northern pocket in the tractor works held until 2 February 1943; the 6th Army surrendered on 31 January"},"geometry":{"type":"Polygon","coordinates":[[[44.45,48.8],[44.6,48.84],[44.66,48.79],[44.55,48.73],[44.45,48.8]]]}}]}