{"type":"FeatureCollection","source":{"archive":"CAMO, Bestand 500, Findbuch 12457, Akte 892","map_date":"1943-12-01","url":"https://wwii.germandocsinrussia.org/de/nodes/14002-akte-892-unterlagen-der-operationsabteilung-iiib-des-generalstabs-des-heeres-im-okh-karte-lage-ost-karte-zur-lage-der-truppen-der-wehrmacht-an-der-deutsch-sowjetischen-front-einschlie-lich-der-lage-der-verb-nde-der-roten-armee-stand-1-12-1943","residuals_km":{"1436668":{"Leningrad":0.6,"Kronstadt":1.0,"Moskau":2.6,"Kalinin":2.4,"Smolensk":4.3,"Kursk":12.2,"Isjum":2.3,"Kupjansk":3.9,"Dserschinsk":9.4,"Pawlowo":10.9,"Tula":8.3,"Orel":4.9},"1436669":{"Sewastopol":2.9,"Simferopol":6.0,"Jalta":5.7,"Kertsch":7.8,"Rostow":13.6,"Nowotscherkassk":6.9,"Schachty":5.1,"Kanewskaja":6.1,"Primorsko-Achtarsk":3.3,"Brjuchowezkaja":6.9,"Slawjanskaja":3.2}}},"features":[{"type":"Feature","properties":{"side":"front"},"geometry":{"type":"LineString","coordinates":[[30.209,59.811],[30.373,59.755],[30.742,59.717],[31.0,59.8],[31.05,59.84],[31.2,59.86],[31.4,59.84],[31.55,59.8],[31.75,59.6],[32.0,59.45],[31.85,59.2],[31.75,59.05],[31.65,58.85],[31.55,58.7],[31.4,58.45],[31.45,58.25],[31.5,58.05],[31.45,57.8],[31.3,57.5],[31.6,57.25],[31.8,57.0],[30.75,56.6],[30.35,56.55],[30.25,56.35],[29.9,56.25],[29.6,56.1],[29.7,55.7],[30.1,55.4],[30.5,55.2],[30.9,55.05],[31.2,54.75],[31.4,54.45],[31.5,54.0],[30.9,53.6],[30.5,53.2],[30.0,52.9],[29.6,52.4],[29.3,52.0],[28.9,51.7],[28.6,51.3],[28.4,50.95],[28.7,50.55],[29.3,50.3],[29.75,50.0],[30.2,49.75],[30.9,49.55],[31.5,49.45],[32.05,49.4],[32.4,48.95],[32.9,48.65],[33.4,48.3],[33.6,48.0],[34.2,47.85],[34.6,47.75],[34.3,47.55],[33.7,47.3],[33.3,46.9],[33.0,46.7],[32.6,46.6],[32.4,46.5],[32.0,46.3]]}},{"type":"Feature","properties":{"side":"soviet"},"geometry":{"type":"Polygon","coordinates":[[[30.209,59.811],[27.0,59.95],[27.0,90.0],[180.0,90.0],[180.0,0.0],[32.0,0.0],[32.0,46.3],[32.4,46.5],[32.6,46.6],[33.0,46.7],[33.3,46.9],[33.7,47.3],[34.3,47.55],[34.6,47.75],[34.2,47.85],[33.6,48.0],[33.4,48.3],[32.9,48.65],[32.4,48.95],[32.05,49.4],[31.5,49.45],[30.9,49.55],[30.2,49.75],[29.75,50.0],[29.3,50.3],[28.7,50.55],[28.4,50.95],[28.6,51.3],[28.9,51.7],[29.3,52.0],[29.6,52.4],[30.0,52.9],[30.5,53.2],[30.9,53.6],[31.5,54.0],[31.4,54.45],[31.2,54.75],[30.9,55.05],[30.5,55.2],[30.1,55.4],[29.7,55.7],[29.6,56.1],[29.9,56.25],[30.25,56.35],[30.35,56.55],[30.75,56.6],[31.8,57.0],[31.6,57.25],[31.3,57.5],[31.45,57.8],[31.5,58.05],[31.45,58.25],[31.4,58.45],[31.55,58.7],[31.65,58.85],[31.75,59.05],[31.85,59.2],[32.0,59.45],[31.75,59.6],[31.55,59.8],[31.4,59.84],[31.2,59.86],[31.05,59.84],[31.0,59.8],[30.742,59.717],[30.373,59.755],[30.209,59.811]]]}},{"type":"Feature","properties":{"side":"axis"},"geometry":{"type":"Polygon","coordinates":[[[-30.0,0.0],[-30.0,90.0],[27.0,90.0],[27.0,59.95],[30.209,59.811],[30.373,59.755],[30.742,59.717],[31.0,59.8],[31.05,59.84],[31.2,59.86],[31.4,59.84],[31.55,59.8],[31.75,59.6],[32.0,59.45],[31.85,59.2],[31.75,59.05],[31.65,58.85],[31.55,58.7],[31.4,58.45],[31.45,58.25],[31.5,58.05],[31.45,57.8],[31.3,57.5],[31.6,57.25],[31.8,57.0],[30.75,56.6],[30.35,56.55],[30.25,56.35],[29.9,56.25],[29.6,56.1],[29.7,55.7],[30.1,55.4],[30.5,55.2],[30.9,55.05],[31.2,54.75],[31.4,54.45],[31.5,54.0],[30.9,53.6],[30.5,53.2],[30.0,52.9],[29.6,52.4],[29.3,52.0],[28.9,51.7],[28.6,51.3],[28.4,50.95],[28.7,50.55],[29.3,50.3],[29.75,50.0],[30.2,49.75],[30.9,49.55],[31.5,49.45],[32.05,49.4],[32.4,48.95],[32.9,48.65],[33.4,48.3],[33.6,48.0],[34.2,47.85],[34.6,47.75],[34.3,47.55],[33.7,47.3],[33.3,46.9],[33.0,46.7],[32.6,46.6],[32.4,46.5],[32.0,46.3],[32.0,0.0],[-30.0,0.0]]]}},{"type":"Feature","properties":{"side":"soviet_pocket","name":"Oranienbaum bridgehead","note":"Coastal bridgehead west of Leningrad"},"geometry":{"type":"Polygon","coordinates":[[[29.2,59.95],[29.95,59.92],[29.95,59.8],[29.5,59.7],[29.15,59.78],[29.2,59.95]]]}},{"type":"Feature","properties":{"side":"axis_pocket","name":"Kholm","note":"Kampfgruppe Scherer, relieved from the west on 5 May 1942; the town is a German salient tip (the strip on the map covers this sector)"},"geometry":{"type":"Polygon","coordinates":[[[31.5,57.22],[31.75,57.21],[31.78,57.1],[31.6,57.06],[31.5,57.12],[31.5,57.22]]]}},{"type":"Feature","properties":{"side":"axis_pocket","name":"Crimea","note":"The 17th Army in the Crimea; the Red Army held a bridgehead across the Sivash and two at Kerch"},"geometry":{"type":"Polygon","coordinates":[[[33.55,46.15],[34.1,46.0],[34.6,45.75],[35.5,45.45],[36.3,45.48],[36.47,45.45],[36.53,45.38],[36.68,45.32],[36.65,45.15],[35.5,44.95],[34.4,44.45],[33.5,44.4],[33.3,44.6],[32.5,45.35],[33.0,45.95],[33.55,46.15]]]}},{"type":"Feature","properties":{"side":"soviet_pocket","name":"Kerch bridgehead","note":"The Red Army bridgehead north-east of Kerch, held from 3 November 1943"},"geometry":{"type":"Polygon","coordinates":[[[36.48,45.45],[36.66,45.45],[36.66,45.33],[36.53,45.38],[36.48,45.45]]]}}]}