{"type":"FeatureCollection","source":{"archive":"CAMO, Bestand 500, Findbuch 12457, Akte 801","map_date":"1943-09-01","url":"https://wwii.germandocsinrussia.org/de/nodes/21207-akte-801-unterlagen-der-operationsabteilung-iiib-des-generalstabs-des-heeres-im-okh-karte-lage-ost-karte-zur-lage-der-truppen-der-wehrmacht-an-der-deutsch-sowjetischen-front-einschlie-lich-der-lage-der-verb-nde-der-roten-armee-stand-1-9-1943","residuals_km":{"1436503":{"Leningrad":0.6,"Kronstadt":0.9,"Moskau":2.5,"Kalinin":2.5,"Smolensk":4.0,"Kursk":12.0,"Isjum":2.4,"Kupjansk":3.6,"Dserschinsk":9.5,"Pawlowo":11.1,"Tula":8.2,"Orel":4.8},"1436504":{"Sewastopol":2.9,"Simferopol":6.0,"Jalta":5.7,"Kertsch":7.9,"Rostow":13.6,"Nowotscherkassk":6.7,"Schachty":5.1,"Kanewskaja":6.2,"Primorsko-Achtarsk":3.2,"Brjuchowezkaja":6.9,"Slawjanskaja":3.2}}},"features":[{"type":"Feature","properties":{"side":"front"},"geometry":{"type":"LineString","coordinates":[[30.209,59.811],[30.373,59.755],[30.742,59.717],[31.0,59.8],[31.05,59.84],[31.2,59.86],[31.4,59.84],[31.55,59.8],[31.75,59.6],[32.0,59.45],[31.85,59.2],[31.75,59.05],[31.65,58.85],[31.55,58.7],[31.4,58.45],[31.45,58.25],[31.5,58.05],[31.45,57.8],[31.3,57.5],[31.6,57.25],[31.8,57.0],[31.4,56.9],[30.75,56.6],[30.35,56.55],[30.25,56.35],[30.4,56.15],[30.85,56.05],[31.0,56.0],[31.2,55.6],[31.6,55.45],[32.1,55.4],[32.4,55.2],[32.6,55.0],[33.0,54.85],[33.15,54.55],[32.9,54.2],[33.1,53.95],[33.6,53.8],[34.0,53.55],[34.3,53.3],[34.1,53.0],[34.3,52.6],[34.2,52.2],[33.8,51.85],[34.0,51.5],[34.5,51.2],[34.8,50.95],[34.6,50.6],[34.8,50.2],[35.4,50.05],[35.85,49.85],[36.2,49.75],[36.5,49.6],[36.8,49.4],[37.1,49.2],[37.5,48.95],[37.8,48.7],[38.0,48.45],[38.1,48.2],[38.0,47.95],[38.2,47.65],[38.35,47.35],[38.45,47.1],[38.4,47.05],[38.0,46.85],[37.5,46.2],[37.35,45.6],[37.45,45.3],[37.6,45.3],[37.75,45.25],[37.85,45.15],[37.9,44.98],[37.95,44.85],[37.85,44.76],[37.8,44.72],[37.8,44.72],[37.6,44.3]]}},{"type":"Feature","properties":{"side":"soviet"},"geometry":{"type":"Polygon","coordinates":[[[30.209,59.811],[27.0,59.95],[27.0,90.0],[180.0,90.0],[180.0,0.0],[37.6,0.0],[37.6,44.3],[37.8,44.72],[37.85,44.76],[37.95,44.85],[37.9,44.98],[37.85,45.15],[37.75,45.25],[37.6,45.3],[37.45,45.3],[37.35,45.6],[37.5,46.2],[38.0,46.85],[38.4,47.05],[38.45,47.1],[38.35,47.35],[38.2,47.65],[38.0,47.95],[38.1,48.2],[38.0,48.45],[37.8,48.7],[37.5,48.95],[37.1,49.2],[36.8,49.4],[36.5,49.6],[36.2,49.75],[35.85,49.85],[35.4,50.05],[34.8,50.2],[34.6,50.6],[34.8,50.95],[34.5,51.2],[34.0,51.5],[33.8,51.85],[34.2,52.2],[34.3,52.6],[34.1,53.0],[34.3,53.3],[34.0,53.55],[33.6,53.8],[33.1,53.95],[32.9,54.2],[33.15,54.55],[33.0,54.85],[32.6,55.0],[32.4,55.2],[32.1,55.4],[31.6,55.45],[31.2,55.6],[31.0,56.0],[30.85,56.05],[30.4,56.15],[30.25,56.35],[30.35,56.55],[30.75,56.6],[31.4,56.9],[31.8,57.0],[31.6,57.25],[31.3,57.5],[31.45,57.8],[31.5,58.05],[31.45,58.25],[31.4,58.45],[31.55,58.7],[31.65,58.85],[31.75,59.05],[31.85,59.2],[32.0,59.45],[31.75,59.6],[31.55,59.8],[31.4,59.84],[31.2,59.86],[31.05,59.84],[31.0,59.8],[30.742,59.717],[30.373,59.755],[30.209,59.811]]]}},{"type":"Feature","properties":{"side":"axis"},"geometry":{"type":"Polygon","coordinates":[[[-30.0,0.0],[-30.0,90.0],[27.0,90.0],[27.0,59.95],[30.209,59.811],[30.373,59.755],[30.742,59.717],[31.0,59.8],[31.05,59.84],[31.2,59.86],[31.4,59.84],[31.55,59.8],[31.75,59.6],[32.0,59.45],[31.85,59.2],[31.75,59.05],[31.65,58.85],[31.55,58.7],[31.4,58.45],[31.45,58.25],[31.5,58.05],[31.45,57.8],[31.3,57.5],[31.6,57.25],[31.8,57.0],[31.4,56.9],[30.75,56.6],[30.35,56.55],[30.25,56.35],[30.4,56.15],[30.85,56.05],[31.0,56.0],[31.2,55.6],[31.6,55.45],[32.1,55.4],[32.4,55.2],[32.6,55.0],[33.0,54.85],[33.15,54.55],[32.9,54.2],[33.1,53.95],[33.6,53.8],[34.0,53.55],[34.3,53.3],[34.1,53.0],[34.3,52.6],[34.2,52.2],[33.8,51.85],[34.0,51.5],[34.5,51.2],[34.8,50.95],[34.6,50.6],[34.8,50.2],[35.4,50.05],[35.85,49.85],[36.2,49.75],[36.5,49.6],[36.8,49.4],[37.1,49.2],[37.5,48.95],[37.8,48.7],[38.0,48.45],[38.1,48.2],[38.0,47.95],[38.2,47.65],[38.35,47.35],[38.45,47.1],[38.4,47.05],[38.0,46.85],[37.5,46.2],[37.35,45.6],[37.45,45.3],[37.6,45.3],[37.75,45.25],[37.85,45.15],[37.9,44.98],[37.95,44.85],[37.85,44.76],[37.8,44.72],[37.6,44.3],[37.6,0.0],[-30.0,0.0]]]}},{"type":"Feature","properties":{"side":"soviet_pocket","name":"Oranienbaum bridgehead","note":"Coastal bridgehead west of Leningrad"},"geometry":{"type":"Polygon","coordinates":[[[29.2,59.95],[29.95,59.92],[29.95,59.8],[29.5,59.7],[29.15,59.78],[29.2,59.95]]]}},{"type":"Feature","properties":{"side":"axis_pocket","name":"Kholm","note":"Kampfgruppe Scherer, relieved from the west on 5 May 1942; the town is a German salient tip (the strip on the map covers this sector)"},"geometry":{"type":"Polygon","coordinates":[[[31.5,57.22],[31.75,57.21],[31.78,57.1],[31.6,57.06],[31.5,57.12],[31.5,57.22]]]}}]}