{"type":"FeatureCollection","source":{"archive":"CAMO, Bestand 500, Findbuch 12457, Akte 617","map_date":"1943-03-01","url":"https://wwii.germandocsinrussia.org/de/nodes/21023-akte-617-unterlagen-der-operationsabteilung-iiib-des-generalstabs-des-heeres-im-okh-karte-lage-ost-karte-zur-lage-der-truppen-der-wehrmacht-an-der-deutsch-sowjetischen-front-einschlie-lich-der-lage-der-verb-nde-der-roten-armee-stand-1-3-1943","residuals_km":{"1272548":{"Leningrad":0.7,"Kronstadt":0.9,"Moskau":2.6,"Kalinin":2.5,"Smolensk":4.0,"Kursk":12.0,"Isjum":2.4,"Kupjansk":3.6,"Dserschinsk":9.5,"Pawlowo":11.0,"Tula":8.2,"Orel":4.8},"1272549":{"Sewastopol":2.9,"Simferopol":6.0,"Jalta":5.7,"Kertsch":7.9,"Rostow":13.6,"Nowotscherkassk":6.8,"Schachty":5.1,"Kanewskaja":6.1,"Primorsko-Achtarsk":3.3,"Brjuchowezkaja":6.9,"Slawjanskaja":3.2}}},"features":[{"type":"Feature","properties":{"side":"front"},"geometry":{"type":"LineString","coordinates":[[30.209,59.811],[30.373,59.755],[30.742,59.717],[31.0,59.8],[31.05,59.84],[31.2,59.86],[31.4,59.84],[31.55,59.8],[31.75,59.6],[32.0,59.45],[31.85,59.2],[31.75,59.05],[31.65,58.85],[31.55,58.7],[31.4,58.45],[31.45,58.25],[31.5,58.05],[31.45,57.8],[31.3,57.5],[31.6,57.25],[31.8,57.0],[31.4,56.9],[30.75,56.6],[30.35,56.55],[30.25,56.35],[30.4,56.15],[30.85,56.05],[31.0,56.0],[31.0,56.0],[31.3,55.6],[31.75,55.5],[32.0,55.7],[32.1,55.95],[32.45,56.05],[32.85,56.15],[32.985,56.254],[33.202,56.308],[33.562,56.345],[33.743,56.368],[33.836,56.269],[34.047,56.255],[34.121,56.318],[34.262,56.31],[34.392,56.286],[34.506,56.045],[34.481,55.938],[34.553,55.812],[34.747,55.744],[34.885,55.725],[35.063,55.735],[35.206,55.691],[35.269,55.589],[35.202,55.455],[35.405,55.259],[35.306,55.072],[35.0,55.0],[34.5,54.85],[34.2,54.75],[34.217,54.466],[33.98,54.308],[34.067,54.121],[34.578,54.008],[35.02,53.919],[35.156,53.768],[35.297,53.58],[35.719,53.557],[36.07,53.626],[36.205,53.536],[36.404,53.379],[36.865,53.33],[36.868,53.029],[37.01,53.0],[36.8,52.7],[36.4,52.45],[35.6,52.45],[35.1,52.4],[34.7,52.1],[34.6,51.7],[34.5,51.2],[34.1,50.9],[34.3,50.5],[34.9,50.1],[35.3,49.85],[35.6,49.4],[36.1,49.1],[36.6,48.95],[37.05,49.1],[37.3,49.1],[37.6,48.9],[38.0,48.85],[38.3,48.85],[38.6,48.7],[38.6,48.7],[38.75,48.4],[38.82,48.1],[38.84,47.8],[38.8,47.5],[38.83,47.3],[38.9,47.22],[39.0,47.15],[38.8,47.05],[38.0,46.85],[37.5,46.2],[37.35,45.6],[37.45,45.3],[37.6,45.3],[37.75,45.25],[37.9,45.15],[38.05,44.98],[38.0,44.85],[37.9,44.78],[37.8,44.72],[37.8,44.72],[37.6,44.3]]}},{"type":"Feature","properties":{"side":"soviet"},"geometry":{"type":"Polygon","coordinates":[[[30.209,59.811],[27.0,59.95],[27.0,90.0],[180.0,90.0],[180.0,0.0],[37.6,0.0],[37.6,44.3],[37.8,44.72],[37.9,44.78],[38.0,44.85],[38.05,44.98],[37.9,45.15],[37.75,45.25],[37.6,45.3],[37.45,45.3],[37.35,45.6],[37.5,46.2],[38.0,46.85],[38.8,47.05],[39.0,47.15],[38.9,47.22],[38.83,47.3],[38.8,47.5],[38.84,47.8],[38.82,48.1],[38.75,48.4],[38.6,48.7],[38.3,48.85],[38.0,48.85],[37.6,48.9],[37.3,49.1],[37.05,49.1],[36.6,48.95],[36.1,49.1],[35.6,49.4],[35.3,49.85],[34.9,50.1],[34.3,50.5],[34.1,50.9],[34.5,51.2],[34.6,51.7],[34.7,52.1],[35.1,52.4],[35.6,52.45],[36.4,52.45],[36.8,52.7],[37.01,53.0],[36.868,53.029],[36.865,53.33],[36.404,53.379],[36.205,53.536],[36.07,53.626],[35.719,53.557],[35.297,53.58],[35.156,53.768],[35.02,53.919],[34.578,54.008],[34.067,54.121],[33.98,54.308],[34.217,54.466],[34.2,54.75],[34.5,54.85],[35.0,55.0],[35.306,55.072],[35.405,55.259],[35.202,55.455],[35.269,55.589],[35.206,55.691],[35.063,55.735],[34.885,55.725],[34.747,55.744],[34.553,55.812],[34.481,55.938],[34.506,56.045],[34.392,56.286],[34.262,56.31],[34.121,56.318],[34.047,56.255],[33.836,56.269],[33.743,56.368],[33.562,56.345],[33.202,56.308],[32.985,56.254],[32.85,56.15],[32.45,56.05],[32.1,55.95],[32.0,55.7],[31.75,55.5],[31.3,55.6],[31.0,56.0],[30.85,56.05],[30.4,56.15],[30.25,56.35],[30.35,56.55],[30.75,56.6],[31.4,56.9],[31.8,57.0],[31.6,57.25],[31.3,57.5],[31.45,57.8],[31.5,58.05],[31.45,58.25],[31.4,58.45],[31.55,58.7],[31.65,58.85],[31.75,59.05],[31.85,59.2],[32.0,59.45],[31.75,59.6],[31.55,59.8],[31.4,59.84],[31.2,59.86],[31.05,59.84],[31.0,59.8],[30.742,59.717],[30.373,59.755],[30.209,59.811]]]}},{"type":"Feature","properties":{"side":"axis"},"geometry":{"type":"Polygon","coordinates":[[[-30.0,0.0],[-30.0,90.0],[27.0,90.0],[27.0,59.95],[30.209,59.811],[30.373,59.755],[30.742,59.717],[31.0,59.8],[31.05,59.84],[31.2,59.86],[31.4,59.84],[31.55,59.8],[31.75,59.6],[32.0,59.45],[31.85,59.2],[31.75,59.05],[31.65,58.85],[31.55,58.7],[31.4,58.45],[31.45,58.25],[31.5,58.05],[31.45,57.8],[31.3,57.5],[31.6,57.25],[31.8,57.0],[31.4,56.9],[30.75,56.6],[30.35,56.55],[30.25,56.35],[30.4,56.15],[30.85,56.05],[31.0,56.0],[31.3,55.6],[31.75,55.5],[32.0,55.7],[32.1,55.95],[32.45,56.05],[32.85,56.15],[32.985,56.254],[33.202,56.308],[33.562,56.345],[33.743,56.368],[33.836,56.269],[34.047,56.255],[34.121,56.318],[34.262,56.31],[34.392,56.286],[34.506,56.045],[34.481,55.938],[34.553,55.812],[34.747,55.744],[34.885,55.725],[35.063,55.735],[35.206,55.691],[35.269,55.589],[35.202,55.455],[35.405,55.259],[35.306,55.072],[35.0,55.0],[34.5,54.85],[34.2,54.75],[34.217,54.466],[33.98,54.308],[34.067,54.121],[34.578,54.008],[35.02,53.919],[35.156,53.768],[35.297,53.58],[35.719,53.557],[36.07,53.626],[36.205,53.536],[36.404,53.379],[36.865,53.33],[36.868,53.029],[37.01,53.0],[36.8,52.7],[36.4,52.45],[35.6,52.45],[35.1,52.4],[34.7,52.1],[34.6,51.7],[34.5,51.2],[34.1,50.9],[34.3,50.5],[34.9,50.1],[35.3,49.85],[35.6,49.4],[36.1,49.1],[36.6,48.95],[37.05,49.1],[37.3,49.1],[37.6,48.9],[38.0,48.85],[38.3,48.85],[38.6,48.7],[38.75,48.4],[38.82,48.1],[38.84,47.8],[38.8,47.5],[38.83,47.3],[38.9,47.22],[39.0,47.15],[38.8,47.05],[38.0,46.85],[37.5,46.2],[37.35,45.6],[37.45,45.3],[37.6,45.3],[37.75,45.25],[37.9,45.15],[38.05,44.98],[38.0,44.85],[37.9,44.78],[37.8,44.72],[37.6,44.3],[37.6,0.0],[-30.0,0.0]]]}},{"type":"Feature","properties":{"side":"soviet_pocket","name":"Oranienbaum bridgehead","note":"Coastal bridgehead west of Leningrad"},"geometry":{"type":"Polygon","coordinates":[[[29.2,59.95],[29.95,59.92],[29.95,59.8],[29.5,59.7],[29.15,59.78],[29.2,59.95]]]}},{"type":"Feature","properties":{"side":"axis_pocket","name":"Kholm","note":"Kampfgruppe Scherer, relieved from the west on 5 May 1942; the town is a German salient tip (the strip on the map covers this sector)"},"geometry":{"type":"Polygon","coordinates":[[[31.5,57.22],[31.75,57.21],[31.78,57.1],[31.6,57.06],[31.5,57.12],[31.5,57.22]]]}}]}