{"type":"FeatureCollection","source":{"archive":"CAMO, Bestand 500, Findbuch 12457, Akte 832","map_date":"1943-10-02","url":"https://wwii.germandocsinrussia.org/de/nodes/13942-akte-832-unterlagen-der-operationsabteilung-iiib-des-generalstabs-des-heeres-im-okh-karte-lage-ost-karte-zur-lage-der-truppen-der-wehrmacht-an-der-deutsch-sowjetischen-front-einschlie-lich-der-lage-der-verb-nde-der-roten-armee-stand-2-10-1943","residuals_km":{"1436551":{"Leningrad":0.6,"Kronstadt":0.9,"Moskau":2.6,"Kalinin":2.5,"Smolensk":4.2,"Kursk":12.2,"Isjum":2.3,"Kupjansk":3.8,"Dserschinsk":9.4,"Pawlowo":10.9,"Tula":8.3,"Orel":4.9},"1436552":{"Sewastopol":2.8,"Simferopol":6.0,"Jalta":5.7,"Kertsch":7.9,"Rostow":13.6,"Nowotscherkassk":6.8,"Schachty":5.1,"Kanewskaja":6.1,"Primorsko-Achtarsk":3.3,"Brjuchowezkaja":6.9,"Slawjanskaja":3.2}}},"features":[{"type":"Feature","properties":{"side":"front"},"geometry":{"type":"LineString","coordinates":[[30.209,59.811],[30.373,59.755],[30.742,59.717],[31.0,59.8],[31.05,59.84],[31.2,59.86],[31.4,59.84],[31.55,59.8],[31.75,59.6],[32.0,59.45],[31.85,59.2],[31.75,59.05],[31.65,58.85],[31.55,58.7],[31.4,58.45],[31.45,58.25],[31.5,58.05],[31.45,57.8],[31.3,57.5],[31.6,57.25],[31.8,57.0],[31.4,56.9],[30.75,56.6],[30.35,56.55],[30.25,56.35],[30.4,56.15],[30.85,56.05],[31.0,56.0],[30.95,55.7],[30.9,55.4],[31.0,55.05],[31.2,54.75],[31.4,54.45],[31.6,54.15],[31.5,53.8],[31.2,53.55],[30.95,53.3],[30.8,52.95],[31.25,52.65],[31.15,52.3],[30.55,51.85],[30.45,51.4],[30.6,51.05],[30.5,50.6],[30.6,50.25],[30.95,50.05],[31.4,49.9],[31.7,49.75],[32.05,49.45],[32.6,49.25],[33.4,49.05],[33.9,48.95],[34.5,48.6],[35.04,48.5],[35.3,48.2],[35.55,47.9],[35.45,47.55],[35.4,47.2],[35.37,46.9],[35.45,46.6],[35.55,46.5],[35.6,46.4],[35.8,46.0],[36.2,45.6],[36.65,45.48],[36.7,45.0],[36.6,44.4]]}},{"type":"Feature","properties":{"side":"soviet"},"geometry":{"type":"Polygon","coordinates":[[[30.209,59.811],[27.0,59.95],[27.0,90.0],[180.0,90.0],[180.0,0.0],[36.6,0.0],[36.6,44.4],[36.7,45.0],[36.65,45.48],[36.2,45.6],[35.8,46.0],[35.6,46.4],[35.55,46.5],[35.45,46.6],[35.37,46.9],[35.4,47.2],[35.45,47.55],[35.55,47.9],[35.3,48.2],[35.04,48.5],[34.5,48.6],[33.9,48.95],[33.4,49.05],[32.6,49.25],[32.05,49.45],[31.7,49.75],[31.4,49.9],[30.95,50.05],[30.6,50.25],[30.5,50.6],[30.6,51.05],[30.45,51.4],[30.55,51.85],[31.15,52.3],[31.25,52.65],[30.8,52.95],[30.95,53.3],[31.2,53.55],[31.5,53.8],[31.6,54.15],[31.4,54.45],[31.2,54.75],[31.0,55.05],[30.9,55.4],[30.95,55.7],[31.0,56.0],[30.85,56.05],[30.4,56.15],[30.25,56.35],[30.35,56.55],[30.75,56.6],[31.4,56.9],[31.8,57.0],[31.6,57.25],[31.3,57.5],[31.45,57.8],[31.5,58.05],[31.45,58.25],[31.4,58.45],[31.55,58.7],[31.65,58.85],[31.75,59.05],[31.85,59.2],[32.0,59.45],[31.75,59.6],[31.55,59.8],[31.4,59.84],[31.2,59.86],[31.05,59.84],[31.0,59.8],[30.742,59.717],[30.373,59.755],[30.209,59.811]]]}},{"type":"Feature","properties":{"side":"axis"},"geometry":{"type":"Polygon","coordinates":[[[-30.0,0.0],[-30.0,90.0],[27.0,90.0],[27.0,59.95],[30.209,59.811],[30.373,59.755],[30.742,59.717],[31.0,59.8],[31.05,59.84],[31.2,59.86],[31.4,59.84],[31.55,59.8],[31.75,59.6],[32.0,59.45],[31.85,59.2],[31.75,59.05],[31.65,58.85],[31.55,58.7],[31.4,58.45],[31.45,58.25],[31.5,58.05],[31.45,57.8],[31.3,57.5],[31.6,57.25],[31.8,57.0],[31.4,56.9],[30.75,56.6],[30.35,56.55],[30.25,56.35],[30.4,56.15],[30.85,56.05],[31.0,56.0],[30.95,55.7],[30.9,55.4],[31.0,55.05],[31.2,54.75],[31.4,54.45],[31.6,54.15],[31.5,53.8],[31.2,53.55],[30.95,53.3],[30.8,52.95],[31.25,52.65],[31.15,52.3],[30.55,51.85],[30.45,51.4],[30.6,51.05],[30.5,50.6],[30.6,50.25],[30.95,50.05],[31.4,49.9],[31.7,49.75],[32.05,49.45],[32.6,49.25],[33.4,49.05],[33.9,48.95],[34.5,48.6],[35.04,48.5],[35.3,48.2],[35.55,47.9],[35.45,47.55],[35.4,47.2],[35.37,46.9],[35.45,46.6],[35.55,46.5],[35.6,46.4],[35.8,46.0],[36.2,45.6],[36.65,45.48],[36.7,45.0],[36.6,44.4],[36.6,0.0],[-30.0,0.0]]]}},{"type":"Feature","properties":{"side":"soviet_pocket","name":"Oranienbaum bridgehead","note":"Coastal bridgehead west of Leningrad"},"geometry":{"type":"Polygon","coordinates":[[[29.2,59.95],[29.95,59.92],[29.95,59.8],[29.5,59.7],[29.15,59.78],[29.2,59.95]]]}},{"type":"Feature","properties":{"side":"axis_pocket","name":"Kholm","note":"Kampfgruppe Scherer, relieved from the west on 5 May 1942; the town is a German salient tip (the strip on the map covers this sector)"},"geometry":{"type":"Polygon","coordinates":[[[31.5,57.22],[31.75,57.21],[31.78,57.1],[31.6,57.06],[31.5,57.12],[31.5,57.22]]]}},{"type":"Feature","properties":{"side":"axis_pocket","name":"Taman","note":"The last German positions on the Taman peninsula, evacuated by 9 October 1943"},"geometry":{"type":"Polygon","coordinates":[[[36.6,45.45],[37.0,45.38],[37.05,45.1],[36.85,44.97],[36.6,45.05],[36.6,45.45]]]}}]}