{"type":"FeatureCollection","source":{"archive":"CAMO, Bestand 500, Findbuch 12457, Akte 862","map_date":"1943-11-01","url":"https://wwii.germandocsinrussia.org/de/nodes/13972-akte-862-unterlagen-der-operationsabteilung-iiib-des-generalstabs-des-heeres-im-okh-karte-lage-ost-karte-zur-lage-der-truppen-der-wehrmacht-an-der-deutsch-sowjetischen-front-einschlie-lich-der-lage-der-verb-nde-der-roten-armee-stand-1-11-1943","residuals_km":{"1436607":{"Leningrad":0.6,"Kronstadt":0.8,"Moskau":2.6,"Kalinin":2.6,"Smolensk":4.0,"Kursk":11.9,"Isjum":2.5,"Kupjansk":3.5,"Dserschinsk":9.5,"Pawlowo":11.0,"Tula":8.2,"Orel":4.7},"1436608":{"Sewastopol":2.8,"Simferopol":6.0,"Jalta":5.8,"Kertsch":7.9,"Rostow":13.6,"Nowotscherkassk":6.8,"Schachty":5.1,"Kanewskaja":6.1,"Primorsko-Achtarsk":3.2,"Brjuchowezkaja":6.9,"Slawjanskaja":3.2}}},"features":[{"type":"Feature","properties":{"side":"front"},"geometry":{"type":"LineString","coordinates":[[30.209,59.811],[30.373,59.755],[30.742,59.717],[31.0,59.8],[31.05,59.84],[31.2,59.86],[31.4,59.84],[31.55,59.8],[31.75,59.6],[32.0,59.45],[31.85,59.2],[31.75,59.05],[31.65,58.85],[31.55,58.7],[31.4,58.45],[31.45,58.25],[31.5,58.05],[31.45,57.8],[31.3,57.5],[31.6,57.25],[31.8,57.0],[30.75,56.6],[30.35,56.55],[30.25,56.35],[30.05,56.15],[29.95,55.95],[30.15,55.7],[30.6,55.5],[30.9,55.3],[31.0,55.05],[31.2,54.75],[31.4,54.45],[31.6,54.15],[31.5,53.8],[31.2,53.55],[30.95,53.3],[30.8,52.95],[31.25,52.65],[31.15,52.3],[30.6,51.9],[30.5,51.45],[30.4,51.05],[30.4,50.7],[30.6,50.25],[31.0,50.05],[31.4,49.9],[31.7,49.75],[32.05,49.45],[32.6,49.25],[33.2,49.0],[33.45,48.6],[33.6,48.2],[34.2,48.05],[34.6,47.85],[34.3,47.55],[33.7,47.3],[33.3,46.9],[33.0,46.7],[32.6,46.6],[32.4,46.5],[32.0,46.3]]}},{"type":"Feature","properties":{"side":"soviet"},"geometry":{"type":"Polygon","coordinates":[[[30.209,59.811],[27.0,59.95],[27.0,90.0],[180.0,90.0],[180.0,0.0],[32.0,0.0],[32.0,46.3],[32.4,46.5],[32.6,46.6],[33.0,46.7],[33.3,46.9],[33.7,47.3],[34.3,47.55],[34.6,47.85],[34.2,48.05],[33.6,48.2],[33.45,48.6],[33.2,49.0],[32.6,49.25],[32.05,49.45],[31.7,49.75],[31.4,49.9],[31.0,50.05],[30.6,50.25],[30.4,50.7],[30.4,51.05],[30.5,51.45],[30.6,51.9],[31.15,52.3],[31.25,52.65],[30.8,52.95],[30.95,53.3],[31.2,53.55],[31.5,53.8],[31.6,54.15],[31.4,54.45],[31.2,54.75],[31.0,55.05],[30.9,55.3],[30.6,55.5],[30.15,55.7],[29.95,55.95],[30.05,56.15],[30.25,56.35],[30.35,56.55],[30.75,56.6],[31.8,57.0],[31.6,57.25],[31.3,57.5],[31.45,57.8],[31.5,58.05],[31.45,58.25],[31.4,58.45],[31.55,58.7],[31.65,58.85],[31.75,59.05],[31.85,59.2],[32.0,59.45],[31.75,59.6],[31.55,59.8],[31.4,59.84],[31.2,59.86],[31.05,59.84],[31.0,59.8],[30.742,59.717],[30.373,59.755],[30.209,59.811]]]}},{"type":"Feature","properties":{"side":"axis"},"geometry":{"type":"Polygon","coordinates":[[[-30.0,0.0],[-30.0,90.0],[27.0,90.0],[27.0,59.95],[30.209,59.811],[30.373,59.755],[30.742,59.717],[31.0,59.8],[31.05,59.84],[31.2,59.86],[31.4,59.84],[31.55,59.8],[31.75,59.6],[32.0,59.45],[31.85,59.2],[31.75,59.05],[31.65,58.85],[31.55,58.7],[31.4,58.45],[31.45,58.25],[31.5,58.05],[31.45,57.8],[31.3,57.5],[31.6,57.25],[31.8,57.0],[30.75,56.6],[30.35,56.55],[30.25,56.35],[30.05,56.15],[29.95,55.95],[30.15,55.7],[30.6,55.5],[30.9,55.3],[31.0,55.05],[31.2,54.75],[31.4,54.45],[31.6,54.15],[31.5,53.8],[31.2,53.55],[30.95,53.3],[30.8,52.95],[31.25,52.65],[31.15,52.3],[30.6,51.9],[30.5,51.45],[30.4,51.05],[30.4,50.7],[30.6,50.25],[31.0,50.05],[31.4,49.9],[31.7,49.75],[32.05,49.45],[32.6,49.25],[33.2,49.0],[33.45,48.6],[33.6,48.2],[34.2,48.05],[34.6,47.85],[34.3,47.55],[33.7,47.3],[33.3,46.9],[33.0,46.7],[32.6,46.6],[32.4,46.5],[32.0,46.3],[32.0,0.0],[-30.0,0.0]]]}},{"type":"Feature","properties":{"side":"soviet_pocket","name":"Oranienbaum bridgehead","note":"Coastal bridgehead west of Leningrad"},"geometry":{"type":"Polygon","coordinates":[[[29.2,59.95],[29.95,59.92],[29.95,59.8],[29.5,59.7],[29.15,59.78],[29.2,59.95]]]}},{"type":"Feature","properties":{"side":"axis_pocket","name":"Kholm","note":"Kampfgruppe Scherer, relieved from the west on 5 May 1942; the town is a German salient tip (the strip on the map covers this sector)"},"geometry":{"type":"Polygon","coordinates":[[[31.5,57.22],[31.75,57.21],[31.78,57.1],[31.6,57.06],[31.5,57.12],[31.5,57.22]]]}},{"type":"Feature","properties":{"side":"axis_pocket","name":"Crimea","note":"The 17th Army in the Crimea, cut off by land since the Red Army reached Perekop on 1 November 1943"},"geometry":{"type":"Polygon","coordinates":[[[33.55,46.15],[34.1,46.1],[35.0,45.7],[35.6,45.45],[36.6,45.45],[36.7,45.1],[35.5,44.95],[34.4,44.45],[33.5,44.4],[33.3,44.6],[32.5,45.35],[33.0,45.95],[33.55,46.15]]]}}]}