{"type":"FeatureCollection","source":{"archive":"CAMO, Bestand 500, Findbuch 12457, Akte 770","map_date":"1943-08-01","url":"https://wwii.germandocsinrussia.org/de/nodes/21176-akte-770-unterlagen-der-operationsabteilung-iiib-des-generalstabs-des-heeres-im-okh-karte-lage-ost-karte-zur-lage-der-truppen-der-wehrmacht-an-der-deutsch-sowjetischen-front-einschlie-lich-der-lage-der-verb-nde-der-roten-armee-stand-1-8-1943","residuals_km":{"1436441":{"Leningrad":0.6,"Kronstadt":0.9,"Moskau":2.6,"Kalinin":2.6,"Smolensk":4.0,"Kursk":12.0,"Isjum":2.4,"Kupjansk":3.6,"Dserschinsk":9.5,"Pawlowo":11.0,"Tula":8.3,"Orel":4.8},"1436442":{"Sewastopol":2.9,"Simferopol":6.0,"Jalta":5.7,"Kertsch":7.9,"Rostow":13.6,"Nowotscherkassk":6.7,"Schachty":5.1,"Kanewskaja":6.2,"Primorsko-Achtarsk":3.3,"Brjuchowezkaja":6.8,"Slawjanskaja":3.2}}},"features":[{"type":"Feature","properties":{"side":"front"},"geometry":{"type":"LineString","coordinates":[[30.209,59.811],[30.373,59.755],[30.742,59.717],[31.0,59.8],[31.05,59.84],[31.2,59.86],[31.4,59.84],[31.55,59.8],[31.75,59.6],[32.0,59.45],[31.85,59.2],[31.75,59.05],[31.65,58.85],[31.55,58.7],[31.4,58.45],[31.45,58.25],[31.5,58.05],[31.45,57.8],[31.3,57.5],[31.6,57.25],[31.8,57.0],[31.4,56.9],[30.75,56.6],[30.35,56.55],[30.25,56.35],[30.4,56.15],[30.85,56.05],[31.0,56.0],[31.2,55.6],[31.6,55.45],[32.1,55.4],[32.4,55.2],[32.6,55.0],[33.05,54.9],[33.4,54.75],[33.8,54.5],[34.1,54.3],[34.3,54.1],[34.3,54.1],[34.6,53.95],[34.95,53.8],[35.4,53.55],[35.75,53.4],[36.05,53.15],[36.25,52.95],[36.3,52.7],[36.1,52.55],[35.9,52.45],[35.4,52.5],[35.0,52.3],[34.6,52.1],[34.4,51.8],[34.6,51.5],[34.9,51.2],[35.3,51.0],[35.7,50.9],[36.1,50.8],[36.5,50.65],[36.7,50.45],[36.92,50.25],[36.88,50.0],[36.75,49.8],[36.85,49.55],[37.1,49.3],[37.4,49.15],[37.7,48.95],[38.0,48.85],[38.3,48.85],[38.6,48.7],[38.6,48.7],[38.75,48.4],[38.82,48.1],[38.84,47.8],[38.8,47.5],[38.83,47.3],[38.9,47.22],[39.0,47.15],[38.8,47.05],[38.0,46.85],[37.5,46.2],[37.35,45.6],[37.45,45.3],[37.6,45.3],[37.75,45.25],[37.85,45.15],[37.9,44.98],[37.95,44.85],[37.85,44.76],[37.8,44.72],[37.8,44.72],[37.6,44.3]]}},{"type":"Feature","properties":{"side":"soviet"},"geometry":{"type":"Polygon","coordinates":[[[30.209,59.811],[27.0,59.95],[27.0,90.0],[180.0,90.0],[180.0,0.0],[37.6,0.0],[37.6,44.3],[37.8,44.72],[37.85,44.76],[37.95,44.85],[37.9,44.98],[37.85,45.15],[37.75,45.25],[37.6,45.3],[37.45,45.3],[37.35,45.6],[37.5,46.2],[38.0,46.85],[38.8,47.05],[39.0,47.15],[38.9,47.22],[38.83,47.3],[38.8,47.5],[38.84,47.8],[38.82,48.1],[38.75,48.4],[38.6,48.7],[38.3,48.85],[38.0,48.85],[37.7,48.95],[37.4,49.15],[37.1,49.3],[36.85,49.55],[36.75,49.8],[36.88,50.0],[36.92,50.25],[36.7,50.45],[36.5,50.65],[36.1,50.8],[35.7,50.9],[35.3,51.0],[34.9,51.2],[34.6,51.5],[34.4,51.8],[34.6,52.1],[35.0,52.3],[35.4,52.5],[35.9,52.45],[36.1,52.55],[36.3,52.7],[36.25,52.95],[36.05,53.15],[35.75,53.4],[35.4,53.55],[34.95,53.8],[34.6,53.95],[34.3,54.1],[34.1,54.3],[33.8,54.5],[33.4,54.75],[33.05,54.9],[32.6,55.0],[32.4,55.2],[32.1,55.4],[31.6,55.45],[31.2,55.6],[31.0,56.0],[30.85,56.05],[30.4,56.15],[30.25,56.35],[30.35,56.55],[30.75,56.6],[31.4,56.9],[31.8,57.0],[31.6,57.25],[31.3,57.5],[31.45,57.8],[31.5,58.05],[31.45,58.25],[31.4,58.45],[31.55,58.7],[31.65,58.85],[31.75,59.05],[31.85,59.2],[32.0,59.45],[31.75,59.6],[31.55,59.8],[31.4,59.84],[31.2,59.86],[31.05,59.84],[31.0,59.8],[30.742,59.717],[30.373,59.755],[30.209,59.811]]]}},{"type":"Feature","properties":{"side":"axis"},"geometry":{"type":"Polygon","coordinates":[[[-30.0,0.0],[-30.0,90.0],[27.0,90.0],[27.0,59.95],[30.209,59.811],[30.373,59.755],[30.742,59.717],[31.0,59.8],[31.05,59.84],[31.2,59.86],[31.4,59.84],[31.55,59.8],[31.75,59.6],[32.0,59.45],[31.85,59.2],[31.75,59.05],[31.65,58.85],[31.55,58.7],[31.4,58.45],[31.45,58.25],[31.5,58.05],[31.45,57.8],[31.3,57.5],[31.6,57.25],[31.8,57.0],[31.4,56.9],[30.75,56.6],[30.35,56.55],[30.25,56.35],[30.4,56.15],[30.85,56.05],[31.0,56.0],[31.2,55.6],[31.6,55.45],[32.1,55.4],[32.4,55.2],[32.6,55.0],[33.05,54.9],[33.4,54.75],[33.8,54.5],[34.1,54.3],[34.3,54.1],[34.6,53.95],[34.95,53.8],[35.4,53.55],[35.75,53.4],[36.05,53.15],[36.25,52.95],[36.3,52.7],[36.1,52.55],[35.9,52.45],[35.4,52.5],[35.0,52.3],[34.6,52.1],[34.4,51.8],[34.6,51.5],[34.9,51.2],[35.3,51.0],[35.7,50.9],[36.1,50.8],[36.5,50.65],[36.7,50.45],[36.92,50.25],[36.88,50.0],[36.75,49.8],[36.85,49.55],[37.1,49.3],[37.4,49.15],[37.7,48.95],[38.0,48.85],[38.3,48.85],[38.6,48.7],[38.75,48.4],[38.82,48.1],[38.84,47.8],[38.8,47.5],[38.83,47.3],[38.9,47.22],[39.0,47.15],[38.8,47.05],[38.0,46.85],[37.5,46.2],[37.35,45.6],[37.45,45.3],[37.6,45.3],[37.75,45.25],[37.85,45.15],[37.9,44.98],[37.95,44.85],[37.85,44.76],[37.8,44.72],[37.6,44.3],[37.6,0.0],[-30.0,0.0]]]}},{"type":"Feature","properties":{"side":"soviet_pocket","name":"Oranienbaum bridgehead","note":"Coastal bridgehead west of Leningrad"},"geometry":{"type":"Polygon","coordinates":[[[29.2,59.95],[29.95,59.92],[29.95,59.8],[29.5,59.7],[29.15,59.78],[29.2,59.95]]]}},{"type":"Feature","properties":{"side":"axis_pocket","name":"Kholm","note":"Kampfgruppe Scherer, relieved from the west on 5 May 1942; the town is a German salient tip (the strip on the map covers this sector)"},"geometry":{"type":"Polygon","coordinates":[[[31.5,57.22],[31.75,57.21],[31.78,57.1],[31.6,57.06],[31.5,57.12],[31.5,57.22]]]}}]}