{"type":"FeatureCollection","source":{"archive":"Library of Congress, Geography and Map Division, World War II Military Situation Maps, HQ Twelfth Army Group situation map [September 1, 1944]","map_time":"1200 hrs 1 September 1944","url":"https://www.loc.gov/item/2004629126/","image":"ict21088","cone_constant":0.689,"residuals_km":{"Mantes":0.6,"Compiegne":3.3,"Melun":0.4,"Bernay":0.9,"Alencon":2.8,"Gien":3.7,"Sens":1.8,"Chartres":1.1,"Orleans":0.2,"Amiens":1.7,"Dieppe":1.8,"Dreux":1.5,"Evreux":3.2,"Meaux":4.1,"ChateauThierry":2.6,"Beauvais":1.0,"bottom edge 0.5E":1.4,"bottom edge 1.0E":1.3,"bottom edge 1.5E":1.1,"bottom edge 2.0E":0.1,"bottom edge 2.5E":0.1}},"features":[{"type":"Feature","properties":{"side":"front"},"geometry":{"type":"LineString","coordinates":[[0.1,49.43],[0.3772,49.4534],[0.3715,49.4872],[0.3658,49.5244],[0.383,49.5391],[0.4229,49.5461],[0.515,49.5465],[0.6315,49.5447],[0.7236,49.5394],[0.7706,49.5181],[0.8003,49.4888],[0.823,49.4663],[0.8283,49.4359],[0.8406,49.41],[0.8632,49.3965],[0.8959,49.4439],[0.9045,49.4732],[0.9218,49.4823],[0.9392,49.4733],[0.9462,49.4439],[0.9498,49.3988],[0.9568,49.365],[0.9794,49.3492],[1.0261,49.3549],[1.0486,49.3763],[1.0625,49.4136],[1.0746,49.4666],[1.0815,49.5117],[1.085,49.5635],[1.0937,49.585],[1.0711,49.621],[1.0607,49.6695],[1.0554,49.6977],[1.0763,49.7191],[1.1095,49.7259],[1.1321,49.7225],[1.1478,49.7123],[1.1426,49.6909],[1.1425,49.6627],[1.1146,49.5928],[1.1198,49.5714],[1.1528,49.5534],[1.1858,49.5466],[1.2067,49.5533],[1.2397,49.5465],[1.2624,49.5781],[1.2939,49.6276],[1.3271,49.6557],[1.3708,49.6906],[1.4041,49.7255],[1.4376,49.7682],[1.4535,49.7963],[1.4831,49.7906],[1.5107,49.7488],[1.5468,49.6889],[1.5831,49.6539],[1.6196,49.6537],[1.6669,49.6772],[1.7319,49.7242],[1.7866,49.7712],[1.8437,49.86],[1.8982,49.8776],[2.0083,49.8769],[2.1571,49.8814],[2.2314,49.9224],[2.3057,49.9567],[2.3991,49.9794],[2.47,50.03],[2.51,49.98],[2.54,49.88],[2.75,49.85],[3.0,49.8],[3.3,49.78],[3.6,49.62],[4.0,49.55],[4.4,49.5],[4.85,49.38],[5.25,49.25],[5.45,49.17],[5.52,49.0],[5.55,48.89],[5.65,48.76],[5.5,48.55],[5.2,48.4],[4.9,48.2],[4.55,48.05],[4.2,47.92],[3.75,47.72],[3.35,47.5],[3.1,47.05],[2.95,47.4],[2.65,47.67],[2.1,47.85],[1.9,47.89],[1.33,47.58],[0.7,47.38],[0.05,47.27],[-0.55,47.38],[-1.2,47.3],[-1.55,47.2],[-1.95,47.25],[-2.4,47.2]]}},{"type":"Feature","properties":{"side":"allied"},"geometry":{"type":"Polygon","coordinates":[[[0.1,49.43],[0.3772,49.4534],[0.3715,49.4872],[0.3658,49.5244],[0.383,49.5391],[0.4229,49.5461],[0.515,49.5465],[0.6315,49.5447],[0.7236,49.5394],[0.7706,49.5181],[0.8003,49.4888],[0.823,49.4663],[0.8283,49.4359],[0.8406,49.41],[0.8632,49.3965],[0.8959,49.4439],[0.9045,49.4732],[0.9218,49.4823],[0.9392,49.4733],[0.9462,49.4439],[0.9498,49.3988],[0.9568,49.365],[0.9794,49.3492],[1.0261,49.3549],[1.0486,49.3763],[1.0625,49.4136],[1.0746,49.4666],[1.0815,49.5117],[1.085,49.5635],[1.0937,49.585],[1.0711,49.621],[1.0607,49.6695],[1.0554,49.6977],[1.0763,49.7191],[1.1095,49.7259],[1.1321,49.7225],[1.1478,49.7123],[1.1426,49.6909],[1.1425,49.6627],[1.1146,49.5928],[1.1198,49.5714],[1.1528,49.5534],[1.1858,49.5466],[1.2067,49.5533],[1.2397,49.5465],[1.2624,49.5781],[1.2939,49.6276],[1.3271,49.6557],[1.3708,49.6906],[1.4041,49.7255],[1.4376,49.7682],[1.4535,49.7963],[1.4831,49.7906],[1.5107,49.7488],[1.5468,49.6889],[1.5831,49.6539],[1.6196,49.6537],[1.6669,49.6772],[1.7319,49.7242],[1.7866,49.7712],[1.8437,49.86],[1.8982,49.8776],[2.0083,49.8769],[2.1571,49.8814],[2.2314,49.9224],[2.3057,49.9567],[2.3991,49.9794],[2.47,50.03],[2.51,49.98],[2.54,49.88],[2.75,49.85],[3.0,49.8],[3.3,49.78],[3.6,49.62],[4.0,49.55],[4.4,49.5],[4.85,49.38],[5.25,49.25],[5.45,49.17],[5.52,49.0],[5.55,48.89],[5.65,48.76],[5.5,48.55],[5.2,48.4],[4.9,48.2],[4.55,48.05],[4.2,47.92],[3.75,47.72],[3.35,47.5],[3.1,47.05],[2.95,47.4],[2.65,47.67],[2.1,47.85],[1.9,47.89],[1.33,47.58],[0.7,47.38],[0.05,47.27],[-0.55,47.38],[-1.2,47.3],[-1.55,47.2],[-1.95,47.25],[-2.4,47.2],[-3.0,47.0],[-6.0,47.5],[-6.0,49.3],[-2.6,49.85],[-1.0,49.95],[0.0,49.47],[0.1,49.43]]]}},{"type":"Feature","properties":{"side":"axis"},"geometry":{"type":"Polygon","coordinates":[[[-30.0,30.0],[-30.0,62.0],[30.0,62.0],[30.0,30.0],[-30.0,30.0]],[[0.0,49.47],[-1.0,49.95],[-2.6,49.85],[-6.0,49.3],[-6.0,47.5],[-3.0,47.0],[-2.4,47.2],[-1.95,47.25],[-1.55,47.2],[-1.2,47.3],[-0.55,47.38],[0.05,47.27],[0.7,47.38],[1.33,47.58],[1.9,47.89],[2.1,47.85],[2.65,47.67],[2.95,47.4],[3.1,47.05],[3.35,47.5],[3.75,47.72],[4.2,47.92],[4.55,48.05],[4.9,48.2],[5.2,48.4],[5.5,48.55],[5.65,48.76],[5.55,48.89],[5.52,49.0],[5.45,49.17],[5.25,49.25],[4.85,49.38],[4.4,49.5],[4.0,49.55],[3.6,49.62],[3.3,49.78],[3.0,49.8],[2.75,49.85],[2.54,49.88],[2.51,49.98],[2.47,50.03],[2.3991,49.9794],[2.3057,49.9567],[2.2314,49.9224],[2.1571,49.8814],[2.0083,49.8769],[1.8982,49.8776],[1.8437,49.86],[1.7866,49.7712],[1.7319,49.7242],[1.6669,49.6772],[1.6196,49.6537],[1.5831,49.6539],[1.5468,49.6889],[1.5107,49.7488],[1.4831,49.7906],[1.4535,49.7963],[1.4376,49.7682],[1.4041,49.7255],[1.3708,49.6906],[1.3271,49.6557],[1.2939,49.6276],[1.2624,49.5781],[1.2397,49.5465],[1.2067,49.5533],[1.1858,49.5466],[1.1528,49.5534],[1.1198,49.5714],[1.1146,49.5928],[1.1425,49.6627],[1.1426,49.6909],[1.1478,49.7123],[1.1321,49.7225],[1.1095,49.7259],[1.0763,49.7191],[1.0554,49.6977],[1.0607,49.6695],[1.0711,49.621],[1.0937,49.585],[1.085,49.5635],[1.0815,49.5117],[1.0746,49.4666],[1.0625,49.4136],[1.0486,49.3763],[1.0261,49.3549],[0.9794,49.3492],[0.9568,49.365],[0.9498,49.3988],[0.9462,49.4439],[0.9392,49.4733],[0.9218,49.4823],[0.9045,49.4732],[0.8959,49.4439],[0.8632,49.3965],[0.8406,49.41],[0.8283,49.4359],[0.823,49.4663],[0.8003,49.4888],[0.7706,49.5181],[0.7236,49.5394],[0.6315,49.5447],[0.515,49.5465],[0.4229,49.5461],[0.383,49.5391],[0.3658,49.5244],[0.3715,49.4872],[0.3772,49.4534],[0.1,49.43],[0.0,49.47]]]}},{"type":"Feature","properties":{"side":"axis_pocket","name":"Brest and Crozon","note":"Brest and the Crozon peninsula, besieged until 19 September 1944; off the sheet"},"geometry":{"type":"Polygon","coordinates":[[[-4.8,48.42],[-4.55,48.5],[-4.32,48.45],[-4.35,48.33],[-4.3,48.2],[-4.55,48.15],[-4.65,48.25],[-4.8,48.32],[-4.8,48.42]]]}},{"type":"Feature","properties":{"side":"axis_pocket","name":"Lorient","note":"Lorient pocket (with Groix) between the Laïta and the Étel, held until 10 May 1945; off the sheets"},"geometry":{"type":"Polygon","coordinates":[[[-3.56,47.77],[-3.45,47.86],[-3.28,47.84],[-3.18,47.74],[-3.2,47.62],[-3.55,47.6],[-3.56,47.77]]]}},{"type":"Feature","properties":{"side":"axis_pocket","name":"Saint-Nazaire","note":"Saint-Nazaire pocket on both banks of the Loire estuary, held until 11 May 1945; off the sheets"},"geometry":{"type":"Polygon","coordinates":[[[-2.55,47.5],[-2.3,47.52],[-2.1,47.45],[-1.98,47.33],[-1.93,47.22],[-2.05,47.1],[-2.25,47.08],[-2.6,47.25],[-2.55,47.5]]]}},{"type":"Feature","properties":{"side":"axis_pocket","name":"La Rochelle","note":"La Rochelle–La Pallice with the Île de Ré, held until 9 May 1945; off the sheets"},"geometry":{"type":"Polygon","coordinates":[[[-1.6,46.25],[-1.25,46.28],[-1.05,46.22],[-1.0,46.1],[-1.12,46.05],[-1.45,46.1],[-1.6,46.25]]]}},{"type":"Feature","properties":{"side":"axis_pocket","name":"Royan, Pointe de Grave and Oléron","note":"Royan and the Pointe de Grave on both banks of the Gironde mouth, with Oléron, held until April–May 1945; off the sheets"},"geometry":{"type":"Polygon","coordinates":[[[-1.45,46.05],[-1.15,46.0],[-0.95,45.75],[-0.95,45.55],[-1.1,45.45],[-1.25,45.55],[-1.4,45.85],[-1.45,46.05]]]}},{"type":"Feature","properties":{"side":"allied_pocket","name":"Southern France","note":"South of the German retreat corridor: liberated by the FFI (Toulouse 19 August, Limoges 21 August, Bordeaux 28 August, Clermont-Ferrand 27 August) and by the forces of Operation Dragoon (Grenoble 22 August; at Meximieux before Lyon on 1 September; Nice 28 August); off the sheet, after the histories"},"geometry":{"type":"Polygon","coordinates":[[[-1.2,46.25],[0.15,45.7],[1.25,45.85],[3.08,45.8],[3.8,45.7],[4.4,45.48],[4.75,45.65],[5.2,45.9],[5.45,46.05],[6.1,46.2],[7.05,46.0],[6.95,45.5],[7.15,45.0],[6.95,44.4],[7.55,44.1],[7.55,43.75],[6.0,42.5],[3.5,41.5],[-3.0,42.5],[-3.0,46.25],[-1.2,46.25]]]}}]}