{"type":"FeatureCollection","source":{"archive":"Library of Congress, Geography and Map Division, World War II Military Situation Maps, HQ Twelfth Army Group situation map [July 1, 1944]","map_time":"2400 hrs 1 July 1944 (HQ FUSAG copy)","url":"https://www.loc.gov/item/2004629064/","image":"ict21026","cone_constant":0.76,"residuals_km":{"-1E 49.5N graticule":0.2,"-1E 49N graticule":0.1,"-1E 48.5N graticule":0.2,"-0.5E 49.5N graticule":0.1,"-0.5E 49N graticule":0.1,"-0.5E 48.5N graticule":0.1,"0E 49.5N graticule":0.1,"0E 49N graticule":0.1,"0E 48.5N graticule":0.1,"0.5E 49.5N graticule":0.1,"0.5E 49N graticule":0.1,"0.5E 48.5N graticule":0.1}},"features":[{"type":"Feature","properties":{"side":"front"},"geometry":{"type":"LineString","coordinates":[[-1.85,49.33],[-1.6928,49.3326],[-1.658,49.3444],[-1.6199,49.3638],[-1.591,49.3755],[-1.5525,49.3789],[-1.5127,49.3747],[-1.4833,49.362],[-1.4444,49.3463],[-1.4057,49.3345],[-1.3657,49.3188],[-1.3361,49.297],[-1.3172,49.2812],[-1.2882,49.2874],[-1.2592,49.3006],[-1.2347,49.3023],[-1.2101,49.291],[-1.1808,49.279],[-1.142,49.2602],[-1.1022,49.2445],[-1.0834,49.2286],[-1.0749,49.2035],[-1.063,49.1777],[-1.0337,49.1589],[-1.0021,49.1377],[-0.9647,49.1257],[-0.9275,49.1228],[-0.8996,49.1168],[-0.8762,49.1017],[-0.8436,49.0957],[-0.8064,49.0913],[-0.7832,49.0929],[-0.7601,49.1203],[-0.7509,49.1355],[-0.7231,49.1478],[-0.6859,49.1539],[-0.6487,49.1601],[-0.6301,49.1646],[-0.6115,49.154],[-0.5743,49.148],[-0.5463,49.1389],[-0.5277,49.1237],[-0.5045,49.1176],[-0.4859,49.1267],[-0.4812,49.1419],[-0.4905,49.1571],[-0.4998,49.1754],[-0.4952,49.1997],[-0.4905,49.2149],[-0.4812,49.2301],[-0.4346,49.2332],[-0.388,49.2316],[-0.3415,49.2316],[-0.3042,49.2391],[-0.2669,49.236],[-0.2389,49.2421],[-0.2202,49.2603],[-0.2201,49.2785],[-0.2293,49.2968],[-0.22,49.38]]}},{"type":"Feature","properties":{"side":"allied"},"geometry":{"type":"Polygon","coordinates":[[[-1.85,49.33],[-1.92,49.42],[-2.02,49.6],[-2.05,49.8],[-0.22,49.8],[-0.22,49.38],[-0.2293,49.2968],[-0.2201,49.2785],[-0.2202,49.2603],[-0.2389,49.2421],[-0.2669,49.236],[-0.3042,49.2391],[-0.3415,49.2316],[-0.388,49.2316],[-0.4346,49.2332],[-0.4812,49.2301],[-0.4905,49.2149],[-0.4952,49.1997],[-0.4998,49.1754],[-0.4905,49.1571],[-0.4812,49.1419],[-0.4859,49.1267],[-0.5045,49.1176],[-0.5277,49.1237],[-0.5463,49.1389],[-0.5743,49.148],[-0.6115,49.154],[-0.6301,49.1646],[-0.6487,49.1601],[-0.6859,49.1539],[-0.7231,49.1478],[-0.7509,49.1355],[-0.7601,49.1203],[-0.7832,49.0929],[-0.8064,49.0913],[-0.8436,49.0957],[-0.8762,49.1017],[-0.8996,49.1168],[-0.9275,49.1228],[-0.9647,49.1257],[-1.0021,49.1377],[-1.0337,49.1589],[-1.063,49.1777],[-1.0749,49.2035],[-1.0834,49.2286],[-1.1022,49.2445],[-1.142,49.2602],[-1.1808,49.279],[-1.2101,49.291],[-1.2347,49.3023],[-1.2592,49.3006],[-1.2882,49.2874],[-1.3172,49.2812],[-1.3361,49.297],[-1.3657,49.3188],[-1.4057,49.3345],[-1.4444,49.3463],[-1.4833,49.362],[-1.5127,49.3747],[-1.5525,49.3789],[-1.591,49.3755],[-1.6199,49.3638],[-1.658,49.3444],[-1.6928,49.3326],[-1.85,49.33]]]}},{"type":"Feature","properties":{"side":"axis"},"geometry":{"type":"Polygon","coordinates":[[[-30.0,30.0],[-30.0,62.0],[30.0,62.0],[30.0,30.0],[-30.0,30.0]],[[-1.6928,49.3326],[-1.658,49.3444],[-1.6199,49.3638],[-1.591,49.3755],[-1.5525,49.3789],[-1.5127,49.3747],[-1.4833,49.362],[-1.4444,49.3463],[-1.4057,49.3345],[-1.3657,49.3188],[-1.3361,49.297],[-1.3172,49.2812],[-1.2882,49.2874],[-1.2592,49.3006],[-1.2347,49.3023],[-1.2101,49.291],[-1.1808,49.279],[-1.142,49.2602],[-1.1022,49.2445],[-1.0834,49.2286],[-1.0749,49.2035],[-1.063,49.1777],[-1.0337,49.1589],[-1.0021,49.1377],[-0.9647,49.1257],[-0.9275,49.1228],[-0.8996,49.1168],[-0.8762,49.1017],[-0.8436,49.0957],[-0.8064,49.0913],[-0.7832,49.0929],[-0.7601,49.1203],[-0.7509,49.1355],[-0.7231,49.1478],[-0.6859,49.1539],[-0.6487,49.1601],[-0.6301,49.1646],[-0.6115,49.154],[-0.5743,49.148],[-0.5463,49.1389],[-0.5277,49.1237],[-0.5045,49.1176],[-0.4859,49.1267],[-0.4812,49.1419],[-0.4905,49.1571],[-0.4998,49.1754],[-0.4952,49.1997],[-0.4905,49.2149],[-0.4812,49.2301],[-0.4346,49.2332],[-0.388,49.2316],[-0.3415,49.2316],[-0.3042,49.2391],[-0.2669,49.236],[-0.2389,49.2421],[-0.2202,49.2603],[-0.2201,49.2785],[-0.2293,49.2968],[-0.22,49.38],[-0.22,49.8],[-2.05,49.8],[-2.02,49.6],[-1.92,49.42],[-1.85,49.33],[-1.6928,49.3326]]]}}]}