{"type":"FeatureCollection","source":{"archive":"Library of Congress, Geography and Map Division, World War II Military Situation Maps, HQ Twelfth Army Group situation map [December 1, 1944]","map_time":"1200 hrs 1 December 1944","url":"https://www.loc.gov/item/2004630273/","image":"ict21180","cone_constant":0.737,"residuals_km":{"Reims":1.8,"Chalons":0.3,"Troyes":0.7,"Brussels":0.9,"Namur":0.8,"Charleroi":0.8,"Arlon":0.3,"Epinal":1.1,"Koln":2.4,"Bruges (from 1 Nov)":0.7,"Ghent (from 1 Nov)":0.3,"Antwerp (from 1 Nov)":0.7,"Breda (from 1 Nov)":1.3,"Strasbourg (from 1 Nov)":0.6,"Saverne (from 1 Nov)":0.6,"Haguenau (from 1 Nov)":0.6,"Nancy (from 1 Nov)":0.9,"Selestat (from 1 Nov)":0.6,"bottom edge 4E":0.2,"bottom edge 5E":0.2,"bottom edge 6E":1.1,"bottom edge 7E":0.6,"bottom edge 8E":0.4}},"features":[{"type":"Feature","properties":{"side":"front"},"geometry":{"type":"LineString","coordinates":[[3.35,51.62],[3.4559,51.5229],[3.5364,51.5618],[3.6058,51.581],[3.6696,51.5594],[3.6801,51.537],[3.6791,51.564],[3.7316,51.5829],[3.8209,51.5871],[3.8938,51.5791],[4.0011,51.5519],[4.0367,51.5749],[4.1087,51.5923],[4.1252,51.609],[4.1608,51.6319],[4.2341,51.6102],[4.3043,51.6109],[4.3762,51.6401],[4.4457,51.6738],[4.5544,51.6913],[4.6609,51.6981],[4.77,51.7048],[4.896,51.707],[5.01,51.7136],[5.1215,51.7215],[5.2184,51.7323],[5.2839,51.7475],[5.3153,51.7716],[5.3492,51.8077],[5.3807,51.8423],[5.4292,51.8724],[5.4949,51.898],[5.5582,51.9176],[5.624,51.9371],[5.7045,51.952],[5.7704,51.9624],[5.8192,51.9668],[5.8434,51.9518],[5.8506,51.9277],[5.8845,51.8976],[5.8989,51.8675],[5.9327,51.8373],[5.9568,51.8072],[5.9637,51.7666],[5.9465,51.7411],[5.8979,51.7322],[5.8832,51.7172],[5.8975,51.6871],[5.9143,51.657],[5.9309,51.6164],[5.962,51.5757],[6.0101,51.5455],[6.0581,51.5152],[6.0892,51.485],[6.0988,51.4805],[6.1129,51.4503],[6.1052,51.4098],[6.0807,51.3708],[6.0491,51.3409],[6.0079,51.3155],[5.9596,51.2901],[5.9185,51.2706],[5.8943,51.2406],[5.8797,51.2106],[5.8627,51.1806],[5.8313,51.1551],[5.7976,51.1311],[5.752,51.1101],[5.7925,51.0604],[5.8592,51.0181],[5.9523,51.0013],[6.0455,50.9935],[6.1505,50.984],[6.2029,50.9671],[6.2431,50.9414],[6.3096,50.9169],[6.3301,50.8581],[6.3439,50.8279],[6.3766,50.7871],[6.383,50.7464],[6.3586,50.7074],[6.327,50.667],[6.3028,50.6371],[6.2787,50.6071],[6.2545,50.5772],[6.2374,50.5366],[6.2439,50.4975],[6.2766,50.4672],[6.3377,50.4457],[6.3777,50.4364],[6.3939,50.4152],[6.3838,50.3762],[6.369,50.3356],[6.3755,50.3055],[6.349,50.2695],[6.2944,50.2413],[6.2329,50.2145],[6.1805,50.1697],[6.1447,50.1247],[6.1184,50.0811],[6.1108,50.036],[6.1266,49.9802],[6.1682,49.9348],[6.2027,49.891],[6.2536,49.8561],[6.3235,49.8451],[6.4095,49.8219],[6.4601,49.7779],[6.5035,49.7323],[6.5189,49.687],[6.4762,49.6437],[6.4386,49.6229],[6.4168,49.5719],[6.3973,49.5163],[6.4552,49.5098],[6.4941,49.4839],[6.5517,49.4638],[6.5883,49.4394],[6.597,49.4137],[6.5871,49.3822],[6.6073,49.3519],[6.6648,49.3378],[6.7011,49.3058],[6.721,49.268],[6.729,49.2182],[6.7371,49.1684],[6.7663,49.1364],[6.8118,49.1164],[6.8691,49.1037],[6.8893,49.0854],[6.8589,49.0661],[6.7922,49.0669],[6.764,49.0415],[6.791,49.0171],[6.8484,49.0165],[6.8871,49.0025],[6.9045,48.9647],[6.9611,48.9399],[7.0571,48.9251],[7.1509,48.9179],[7.2196,48.9154],[7.3301,48.9289],[7.4602,48.9118],[7.5476,48.9178],[7.6124,48.8745],[7.655,48.8512],[7.7067,48.8291],[7.7493,48.8072],[7.7817,48.7629],[7.7889,48.7206],[7.7779,48.6771],[7.7621,48.6276],[7.7872,48.5759],[7.7773,48.558],[7.6894,48.5265],[7.6696,48.4861],[7.6522,48.4518],[7.6059,48.43],[7.5194,48.4254],[7.4483,48.4085],[7.3953,48.3868],[7.3423,48.3635],[7.2896,48.3477],[7.2371,48.3364],[7.1846,48.3266],[7.1478,48.309],[7.1218,48.2747],[7.1826,48.2618],[7.2531,48.2729],[7.3116,48.2599],[7.3285,48.225],[7.3028,48.2028],[7.2329,48.2098],[7.1627,48.2048],[7.128,48.1812],[7.0754,48.1593],[7.005,48.1481],[6.9526,48.1322],[6.916,48.1145],[6.8864,48.1028],[6.9418,48.0675],[6.9634,48.0326],[6.9491,48.0041],[7.13,47.8],[7.22,47.79],[7.35,47.8],[7.45,47.8],[7.53,47.8]]}},{"type":"Feature","properties":{"side":"allied"},"geometry":{"type":"Polygon","coordinates":[[[3.35,51.62],[3.4559,51.5229],[3.5364,51.5618],[3.6058,51.581],[3.6696,51.5594],[3.6801,51.537],[3.6791,51.564],[3.7316,51.5829],[3.8209,51.5871],[3.8938,51.5791],[4.0011,51.5519],[4.0367,51.5749],[4.1087,51.5923],[4.1252,51.609],[4.1608,51.6319],[4.2341,51.6102],[4.3043,51.6109],[4.3762,51.6401],[4.4457,51.6738],[4.5544,51.6913],[4.6609,51.6981],[4.77,51.7048],[4.896,51.707],[5.01,51.7136],[5.1215,51.7215],[5.2184,51.7323],[5.2839,51.7475],[5.3153,51.7716],[5.3492,51.8077],[5.3807,51.8423],[5.4292,51.8724],[5.4949,51.898],[5.5582,51.9176],[5.624,51.9371],[5.7045,51.952],[5.7704,51.9624],[5.8192,51.9668],[5.8434,51.9518],[5.8506,51.9277],[5.8845,51.8976],[5.8989,51.8675],[5.9327,51.8373],[5.9568,51.8072],[5.9637,51.7666],[5.9465,51.7411],[5.8979,51.7322],[5.8832,51.7172],[5.8975,51.6871],[5.9143,51.657],[5.9309,51.6164],[5.962,51.5757],[6.0101,51.5455],[6.0581,51.5152],[6.0892,51.485],[6.0988,51.4805],[6.1129,51.4503],[6.1052,51.4098],[6.0807,51.3708],[6.0491,51.3409],[6.0079,51.3155],[5.9596,51.2901],[5.9185,51.2706],[5.8943,51.2406],[5.8797,51.2106],[5.8627,51.1806],[5.8313,51.1551],[5.7976,51.1311],[5.752,51.1101],[5.7925,51.0604],[5.8592,51.0181],[5.9523,51.0013],[6.0455,50.9935],[6.1505,50.984],[6.2029,50.9671],[6.2431,50.9414],[6.3096,50.9169],[6.3301,50.8581],[6.3439,50.8279],[6.3766,50.7871],[6.383,50.7464],[6.3586,50.7074],[6.327,50.667],[6.3028,50.6371],[6.2787,50.6071],[6.2545,50.5772],[6.2374,50.5366],[6.2439,50.4975],[6.2766,50.4672],[6.3377,50.4457],[6.3777,50.4364],[6.3939,50.4152],[6.3838,50.3762],[6.369,50.3356],[6.3755,50.3055],[6.349,50.2695],[6.2944,50.2413],[6.2329,50.2145],[6.1805,50.1697],[6.1447,50.1247],[6.1184,50.0811],[6.1108,50.036],[6.1266,49.9802],[6.1682,49.9348],[6.2027,49.891],[6.2536,49.8561],[6.3235,49.8451],[6.4095,49.8219],[6.4601,49.7779],[6.5035,49.7323],[6.5189,49.687],[6.4762,49.6437],[6.4386,49.6229],[6.4168,49.5719],[6.3973,49.5163],[6.4552,49.5098],[6.4941,49.4839],[6.5517,49.4638],[6.5883,49.4394],[6.597,49.4137],[6.5871,49.3822],[6.6073,49.3519],[6.6648,49.3378],[6.7011,49.3058],[6.721,49.268],[6.729,49.2182],[6.7371,49.1684],[6.7663,49.1364],[6.8118,49.1164],[6.8691,49.1037],[6.8893,49.0854],[6.8589,49.0661],[6.7922,49.0669],[6.764,49.0415],[6.791,49.0171],[6.8484,49.0165],[6.8871,49.0025],[6.9045,48.9647],[6.9611,48.9399],[7.0571,48.9251],[7.1509,48.9179],[7.2196,48.9154],[7.3301,48.9289],[7.4602,48.9118],[7.5476,48.9178],[7.6124,48.8745],[7.655,48.8512],[7.7067,48.8291],[7.7493,48.8072],[7.7817,48.7629],[7.7889,48.7206],[7.7779,48.6771],[7.7621,48.6276],[7.7872,48.5759],[7.7773,48.558],[7.6894,48.5265],[7.6696,48.4861],[7.6522,48.4518],[7.6059,48.43],[7.5194,48.4254],[7.4483,48.4085],[7.3953,48.3868],[7.3423,48.3635],[7.2896,48.3477],[7.2371,48.3364],[7.1846,48.3266],[7.1478,48.309],[7.1218,48.2747],[7.1826,48.2618],[7.2531,48.2729],[7.3116,48.2599],[7.3285,48.225],[7.3028,48.2028],[7.2329,48.2098],[7.1627,48.2048],[7.128,48.1812],[7.0754,48.1593],[7.005,48.1481],[6.9526,48.1322],[6.916,48.1145],[6.8864,48.1028],[6.9418,48.0675],[6.9634,48.0326],[6.9491,48.0041],[7.13,47.8],[7.22,47.79],[7.35,47.8],[7.45,47.8],[7.53,47.8],[7.57,47.62],[7.6,47.45],[8.0,47.0],[8.0,43.5],[5.5,40.0],[-20.0,40.0],[-20.0,58.0],[3.35,51.62]]]}},{"type":"Feature","properties":{"side":"axis"},"geometry":{"type":"Polygon","coordinates":[[[-30.0,30.0],[-30.0,62.0],[30.0,62.0],[30.0,30.0],[-30.0,30.0]],[[-20.0,58.0],[-20.0,40.0],[5.5,40.0],[8.0,43.5],[8.0,47.0],[7.6,47.45],[7.57,47.62],[7.53,47.8],[7.45,47.8],[7.35,47.8],[7.22,47.79],[7.13,47.8],[6.9491,48.0041],[6.9634,48.0326],[6.9418,48.0675],[6.8864,48.1028],[6.916,48.1145],[6.9526,48.1322],[7.005,48.1481],[7.0754,48.1593],[7.128,48.1812],[7.1627,48.2048],[7.2329,48.2098],[7.3028,48.2028],[7.3285,48.225],[7.3116,48.2599],[7.2531,48.2729],[7.1826,48.2618],[7.1218,48.2747],[7.1478,48.309],[7.1846,48.3266],[7.2371,48.3364],[7.2896,48.3477],[7.3423,48.3635],[7.3953,48.3868],[7.4483,48.4085],[7.5194,48.4254],[7.6059,48.43],[7.6522,48.4518],[7.6696,48.4861],[7.6894,48.5265],[7.7773,48.558],[7.7872,48.5759],[7.7621,48.6276],[7.7779,48.6771],[7.7889,48.7206],[7.7817,48.7629],[7.7493,48.8072],[7.7067,48.8291],[7.655,48.8512],[7.6124,48.8745],[7.5476,48.9178],[7.4602,48.9118],[7.3301,48.9289],[7.2196,48.9154],[7.1509,48.9179],[7.0571,48.9251],[6.9611,48.9399],[6.9045,48.9647],[6.8871,49.0025],[6.8484,49.0165],[6.791,49.0171],[6.764,49.0415],[6.7922,49.0669],[6.8589,49.0661],[6.8893,49.0854],[6.8691,49.1037],[6.8118,49.1164],[6.7663,49.1364],[6.7371,49.1684],[6.729,49.2182],[6.721,49.268],[6.7011,49.3058],[6.6648,49.3378],[6.6073,49.3519],[6.5871,49.3822],[6.597,49.4137],[6.5883,49.4394],[6.5517,49.4638],[6.4941,49.4839],[6.4552,49.5098],[6.3973,49.5163],[6.4168,49.5719],[6.4386,49.6229],[6.4762,49.6437],[6.5189,49.687],[6.5035,49.7323],[6.4601,49.7779],[6.4095,49.8219],[6.3235,49.8451],[6.2536,49.8561],[6.2027,49.891],[6.1682,49.9348],[6.1266,49.9802],[6.1108,50.036],[6.1184,50.0811],[6.1447,50.1247],[6.1805,50.1697],[6.2329,50.2145],[6.2944,50.2413],[6.349,50.2695],[6.3755,50.3055],[6.369,50.3356],[6.3838,50.3762],[6.3939,50.4152],[6.3777,50.4364],[6.3377,50.4457],[6.2766,50.4672],[6.2439,50.4975],[6.2374,50.5366],[6.2545,50.5772],[6.2787,50.6071],[6.3028,50.6371],[6.327,50.667],[6.3586,50.7074],[6.383,50.7464],[6.3766,50.7871],[6.3439,50.8279],[6.3301,50.8581],[6.3096,50.9169],[6.2431,50.9414],[6.2029,50.9671],[6.1505,50.984],[6.0455,50.9935],[5.9523,51.0013],[5.8592,51.0181],[5.7925,51.0604],[5.752,51.1101],[5.7976,51.1311],[5.8313,51.1551],[5.8627,51.1806],[5.8797,51.2106],[5.8943,51.2406],[5.9185,51.2706],[5.9596,51.2901],[6.0079,51.3155],[6.0491,51.3409],[6.0807,51.3708],[6.1052,51.4098],[6.1129,51.4503],[6.0988,51.4805],[6.0892,51.485],[6.0581,51.5152],[6.0101,51.5455],[5.962,51.5757],[5.9309,51.6164],[5.9143,51.657],[5.8975,51.6871],[5.8832,51.7172],[5.8979,51.7322],[5.9465,51.7411],[5.9637,51.7666],[5.9568,51.8072],[5.9327,51.8373],[5.8989,51.8675],[5.8845,51.8976],[5.8506,51.9277],[5.8434,51.9518],[5.8192,51.9668],[5.7704,51.9624],[5.7045,51.952],[5.624,51.9371],[5.5582,51.9176],[5.4949,51.898],[5.4292,51.8724],[5.3807,51.8423],[5.3492,51.8077],[5.3153,51.7716],[5.2839,51.7475],[5.2184,51.7323],[5.1215,51.7215],[5.01,51.7136],[4.896,51.707],[4.77,51.7048],[4.6609,51.6981],[4.5544,51.6913],[4.4457,51.6738],[4.3762,51.6401],[4.3043,51.6109],[4.2341,51.6102],[4.1608,51.6319],[4.1252,51.609],[4.1087,51.5923],[4.0367,51.5749],[4.0011,51.5519],[3.8938,51.5791],[3.8209,51.5871],[3.7316,51.5829],[3.6791,51.564],[3.6801,51.537],[3.6696,51.5594],[3.6058,51.581],[3.5364,51.5618],[3.4559,51.5229],[3.35,51.62],[-20.0,58.0]]]}},{"type":"Feature","properties":{"side":"axis_pocket","name":"Dunkirk","note":"Fortress Dunkirk, held by the German garrison until 9 May 1945; perimeter from Mardyck to the Belgian border after the histories (the sheets show only the 226th Division there)"},"geometry":{"type":"Polygon","coordinates":[[[2.2,51.01],[2.2,51.03],[2.4,51.07],[2.56,51.1],[2.6,51.04],[2.55,50.97],[2.43,50.95],[2.33,50.95],[2.24,50.97],[2.2,51.01]]]}},{"type":"Feature","properties":{"side":"axis_pocket","name":"Lorient","note":"Lorient pocket (with Groix) between the Laïta and the Étel, held until 10 May 1945; off the sheets"},"geometry":{"type":"Polygon","coordinates":[[[-3.56,47.77],[-3.45,47.86],[-3.28,47.84],[-3.18,47.74],[-3.2,47.62],[-3.55,47.6],[-3.56,47.77]]]}},{"type":"Feature","properties":{"side":"axis_pocket","name":"Saint-Nazaire","note":"Saint-Nazaire pocket on both banks of the Loire estuary, held until 11 May 1945; off the sheets"},"geometry":{"type":"Polygon","coordinates":[[[-2.55,47.5],[-2.3,47.52],[-2.1,47.45],[-1.98,47.33],[-1.93,47.22],[-2.05,47.1],[-2.25,47.08],[-2.6,47.25],[-2.55,47.5]]]}},{"type":"Feature","properties":{"side":"axis_pocket","name":"La Rochelle","note":"La Rochelle–La Pallice with the Île de Ré, held until 9 May 1945; off the sheets"},"geometry":{"type":"Polygon","coordinates":[[[-1.6,46.25],[-1.25,46.28],[-1.05,46.22],[-1.0,46.1],[-1.12,46.05],[-1.45,46.1],[-1.6,46.25]]]}},{"type":"Feature","properties":{"side":"axis_pocket","name":"Royan, Pointe de Grave and Oléron","note":"Royan and the Pointe de Grave on both banks of the Gironde mouth, with Oléron, held until April–May 1945; off the sheets"},"geometry":{"type":"Polygon","coordinates":[[[-1.45,46.05],[-1.15,46.0],[-0.95,45.75],[-0.95,45.55],[-1.1,45.45],[-1.25,45.55],[-1.4,45.85],[-1.45,46.05]]]}}]}