{"type":"FeatureCollection","source":{"archive":"Library of Congress, Geography and Map Division, World War II Military Situation Maps, HQ Twelfth Army Group situation map [November 1, 1944]","map_time":"1200 hrs 1 November 1944","url":"https://www.loc.gov/item/2004630242/","image":"ict21150","cone_constant":0.901,"residuals_km":{"Reims":1.2,"Chalons":0.5,"Troyes":1.1,"Brussels":1.2,"Antwerp":0.8,"Namur":1.3,"Charleroi":0.7,"Arlon":0.9,"Bruges":1.9,"Ghent":1.6,"Breda":1.3,"bottom edge 4E":0.4,"bottom edge 5E":1.1,"bottom edge 6E":0.0,"bottom edge 7E":0.1,"bottom edge 8E":0.4,"right edge 51N":0.2,"right edge 50N":0.3,"right edge 49N":0.4,"right edge 48N":0.6}},"features":[{"type":"Feature","properties":{"side":"front"},"geometry":{"type":"LineString","coordinates":[[3.3,51.56],[3.4,51.45],[3.56,51.42],[3.69,51.44],[3.7,51.5],[3.72,51.555],[3.82,51.555],[4.0,51.545],[4.16,51.53],[4.2421,51.4777],[4.248,51.5417],[4.2643,51.58],[4.4407,51.5936],[4.6318,51.616],[4.7298,51.6439],[4.7542,51.6593],[4.8329,51.6488],[4.8598,51.6764],[4.894,51.71],[4.9481,51.7254],[5.0367,51.7148],[5.1057,51.6829],[5.1401,51.6386],[5.2114,51.6447],[5.2829,51.698],[5.352,51.7421],[5.4238,51.7969],[5.4586,51.8288],[5.4935,51.8623],[5.5482,51.8941],[5.6178,51.9259],[5.66,51.95],[5.72,51.965],[5.8,51.97],[5.88,51.965],[5.95,51.935],[5.9988,51.9188],[6.0071,51.8455],[5.986,51.7846],[5.9557,51.7483],[6.0044,51.7235],[6.023,51.6745],[6.0511,51.6132],[6.0399,51.5524],[5.9996,51.5039],[5.9597,51.4677],[5.9103,51.4437],[5.8709,51.4318],[5.8605,51.3953],[5.8204,51.3346],[5.8001,51.286],[5.8185,51.225],[5.8272,51.164],[5.8361,51.1152],[5.8351,51.0604],[5.9122,51.0386],[5.9965,51.0227],[6.0689,51.0114],[6.1046,50.9913],[6.1284,50.9728],[6.1763,50.9571],[6.2121,50.9415],[6.2162,50.9141],[6.2104,50.8761],[6.2093,50.8381],[6.2328,50.815],[6.2807,50.8069],[6.3408,50.8031],[6.3766,50.7951],[6.3878,50.7676],[6.4109,50.7369],[6.4145,50.6988],[6.3847,50.6688],[6.3479,50.6389],[6.3108,50.6013],[6.2789,50.5728],[6.2992,50.5285],[6.3387,50.4931],[6.3857,50.4667],[6.4183,50.4405],[6.4103,50.4147],[6.3833,50.3893],[6.3748,50.3453],[6.3951,50.3102],[6.3516,50.2849],[6.3107,50.2687],[6.2699,50.2509],[6.236,50.2255],[6.2066,50.1909],[6.1796,50.1563],[6.1644,50.114],[6.1444,50.0702],[6.1504,50.0277],[6.175,49.9744],[6.2067,49.9225],[6.2408,49.8797],[6.2449,49.8569],[6.2988,49.8487],[6.3665,49.8342],[6.4317,49.8167],[6.4734,49.798],[6.4981,49.7628],[6.5034,49.7112],[6.4806,49.66],[6.4252,49.6078],[6.4145,49.5655],[6.3921,49.5174],[6.3697,49.4707],[6.3383,49.4333],[6.2933,49.4051],[6.2345,49.3785],[6.1923,49.3639],[6.1616,49.3415],[6.1465,49.2933],[6.1384,49.2465],[6.1303,49.1997],[6.1012,49.141],[6.0843,49.1109],[6.079,49.0808],[6.0899,49.0505],[6.1285,49.0244],[6.1579,49.0044],[6.1665,48.9787],[6.1567,48.9546],[6.1653,48.9288],[6.1944,48.8983],[6.2396,48.8722],[6.3011,48.8518],[6.3763,48.8358],[6.4376,48.8153],[6.4662,48.7787],[6.5114,48.7585],[6.5725,48.738],[6.6172,48.7071],[6.6298,48.6767],[6.6747,48.6549],[6.7195,48.63],[6.7409,48.5935],[6.7322,48.5438],[6.7144,48.4944],[6.7057,48.4433],[6.7103,48.3829],[6.7239,48.3224],[6.7386,48.2935],[6.8311,48.2844],[6.8823,48.2624],[6.901,48.2214],[6.8682,48.1948],[6.8267,48.1745],[6.8046,48.1282],[6.7822,48.0729],[6.7693,48.0325],[6.7998,48.0049],[6.8594,47.9767],[6.8779,47.9342],[6.8476,47.9077],[6.7955,47.8951],[6.7541,47.8687],[6.7324,47.8285],[6.7202,47.8001],[6.6991,47.7734],[6.6775,47.7332],[6.656,47.6929],[6.64,47.6],[6.68,47.48],[6.75,47.4],[6.88,47.36]]}},{"type":"Feature","properties":{"side":"allied"},"geometry":{"type":"Polygon","coordinates":[[[3.3,51.56],[3.4,51.45],[3.56,51.42],[3.69,51.44],[3.7,51.5],[3.72,51.555],[3.82,51.555],[4.0,51.545],[4.16,51.53],[4.2421,51.4777],[4.248,51.5417],[4.2643,51.58],[4.4407,51.5936],[4.6318,51.616],[4.7298,51.6439],[4.7542,51.6593],[4.8329,51.6488],[4.8598,51.6764],[4.894,51.71],[4.9481,51.7254],[5.0367,51.7148],[5.1057,51.6829],[5.1401,51.6386],[5.2114,51.6447],[5.2829,51.698],[5.352,51.7421],[5.4238,51.7969],[5.4586,51.8288],[5.4935,51.8623],[5.5482,51.8941],[5.6178,51.9259],[5.66,51.95],[5.72,51.965],[5.8,51.97],[5.88,51.965],[5.95,51.935],[5.9988,51.9188],[6.0071,51.8455],[5.986,51.7846],[5.9557,51.7483],[6.0044,51.7235],[6.023,51.6745],[6.0511,51.6132],[6.0399,51.5524],[5.9996,51.5039],[5.9597,51.4677],[5.9103,51.4437],[5.8709,51.4318],[5.8605,51.3953],[5.8204,51.3346],[5.8001,51.286],[5.8185,51.225],[5.8272,51.164],[5.8361,51.1152],[5.8351,51.0604],[5.9122,51.0386],[5.9965,51.0227],[6.0689,51.0114],[6.1046,50.9913],[6.1284,50.9728],[6.1763,50.9571],[6.2121,50.9415],[6.2162,50.9141],[6.2104,50.8761],[6.2093,50.8381],[6.2328,50.815],[6.2807,50.8069],[6.3408,50.8031],[6.3766,50.7951],[6.3878,50.7676],[6.4109,50.7369],[6.4145,50.6988],[6.3847,50.6688],[6.3479,50.6389],[6.3108,50.6013],[6.2789,50.5728],[6.2992,50.5285],[6.3387,50.4931],[6.3857,50.4667],[6.4183,50.4405],[6.4103,50.4147],[6.3833,50.3893],[6.3748,50.3453],[6.3951,50.3102],[6.3516,50.2849],[6.3107,50.2687],[6.2699,50.2509],[6.236,50.2255],[6.2066,50.1909],[6.1796,50.1563],[6.1644,50.114],[6.1444,50.0702],[6.1504,50.0277],[6.175,49.9744],[6.2067,49.9225],[6.2408,49.8797],[6.2449,49.8569],[6.2988,49.8487],[6.3665,49.8342],[6.4317,49.8167],[6.4734,49.798],[6.4981,49.7628],[6.5034,49.7112],[6.4806,49.66],[6.4252,49.6078],[6.4145,49.5655],[6.3921,49.5174],[6.3697,49.4707],[6.3383,49.4333],[6.2933,49.4051],[6.2345,49.3785],[6.1923,49.3639],[6.1616,49.3415],[6.1465,49.2933],[6.1384,49.2465],[6.1303,49.1997],[6.1012,49.141],[6.0843,49.1109],[6.079,49.0808],[6.0899,49.0505],[6.1285,49.0244],[6.1579,49.0044],[6.1665,48.9787],[6.1567,48.9546],[6.1653,48.9288],[6.1944,48.8983],[6.2396,48.8722],[6.3011,48.8518],[6.3763,48.8358],[6.4376,48.8153],[6.4662,48.7787],[6.5114,48.7585],[6.5725,48.738],[6.6172,48.7071],[6.6298,48.6767],[6.6747,48.6549],[6.7195,48.63],[6.7409,48.5935],[6.7322,48.5438],[6.7144,48.4944],[6.7057,48.4433],[6.7103,48.3829],[6.7239,48.3224],[6.7386,48.2935],[6.8311,48.2844],[6.8823,48.2624],[6.901,48.2214],[6.8682,48.1948],[6.8267,48.1745],[6.8046,48.1282],[6.7822,48.0729],[6.7693,48.0325],[6.7998,48.0049],[6.8594,47.9767],[6.8779,47.9342],[6.8476,47.9077],[6.7955,47.8951],[6.7541,47.8687],[6.7324,47.8285],[6.7202,47.8001],[6.6991,47.7734],[6.6775,47.7332],[6.656,47.6929],[6.64,47.6],[6.68,47.48],[6.75,47.4],[6.88,47.36],[8.0,47.0],[8.0,43.5],[5.5,40.0],[-20.0,40.0],[-20.0,58.0],[3.3,51.56]]]}},{"type":"Feature","properties":{"side":"axis"},"geometry":{"type":"Polygon","coordinates":[[[-30.0,30.0],[-30.0,62.0],[30.0,62.0],[30.0,30.0],[-30.0,30.0]],[[-20.0,58.0],[-20.0,40.0],[5.5,40.0],[8.0,43.5],[8.0,47.0],[6.88,47.36],[6.75,47.4],[6.68,47.48],[6.64,47.6],[6.656,47.6929],[6.6775,47.7332],[6.6991,47.7734],[6.7202,47.8001],[6.7324,47.8285],[6.7541,47.8687],[6.7955,47.8951],[6.8476,47.9077],[6.8779,47.9342],[6.8594,47.9767],[6.7998,48.0049],[6.7693,48.0325],[6.7822,48.0729],[6.8046,48.1282],[6.8267,48.1745],[6.8682,48.1948],[6.901,48.2214],[6.8823,48.2624],[6.8311,48.2844],[6.7386,48.2935],[6.7239,48.3224],[6.7103,48.3829],[6.7057,48.4433],[6.7144,48.4944],[6.7322,48.5438],[6.7409,48.5935],[6.7195,48.63],[6.6747,48.6549],[6.6298,48.6767],[6.6172,48.7071],[6.5725,48.738],[6.5114,48.7585],[6.4662,48.7787],[6.4376,48.8153],[6.3763,48.8358],[6.3011,48.8518],[6.2396,48.8722],[6.1944,48.8983],[6.1653,48.9288],[6.1567,48.9546],[6.1665,48.9787],[6.1579,49.0044],[6.1285,49.0244],[6.0899,49.0505],[6.079,49.0808],[6.0843,49.1109],[6.1012,49.141],[6.1303,49.1997],[6.1384,49.2465],[6.1465,49.2933],[6.1616,49.3415],[6.1923,49.3639],[6.2345,49.3785],[6.2933,49.4051],[6.3383,49.4333],[6.3697,49.4707],[6.3921,49.5174],[6.4145,49.5655],[6.4252,49.6078],[6.4806,49.66],[6.5034,49.7112],[6.4981,49.7628],[6.4734,49.798],[6.4317,49.8167],[6.3665,49.8342],[6.2988,49.8487],[6.2449,49.8569],[6.2408,49.8797],[6.2067,49.9225],[6.175,49.9744],[6.1504,50.0277],[6.1444,50.0702],[6.1644,50.114],[6.1796,50.1563],[6.2066,50.1909],[6.236,50.2255],[6.2699,50.2509],[6.3107,50.2687],[6.3516,50.2849],[6.3951,50.3102],[6.3748,50.3453],[6.3833,50.3893],[6.4103,50.4147],[6.4183,50.4405],[6.3857,50.4667],[6.3387,50.4931],[6.2992,50.5285],[6.2789,50.5728],[6.3108,50.6013],[6.3479,50.6389],[6.3847,50.6688],[6.4145,50.6988],[6.4109,50.7369],[6.3878,50.7676],[6.3766,50.7951],[6.3408,50.8031],[6.2807,50.8069],[6.2328,50.815],[6.2093,50.8381],[6.2104,50.8761],[6.2162,50.9141],[6.2121,50.9415],[6.1763,50.9571],[6.1284,50.9728],[6.1046,50.9913],[6.0689,51.0114],[5.9965,51.0227],[5.9122,51.0386],[5.8351,51.0604],[5.8361,51.1152],[5.8272,51.164],[5.8185,51.225],[5.8001,51.286],[5.8204,51.3346],[5.8605,51.3953],[5.8709,51.4318],[5.9103,51.4437],[5.9597,51.4677],[5.9996,51.5039],[6.0399,51.5524],[6.0511,51.6132],[6.023,51.6745],[6.0044,51.7235],[5.9557,51.7483],[5.986,51.7846],[6.0071,51.8455],[5.9988,51.9188],[5.95,51.935],[5.88,51.965],[5.8,51.97],[5.72,51.965],[5.66,51.95],[5.6178,51.9259],[5.5482,51.8941],[5.4935,51.8623],[5.4586,51.8288],[5.4238,51.7969],[5.352,51.7421],[5.2829,51.698],[5.2114,51.6447],[5.1401,51.6386],[5.1057,51.6829],[5.0367,51.7148],[4.9481,51.7254],[4.894,51.71],[4.8598,51.6764],[4.8329,51.6488],[4.7542,51.6593],[4.7298,51.6439],[4.6318,51.616],[4.4407,51.5936],[4.2643,51.58],[4.248,51.5417],[4.2421,51.4777],[4.16,51.53],[4.0,51.545],[3.82,51.555],[3.72,51.555],[3.7,51.5],[3.69,51.44],[3.56,51.42],[3.4,51.45],[3.3,51.56],[-20.0,58.0]]]}},{"type":"Feature","properties":{"side":"axis_pocket","name":"Dunkirk","note":"Fortress Dunkirk, held by the German garrison until 9 May 1945; perimeter from Mardyck to the Belgian border after the histories (the sheets show only the 226th Division there)"},"geometry":{"type":"Polygon","coordinates":[[[2.2,51.01],[2.2,51.03],[2.4,51.07],[2.56,51.1],[2.6,51.04],[2.55,50.97],[2.43,50.95],[2.33,50.95],[2.24,50.97],[2.2,51.01]]]}},{"type":"Feature","properties":{"side":"axis_pocket","name":"Lorient","note":"Lorient pocket (with Groix) between the Laïta and the Étel, held until 10 May 1945; off the sheets"},"geometry":{"type":"Polygon","coordinates":[[[-3.56,47.77],[-3.45,47.86],[-3.28,47.84],[-3.18,47.74],[-3.2,47.62],[-3.55,47.6],[-3.56,47.77]]]}},{"type":"Feature","properties":{"side":"axis_pocket","name":"Saint-Nazaire","note":"Saint-Nazaire pocket on both banks of the Loire estuary, held until 11 May 1945; off the sheets"},"geometry":{"type":"Polygon","coordinates":[[[-2.55,47.5],[-2.3,47.52],[-2.1,47.45],[-1.98,47.33],[-1.93,47.22],[-2.05,47.1],[-2.25,47.08],[-2.6,47.25],[-2.55,47.5]]]}},{"type":"Feature","properties":{"side":"axis_pocket","name":"La Rochelle","note":"La Rochelle–La Pallice with the Île de Ré, held until 9 May 1945; off the sheets"},"geometry":{"type":"Polygon","coordinates":[[[-1.6,46.25],[-1.25,46.28],[-1.05,46.22],[-1.0,46.1],[-1.12,46.05],[-1.45,46.1],[-1.6,46.25]]]}},{"type":"Feature","properties":{"side":"axis_pocket","name":"Royan, Pointe de Grave and Oléron","note":"Royan and the Pointe de Grave on both banks of the Gironde mouth, with Oléron, held until April–May 1945; off the sheets"},"geometry":{"type":"Polygon","coordinates":[[[-1.45,46.05],[-1.15,46.0],[-0.95,45.75],[-0.95,45.55],[-1.1,45.45],[-1.25,45.55],[-1.4,45.85],[-1.45,46.05]]]}},{"type":"Feature","properties":{"side":"axis_pocket","name":"Knokke","note":"Remnant of the Breskens pocket at Knokke–Zeebrugge (64th Division, surrendered 2–3 November 1944), drawn on the sheet"},"geometry":{"type":"Polygon","coordinates":[[[3.1381,51.3355],[3.15,51.36],[3.32,51.4],[3.3806,51.3674],[3.3326,51.2964],[3.2813,51.2468],[3.2106,51.2988],[3.1381,51.3355]]]}}]}