{"type":"FeatureCollection","source":{"archive":"Library of Congress, Geography and Map Division, World War II Military Situation Maps, HQ Twelfth Army Group situation map [October 1, 1944]","map_time":"1200 hrs 1 October 1944","url":"https://www.loc.gov/item/2004630211/","image":"ict21118","cone_constant":0.881,"residuals_km":{"Reims":1.0,"Chalons":0.6,"Troyes":1.1,"Brussels":1.1,"Antwerp":0.6,"Namur":1.5,"Charleroi":0.8,"Arlon":0.7,"Bruges":1.9,"Ghent":1.6,"Breda":1.5,"bottom edge 4E":0.5,"bottom edge 5E":1.2,"bottom edge 6E":0.2,"bottom edge 7E":0.1,"bottom edge 8E":0.3,"right edge 51N":0.0,"right edge 50N":0.3,"right edge 49N":0.4,"right edge 48N":0.4}},"features":[{"type":"Feature","properties":{"side":"front"},"geometry":{"type":"LineString","coordinates":[[3.1,51.4],[3.17,51.33],[3.21,51.29],[3.26,51.26],[3.36,51.245],[3.46,51.23],[3.56,51.245],[3.65,51.26],[3.72,51.29],[3.76,51.34],[3.85,51.4],[4.0,51.41],[4.12,51.38],[4.22,51.34],[4.3,51.31],[4.42,51.33],[4.55,51.36],[4.68,51.4],[4.8,51.4],[4.9,51.41],[5.0,51.4],[5.1,51.42],[5.2,51.44],[5.3,51.47],[5.38,51.52],[5.42,51.58],[5.47,51.64],[5.52,51.7],[5.56,51.78],[5.6,51.85],[5.66,51.93],[5.72,51.965],[5.8,51.97],[5.88,51.965],[5.95,51.935],[6.0,51.88],[6.0,51.82],[5.97,51.76],[5.93,51.72],[5.9,51.62],[5.9,51.55],[5.85,51.48],[5.8,51.4],[5.78,51.3],[5.8,51.2],[5.86,51.12],[5.92,51.06],[6.0,51.02],[6.08,50.98],[6.1,50.93],[6.05,50.85],[6.02,50.79],[6.08,50.74],[6.2,50.75],[6.27,50.72],[6.28,50.65],[6.25,50.58],[6.32,50.48],[6.38,50.35],[6.3,50.25],[6.15,50.16],[6.13,50.05],[6.17,49.95],[6.28,49.85],[6.45,49.73],[6.4,49.55],[6.36,49.47],[6.25,49.48],[6.12,49.38],[6.08,49.25],[6.03,49.15],[6.06,49.05],[6.1,48.95],[6.2,48.85],[6.35,48.8],[6.48,48.73],[6.55,48.65],[6.6,48.58],[6.68,48.5],[6.65,48.4],[6.62,48.3],[6.55,48.18],[6.6,48.05],[6.62,47.92],[6.62,47.8],[6.62,47.7],[6.68,47.55],[6.76,47.42],[6.88,47.36]]}},{"type":"Feature","properties":{"side":"allied"},"geometry":{"type":"Polygon","coordinates":[[[3.1,51.4],[3.17,51.33],[3.21,51.29],[3.26,51.26],[3.36,51.245],[3.46,51.23],[3.56,51.245],[3.65,51.26],[3.72,51.29],[3.76,51.34],[3.85,51.4],[4.0,51.41],[4.12,51.38],[4.22,51.34],[4.3,51.31],[4.42,51.33],[4.55,51.36],[4.68,51.4],[4.8,51.4],[4.9,51.41],[5.0,51.4],[5.1,51.42],[5.2,51.44],[5.3,51.47],[5.38,51.52],[5.42,51.58],[5.47,51.64],[5.52,51.7],[5.56,51.78],[5.6,51.85],[5.66,51.93],[5.72,51.965],[5.8,51.97],[5.88,51.965],[5.95,51.935],[6.0,51.88],[6.0,51.82],[5.97,51.76],[5.93,51.72],[5.9,51.62],[5.9,51.55],[5.85,51.48],[5.8,51.4],[5.78,51.3],[5.8,51.2],[5.86,51.12],[5.92,51.06],[6.0,51.02],[6.08,50.98],[6.1,50.93],[6.05,50.85],[6.02,50.79],[6.08,50.74],[6.2,50.75],[6.27,50.72],[6.28,50.65],[6.25,50.58],[6.32,50.48],[6.38,50.35],[6.3,50.25],[6.15,50.16],[6.13,50.05],[6.17,49.95],[6.28,49.85],[6.45,49.73],[6.4,49.55],[6.36,49.47],[6.25,49.48],[6.12,49.38],[6.08,49.25],[6.03,49.15],[6.06,49.05],[6.1,48.95],[6.2,48.85],[6.35,48.8],[6.48,48.73],[6.55,48.65],[6.6,48.58],[6.68,48.5],[6.65,48.4],[6.62,48.3],[6.55,48.18],[6.6,48.05],[6.62,47.92],[6.62,47.8],[6.62,47.7],[6.68,47.55],[6.76,47.42],[6.88,47.36],[8.0,47.0],[8.0,43.5],[5.5,40.0],[-20.0,40.0],[-20.0,58.0],[3.1,51.4]]]}},{"type":"Feature","properties":{"side":"axis"},"geometry":{"type":"Polygon","coordinates":[[[-30.0,30.0],[-30.0,62.0],[30.0,62.0],[30.0,30.0],[-30.0,30.0]],[[-20.0,58.0],[-20.0,40.0],[5.5,40.0],[8.0,43.5],[8.0,47.0],[6.88,47.36],[6.76,47.42],[6.68,47.55],[6.62,47.7],[6.62,47.8],[6.62,47.92],[6.6,48.05],[6.55,48.18],[6.62,48.3],[6.65,48.4],[6.68,48.5],[6.6,48.58],[6.55,48.65],[6.48,48.73],[6.35,48.8],[6.2,48.85],[6.1,48.95],[6.06,49.05],[6.03,49.15],[6.08,49.25],[6.12,49.38],[6.25,49.48],[6.36,49.47],[6.4,49.55],[6.45,49.73],[6.28,49.85],[6.17,49.95],[6.13,50.05],[6.15,50.16],[6.3,50.25],[6.38,50.35],[6.32,50.48],[6.25,50.58],[6.28,50.65],[6.27,50.72],[6.2,50.75],[6.08,50.74],[6.02,50.79],[6.05,50.85],[6.1,50.93],[6.08,50.98],[6.0,51.02],[5.92,51.06],[5.86,51.12],[5.8,51.2],[5.78,51.3],[5.8,51.4],[5.85,51.48],[5.9,51.55],[5.9,51.62],[5.93,51.72],[5.97,51.76],[6.0,51.82],[6.0,51.88],[5.95,51.935],[5.88,51.965],[5.8,51.97],[5.72,51.965],[5.66,51.93],[5.6,51.85],[5.56,51.78],[5.52,51.7],[5.47,51.64],[5.42,51.58],[5.38,51.52],[5.3,51.47],[5.2,51.44],[5.1,51.42],[5.0,51.4],[4.9,51.41],[4.8,51.4],[4.68,51.4],[4.55,51.36],[4.42,51.33],[4.3,51.31],[4.22,51.34],[4.12,51.38],[4.0,51.41],[3.85,51.4],[3.76,51.34],[3.72,51.29],[3.65,51.26],[3.56,51.245],[3.46,51.23],[3.36,51.245],[3.26,51.26],[3.21,51.29],[3.17,51.33],[3.1,51.4],[-20.0,58.0]]]}},{"type":"Feature","properties":{"side":"axis_pocket","name":"Dunkirk","note":"Fortress Dunkirk, held by the German garrison until 9 May 1945; perimeter from Mardyck to the Belgian border after the histories (the sheets show only the 226th Division there)"},"geometry":{"type":"Polygon","coordinates":[[[2.2,51.01],[2.2,51.03],[2.4,51.07],[2.56,51.1],[2.6,51.04],[2.55,50.97],[2.43,50.95],[2.33,50.95],[2.24,50.97],[2.2,51.01]]]}},{"type":"Feature","properties":{"side":"axis_pocket","name":"Lorient","note":"Lorient pocket (with Groix) between the Laïta and the Étel, held until 10 May 1945; off the sheets"},"geometry":{"type":"Polygon","coordinates":[[[-3.56,47.77],[-3.45,47.86],[-3.28,47.84],[-3.18,47.74],[-3.2,47.62],[-3.55,47.6],[-3.56,47.77]]]}},{"type":"Feature","properties":{"side":"axis_pocket","name":"Saint-Nazaire","note":"Saint-Nazaire pocket on both banks of the Loire estuary, held until 11 May 1945; off the sheets"},"geometry":{"type":"Polygon","coordinates":[[[-2.55,47.5],[-2.3,47.52],[-2.1,47.45],[-1.98,47.33],[-1.93,47.22],[-2.05,47.1],[-2.25,47.08],[-2.6,47.25],[-2.55,47.5]]]}},{"type":"Feature","properties":{"side":"axis_pocket","name":"La Rochelle","note":"La Rochelle–La Pallice with the Île de Ré, held until 9 May 1945; off the sheets"},"geometry":{"type":"Polygon","coordinates":[[[-1.6,46.25],[-1.25,46.28],[-1.05,46.22],[-1.0,46.1],[-1.12,46.05],[-1.45,46.1],[-1.6,46.25]]]}},{"type":"Feature","properties":{"side":"axis_pocket","name":"Royan, Pointe de Grave and Oléron","note":"Royan and the Pointe de Grave on both banks of the Gironde mouth, with Oléron, held until April–May 1945; off the sheets"},"geometry":{"type":"Polygon","coordinates":[[[-1.45,46.05],[-1.15,46.0],[-0.95,45.75],[-0.95,45.55],[-1.1,45.45],[-1.25,45.55],[-1.4,45.85],[-1.45,46.05]]]}}]}