{"type":"FeatureCollection","source":{"archive":"Library of Congress, Geography and Map Division, World War II Military Situation Maps, HQ Twelfth Army Group situation map [August 1, 1944]","map_time":"1200 hrs 1 August 1944","url":"https://www.loc.gov/item/2004629095/","image":"ict21057","cone_constant":0.753,"residuals_km":{"-1E 49.5N graticule":0.2,"-1E 49N graticule":0.1,"-1E 48.5N graticule":0.2,"-0.5E 49.5N graticule":0.1,"-0.5E 49N graticule":0.1,"-0.5E 48.5N graticule":0.1,"0E 49.5N graticule":0.1,"0E 49N graticule":0.1,"0E 48.5N graticule":0.1,"0.5E 49.5N graticule":0.1,"0.5E 49N graticule":0.1,"0.5E 48.5N graticule":0.2}},"features":[{"type":"Feature","properties":{"side":"front"},"geometry":{"type":"LineString","coordinates":[[-1.72,48.84],[-1.5867,48.8286],[-1.5336,48.8306],[-1.4666,48.832],[-1.4273,48.83],[-1.389,48.8189],[-1.3506,48.8063],[-1.3113,48.802],[-1.2879,48.7846],[-1.2682,48.7787],[-1.2533,48.7879],[-1.2491,48.8108],[-1.2354,48.8261],[-1.2112,48.83],[-1.195,48.8286],[-1.2241,48.8444],[-1.2326,48.874],[-1.2296,48.9014],[-1.1928,48.9206],[-1.1514,48.9376],[-1.1225,48.9484],[-1.1286,48.9727],[-1.1266,48.9971],[-1.0862,49.011],[-1.0364,49.0143],[-0.9865,49.0114],[-0.9493,49.0032],[-0.9156,48.9927],[-0.8946,48.9738],[-0.8805,48.9464],[-0.8908,48.9357],[-0.899,48.9464],[-0.8702,48.9738],[-0.8658,49.0066],[-0.8369,49.0173],[-0.7998,49.0258],[-0.7791,49.0502],[-0.7676,49.0776],[-0.7503,49.0989],[-0.7342,49.1195],[-0.697,49.1211],[-0.654,49.1196],[-0.6098,49.1174],[-0.5517,49.1144],[-0.4936,49.1144],[-0.4425,49.1174],[-0.4215,49.1242],[-0.4064,49.112],[-0.3774,49.1052],[-0.3414,49.1074],[-0.3053,49.1195],[-0.2611,49.1308],[-0.2389,49.1452],[-0.2214,49.1688],[-0.2178,49.1878],[-0.221,49.2258],[-0.2244,49.2547],[-0.2207,49.2905],[-0.22,49.38]]}},{"type":"Feature","properties":{"side":"allied"},"geometry":{"type":"Polygon","coordinates":[[[-1.72,48.84],[-1.75,48.95],[-1.78,49.15],[-1.9,49.4],[-2.02,49.6],[-2.05,49.8],[-0.22,49.8],[-0.22,49.38],[-0.2207,49.2905],[-0.2244,49.2547],[-0.221,49.2258],[-0.2178,49.1878],[-0.2214,49.1688],[-0.2389,49.1452],[-0.2611,49.1308],[-0.3053,49.1195],[-0.3414,49.1074],[-0.3774,49.1052],[-0.4064,49.112],[-0.4215,49.1242],[-0.4425,49.1174],[-0.4936,49.1144],[-0.5517,49.1144],[-0.6098,49.1174],[-0.654,49.1196],[-0.697,49.1211],[-0.7342,49.1195],[-0.7503,49.0989],[-0.7676,49.0776],[-0.7791,49.0502],[-0.7998,49.0258],[-0.8369,49.0173],[-0.8658,49.0066],[-0.8702,48.9738],[-0.8865804195804196,48.95821585081585],[-0.8946,48.9738],[-0.9156,48.9927],[-0.9493,49.0032],[-0.9865,49.0114],[-1.0364,49.0143],[-1.0862,49.011],[-1.1266,48.9971],[-1.1286,48.9727],[-1.1225,48.9484],[-1.1514,48.9376],[-1.1928,48.9206],[-1.2296,48.9014],[-1.2326,48.874],[-1.2241,48.8444],[-1.195,48.8286],[-1.2112,48.83],[-1.2354,48.8261],[-1.2491,48.8108],[-1.2533,48.7879],[-1.2682,48.7787],[-1.2879,48.7846],[-1.3113,48.802],[-1.3506,48.8063],[-1.389,48.8189],[-1.4273,48.83],[-1.4666,48.832],[-1.5336,48.8306],[-1.5867,48.8286],[-1.72,48.84]]]}},{"type":"Feature","properties":{"side":"axis"},"geometry":{"type":"Polygon","coordinates":[[[-30.0,30.0],[-30.0,62.0],[30.0,62.0],[30.0,30.0],[-30.0,30.0]],[[-1.5867,48.8286],[-1.5336,48.8306],[-1.4666,48.832],[-1.4273,48.83],[-1.389,48.8189],[-1.3506,48.8063],[-1.3113,48.802],[-1.2879,48.7846],[-1.2682,48.7787],[-1.2533,48.7879],[-1.2491,48.8108],[-1.2354,48.8261],[-1.2112,48.83],[-1.195,48.8286],[-1.2241,48.8444],[-1.2326,48.874],[-1.2296,48.9014],[-1.1928,48.9206],[-1.1514,48.9376],[-1.1225,48.9484],[-1.1286,48.9727],[-1.1266,48.9971],[-1.0862,49.011],[-1.0364,49.0143],[-0.9865,49.0114],[-0.9493,49.0032],[-0.9156,48.9927],[-0.8946,48.9738],[-0.8865804195804196,48.95821585081585],[-0.8702,48.9738],[-0.8658,49.0066],[-0.8369,49.0173],[-0.7998,49.0258],[-0.7791,49.0502],[-0.7676,49.0776],[-0.7503,49.0989],[-0.7342,49.1195],[-0.697,49.1211],[-0.654,49.1196],[-0.6098,49.1174],[-0.5517,49.1144],[-0.4936,49.1144],[-0.4425,49.1174],[-0.4215,49.1242],[-0.4064,49.112],[-0.3774,49.1052],[-0.3414,49.1074],[-0.3053,49.1195],[-0.2611,49.1308],[-0.2389,49.1452],[-0.2214,49.1688],[-0.2178,49.1878],[-0.221,49.2258],[-0.2244,49.2547],[-0.2207,49.2905],[-0.22,49.38],[-0.22,49.8],[-2.05,49.8],[-2.02,49.6],[-1.9,49.4],[-1.78,49.15],[-1.75,48.95],[-1.72,48.84],[-1.5867,48.8286]]]}}]}